{
  "type": "FeatureCollection",
  "features": [
    {
      "type": "Feature",
      "geometry": {
        "type": "Point",
        "coordinates": [
          -90.0715,
          29.9511
        ]
      },
      "properties": {
        "Settlement": "New Orleans",
        "Alt_Location": "New Orleans, Louisiana",
        "Note2": 2,
        "Image": "Saint Augustine Church, New Orleans, seen from Governor Nicholls Street, 1885. Public domain via Wikimedia Commons.",
        "URL": "https://upload.wikimedia.org/wikipedia/commons/c/c0/Saint_Augustine_Church,_New_Orleans,_seen_from_Governor_Nicholls_Street,_1885.jpg",
        "Note3": null,
        "Note4": null,
        "Note5": 27000
      }
    },
    {
      "type": "Feature",
      "geometry": {
        "type": "Point",
        "coordinates": [
          -73.5673,
          45.5017
        ]
      },
      "properties": {
        "Settlement": "Montreal",
        "Alt_Location": "Montreal, Canada",
        "Note2": 3,
        "Image": "Engraving by Henry Richard S. Bunnett (1845–1910), reconstructing Le Compain’s Hôtel at Place d’Armes and Petite rue Saint-Jacques in Old Montreal, c. 1850. Philippe Du Berger, CC BY 2.0, via Wikimedia Commons.",
        "URL": "https://upload.wikimedia.org/wikipedia/commons/5/56/Vieux-Montr%C3%A9al,_vers_1850._Coin_Sud-Est_de_Place_dArmes_et_Petite_rue_Saint-Jacques._%286702316293%29.jpg?utm_campaign=index&utm_content=original&utm_source=commons.wikimedia.org",
        "Note3": null,
        "Note4": 1642.0,
        "Note5": 15000
      }
    },
    {
      "type": "Feature",
      "geometry": {
        "type": "Point",
        "coordinates": [
          -90.1994,
          38.627
        ]
      },
      "properties": {
        "Settlement": "St. Louis",
        "Alt_Location": "St. Louis, Missouri",
        "Note2": 4,
        "Image": "Hand-colored lithograph by J. C. Wild, c. 1840, showing the first St. Louis Cathedral and Bishop’s House from the southeast, with part of the church orphan asylum visible in the background. Missouri History Museum; public domain via Wikimedia Commons.",
        "URL": "https://upload.wikimedia.org/wikipedia/commons/9/98/%22St._Louis_Cathedral%22_Published_and_Lithographed_By_J._C._Wild_At_The_Missouri_Republican_Offic_%28sic%29.jpg",
        "Note3": null,
        "Note4": null,
        "Note5": 4600
      }
    },
    {
      "type": "Feature",
      "geometry": {
        "type": "Point",
        "coordinates": [
          -91.4032,
          31.5604
        ]
      },
      "properties": {
        "Settlement": "Natchez",
        "Alt_Location": "Natchez, Mississippi",
        "Note2": 6,
        "Image": "“View of the Fort of the Natchez,” by Georges Henri Victor Collot, from Voyage dans l'Amérique Septentrionale, ou Description des pays arrosés par le Mississipi, l'Ohio, le Missouri, originally published in 1796. Public domain via Wikimedia Commons.",
        "URL": "https://upload.wikimedia.org/wikipedia/commons/0/0f/View_of_the_Fort_of_the_Natchez.jpg",
        "Note3": null,
        "Note4": null,
        "Note5": 2000
      }
    },
    {
      "type": "Feature",
      "geometry": {
        "type": "Point",
        "coordinates": [
          -93.0754,
          31.7334
        ]
      },
      "properties": {
        "Settlement": "Natchez",
        "Alt_Location": "Natchez, Louisiana",
        "Note2": 7,
        "Image": "2002 photo of Cherokee Plantation (1839), a French Creole architectural example, likely constructed by Charles Emile Sompeyrac after his 1837 marriage to Clarisse Prudhomme, on Highway 494 in Natchez, Natchitoches Parish, LA.",
        "URL": "https://upload.wikimedia.org/wikipedia/commons/8/82/Cherokee_Plantation_house.jpg?utm_campaign=index&utm_content=original&utm_source=commons.wikimedia.org",
        "Note3": null,
        "Note4": null,
        "Note5": 2000
      }
    },
    {
      "type": "Feature",
      "geometry": {
        "type": "Point",
        "coordinates": [
          -88.0431,
          30.6944
        ]
      },
      "properties": {
        "Settlement": "Mobile",
        "Alt_Location": "Mobile, Alabama",
        "Note2": 8,
        "Image": "A view of reconstructed French Fort Condé and the Mobile, Alabama skyline.",
        "URL": "https://upload.wikimedia.org/wikipedia/commons/8/85/Fort_Conde_and_Skyline_of_Mobile_20160712_1.jpg?utm_campaign=index&utm_content=original&utm_source=commons.wikimedia.org",
        "Note3": null,
        "Note4": null,
        "Note5": 1500
      }
    },
    {
      "type": "Feature",
      "geometry": {
        "type": "Point",
        "coordinates": [
          -83.0458,
          42.3314
        ]
      },
      "properties": {
        "Settlement": "Detroit",
        "Alt_Location": "Detroit, Michigan",
        "Note2": 9,
        "Image": "Photograph from 1880 of Ste. Anne's church, built 1818, on the corner of Larned St and Bates St in downtown Detroit. The original parish was founded in 1701 (Archdiocese of Detroit Archives).",
        "URL": "https://upload.wikimedia.org/wikipedia/commons/0/0b/Stannesdetroit1840s.jpg",
        "Note3": null,
        "Note4": 1701.0,
        "Note5": 1400
      }
    },
    {
      "type": "Feature",
      "geometry": {
        "type": "Point",
        "coordinates": [
          -90.0456,
          37.9736
        ]
      },
      "properties": {
        "Settlement": "Ste. Genevieve",
        "Alt_Location": "Ste. Genevieve, Missouri",
        "Note2": 10,
        "Image": "1980s photograph of a room restored to its original appearance in the Bolduc House, constructed in 1740 by prominent merchant Peter Bolduc in Ste. Geneviève, Missouri. The entire village, including this house, was relocated to higher ground in 1785 to avoid Mississippi River flooding.",
        "URL": "https://upload.wikimedia.org/wikipedia/commons/thumb/5/59/Photograph_of_a_Room_Restored_to_the_Original_Look_in_the_Bolduc_House_in_Ste_Genevieve_MO.png/1280px-Photograph_of_a_Room_Restored_to_the_Original_Look_in_the_Bolduc_House_in_Ste_Genevieve_MO.png",
        "Note3": null,
        "Note4": null,
        "Note5": 1400
      }
    },
    {
      "type": "Feature",
      "geometry": {
        "type": "Point",
        "coordinates": [
          -87.5286,
          38.6773
        ]
      },
      "properties": {
        "Settlement": "Vincennes",
        "Alt_Location": "Vincennes, Indiana",
        "Note2": 11,
        "Image": "Interior view of St. Francis Xavier Cathedral in Vincennes, Indiana, constructed between 1826 and 1837, looking toward the altar. Photograph taken in March 1934 as part of the Historic American Buildings Survey. Public domain image via Wikimedia Commons.",
        "URL": "https://upload.wikimedia.org/wikipedia/commons/thumb/b/bc/HISTORIC_AMERICAN_BUILDINGS_SURVEY_THE_SHORES_STUDIO%2C_PHOTOGRAPHERS%2C_March%2C_1934_INTERIOR%2C_LOOKING_TOWARD_ALTAR_-_St._Francis_Xavier_Cathedral%2C_Vigo_Street%2C_Vincennes%2C_Knox_County_HABS_IND%2C42-VINC%2C1-3.tif/lossy-page1-1280px-thumbnail.tif.jpg",
        "Note3": null,
        "Note4": 1732.0,
        "Note5": 1200
      }
    },
    {
      "type": "Feature",
      "geometry": {
        "type": "Point",
        "coordinates": [
          -90.3226,
          38.7892
        ]
      },
      "properties": {
        "Settlement": "St. Ferdinand de Florissant",
        "Alt_Location": "Florissant, Missouri",
        "Note2": 12,
        "Image": "The Archambault House in Florissant, Missouri, built c. 1850 for Auguste Archambault, a French-Canadian fur trader, mountain guide, and western explorer. The house is a transitional Federal-style residence and a contributing property in the St. Ferdinand Central Historic District. Via Wikimedia Commons.",
        "URL": "https://upload.wikimedia.org/wikipedia/commons/6/6b/Archambault_House.JPG",
        "Note3": null,
        "Note4": null,
        "Note5": 1200
      }
    },
    {
      "type": "Feature",
      "geometry": {
        "type": "Point",
        "coordinates": [
          -89.5291,
          36.5869
        ]
      },
      "properties": {
        "Settlement": "New Madrid",
        "Alt_Location": "New Madrid, Missouri",
        "Note2": 13,
        "Image": "View of New Madrid, Missouri, from Henry Lewis’s Das illustrirte Mississippithal, published in Düsseldorf in 1857. Public domain via Wikimedia Commons and Internet Archive Book Images.",
        "URL": "https://upload.wikimedia.org/wikipedia/commons/4/43/Das_illustrirte_Mississippithal_-_dargestellt_in_80_nach_der_natur_aufgenommenen_ansichten_vom_wasserfalle_zu_St._Anthony_an_bis_zum_gulf_von_Mexico_%281857%29_%2814590346260%29.jpg",
        "Note3": null,
        "Note4": null,
        "Note5": 1200
      }
    },
    {
      "type": "Feature",
      "geometry": {
        "type": "Point",
        "coordinates": [
          -93.086,
          31.7607
        ]
      },
      "properties": {
        "Settlement": "Natchitoches",
        "Alt_Location": "Natchitoches, Louisiana",
        "Note2": 14,
        "Image": "Melrose Plantation’s Big House in Natchitoches Parish, Louisiana, part of the Cane River Creole landscape. Historic American Buildings Survey photograph. Public domain via Wikimedia Commons.",
        "URL": "https://upload.wikimedia.org/wikipedia/commons/5/55/Melrose_Plantation%2C_Big_House%2C_State_Highway_119%2C_Melrose_%28Natchitoches_Parish%2C_Louisiana%29.jpg?utm_source=commons.wikimedia.org&utm_campaign=index&utm_content=original",
        "Note3": null,
        "Note4": null,
        "Note5": 1200
      }
    },
    {
      "type": "Feature",
      "geometry": {
        "type": "Point",
        "coordinates": [
          -89.9048,
          37.9879
        ]
      },
      "properties": {
        "Settlement": "Kaskaskia",
        "Alt_Location": "Kaskaskia, Illinois",
        "Note2": 15,
        "Image": "View of Kaskaskia, Illinois, published in Meyer’s Universum, vol. 18 (1857). Public domain via Wikimedia Commons.",
        "URL": "https://upload.wikimedia.org/wikipedia/commons/a/a8/Meyers_Universum_Band_18_44.jpg?utm_campaign=index&utm_content=original&utm_source=commons.wikimedia.org",
        "Note3": null,
        "Note4": null,
        "Note5": 900
      }
    },
    {
      "type": "Feature",
      "geometry": {
        "type": "Point",
        "coordinates": [
          -89.518,
          37.3059
        ]
      },
      "properties": {
        "Settlement": "Cape Girardeau",
        "Alt_Location": "Cape Girardeau, Missouri",
        "Note2": 16,
        "Image": "Plan of Cape Girardeau, Missouri, based on Georges-Henri-Victor Collot’s 1796 survey of the Mississippi Valley and published in 1826. The map shows the settlement, surrounding landscape, and a nearby Shawnee camp. Public domain, Library of Congress.",
        "URL": "https://tile.loc.gov/image-services/iiif/service:gmd:gmd404m:g4042m:g4042mm:gct00039:ca000026/full/pct:25/0/default.jpg",
        "Note3": null,
        "Note4": null,
        "Note5": 800
      }
    },
    {
      "type": "Feature",
      "geometry": {
        "type": "Point",
        "coordinates": [
          -90.1798,
          38.5701
        ]
      },
      "properties": {
        "Settlement": "Cahokia",
        "Alt_Location": "Cahokia, Illinois",
        "Note2": 17,
        "Image": "Church of the Holy Family, Cahokia, Illinois, built in 1799 in the French colonial poteaux-sur-sol tradition. Historic American Buildings Survey photograph. Public domain via Wikimedia Commons.",
        "URL": "https://upload.wikimedia.org/wikipedia/commons/f/f1/Church_of_the_Holy_Family%2C_State_Route_157%2C_Cahokia_%28St._Clair_County%2C_Illinois%29.jpg",
        "Note3": null,
        "Note4": null,
        "Note5": 700
      }
    },
    {
      "type": "Feature",
      "geometry": {
        "type": "Point",
        "coordinates": [
          -89.589,
          40.6936
        ]
      },
      "properties": {
        "Settlement": "Peoria",
        "Alt_Location": "Peoria, Illinois",
        "Note2": 18,
        "Image": "Fort Crèvecœur, near present-day Peoria, Illinois, as depicted in a 1932 Illinois Historical Society publication. Public domain via Wikimedia Commons.",
        "URL": "https://upload.wikimedia.org/wikipedia/commons/4/40/Fort_Crevecoeur_Illinois_Historical_Society.jpg",
        "Note3": null,
        "Note4": 1680.0,
        "Note5": 600
      }
    },
    {
      "type": "Feature",
      "geometry": {
        "type": "Point",
        "coordinates": [
          -91.345278,
          34.016667
        ]
      },
      "properties": {
        "Settlement": "Arkansas Post",
        "Alt_Location": "Gillett, Arkansas",
        "Note2": 19,
        "Image": "Bombardment and Capture of Fort Hindman, Arkansas Post, January 11, 1863. Lithograph by Currier & Ives, hand-colored. No known publication restrictions. Courtesy of the Library of Congress via Wikimedia Commons.",
        "URL": "https://upload.wikimedia.org/wikipedia/commons/d/df/Bombardment_and_capture_of_Fort_Hindman%2C_Arkansas_Post%2C_Ark._Jany._11th_1863_LCCN90711974_%28cropped%29.jpg",
        "Note3": null,
        "Note4": null,
        "Note5": 600
      }
    },
    {
      "type": "Feature",
      "geometry": {
        "type": "Point",
        "coordinates": [
          -84.735978,
          45.786667
        ]
      },
      "properties": {
        "Settlement": "Ft. Michilimackinac",
        "Alt_Location": "Mackinaw City, Michigan",
        "Note2": 20,
        "Image": "Aerial view of reconstructed Fort Michilimackinac at Mackinaw City, Michigan, site of the French fort and trading community established in 1715. Photograph by WMrapids, 2022. CC BY-SA 4.0, via Wikimedia Commons.",
        "URL": "https://upload.wikimedia.org/wikipedia/commons/3/3c/Fort_Michilimackinac_2022.jpg?utm_source=commons.wikimedia.org&utm_campaign=index&utm_content=original",
        "Note3": null,
        "Note4": 1715.0,
        "Note5": 500
      }
    },
    {
      "type": "Feature",
      "geometry": {
        "type": "Point",
        "coordinates": [
          -90.161,
          38.0979
        ]
      },
      "properties": {
        "Settlement": "Prairie du Rocher",
        "Alt_Location": "Prairie du Rocher, Illinois",
        "Note2": 21,
        "Image": "French (Creole) House, Prairie du Rocher, Illinois. Photograph by Clark Bullard, April 1935. Historic American Buildings Survey, Library of Congress.",
        "URL": "https://tile.loc.gov/storage-services/service/pnp/habshaer/il/il0200/il0218/photos/063473pr.jpg",
        "Note3": null,
        "Note4": null,
        "Note5": 450
      }
    },
    {
      "type": "Feature",
      "geometry": {
        "type": "Point",
        "coordinates": [
          -91.1398,
          43.0514
        ]
      },
      "properties": {
        "Settlement": "Prairie du Chien",
        "Alt_Location": "Prairie du Chien, Wisconsin",
        "Note2": 22,
        "Image": "Historic François Vertefeuille House near Prairie du Chien, Wisconsin. Photograph by Jonathunder, July 12, 2009. CC BY-SA 3.0, via Wikimedia Commons.",
        "URL": "https://upload.wikimedia.org/wikipedia/commons/a/a4/Vertefeuille.JPG?utm_source=commons.wikimedia.org&utm_campaign=index&utm_content=original",
        "Note3": null,
        "Note4": null,
        "Note5": 400
      }
    },
    {
      "type": "Feature",
      "geometry": {
        "type": "Point",
        "coordinates": [
          -90.7195,
          38.006
        ]
      },
      "properties": {
        "Settlement": "Vieilles Mines",
        "Alt_Location": "Old Mines, Missouri",
        "Note2": 23,
        "Image": "Étienne and Louise LaMarque House, Old Mines, Missouri, built in 1818 and acquired by the LaMarque family in 1822. The house is an example of the French colonial architectural tradition that survived in the Old Mines community. Via Wikimedia Commons.",
        "URL": "https://upload.wikimedia.org/wikipedia/commons/1/17/Old_Mines_LaMarque_House_26.jpg",
        "Note3": null,
        "Note4": null,
        "Note5": 350
      }
    },
    {
      "type": "Feature",
      "geometry": {
        "type": "Point",
        "coordinates": [
          -87.4139,
          39.4667
        ]
      },
      "properties": {
        "Settlement": "Terre Haute",
        "Alt_Location": "Terre Haute, Indiana",
        "Note2": 24,
        "Image": "Fort Harrison on the Wabash River near present-day Terre Haute, Indiana, depicted as it appeared in 1812. Lithograph by James A. Modesitt and Luther G. Hager, 1848. Library of Congress; no known restrictions on publication.",
        "URL": "https://tile.loc.gov/storage-services/service/pnp/pga/07600/07680v.jpg",
        "Note3": null,
        "Note4": 1818.0,
        "Note5": 300
      }
    },
    {
      "type": "Feature",
      "geometry": {
        "type": "Point",
        "coordinates": [
          -88.0133,
          44.5133
        ]
      },
      "properties": {
        "Settlement": "La Baie Verte/Green Bay",
        "Alt_Location": "Green Bay, Wisconsin",
        "Note2": 25,
        "Image": "U.S. postage stamp issued for Wisconsin’s 1934 tercentenary, depicting Jean Nicolet’s arrival at Green Bay in 1634. Public domain via Wikimedia Commons.",
        "URL": "https://upload.wikimedia.org/wikipedia/commons/a/a7/WisconsinTercentenary-1934.jpg",
        "Note3": null,
        "Note4": 1632.0,
        "Note5": 300
      }
    },
    {
      "type": "Feature",
      "geometry": {
        "type": "Point",
        "coordinates": [
          -85.1394,
          41.0793
        ]
      },
      "properties": {
        "Settlement": "Fort Wayne/Kekionga/Miamitown",
        "Alt_Location": "Fort Wayne, Indiana",
        "Note2": 26,
        "Image": "Manuscript map of Fort Wayne, Indiana, July 18, 1795, showing the American fort across the St. Marys River from the Miami village of Kekionga and the remains of old Fort Miami. Drawn by P. M. Neff for General Anthony Wayne. Library of Congress Geography and Map Division; public domain.",
        "URL": "https://tile.loc.gov/image-services/iiif/service:gmd:gmd409:g4094:g4094f:ct001619/full/pct:25/0/default.jpg",
        "Note3": null,
        "Note4": 1706.0,
        "Note5": 250
      }
    },
    {
      "type": "Feature",
      "geometry": {
        "type": "Point",
        "coordinates": [
          -87.9065,
          43.0389
        ]
      },
      "properties": {
        "Settlement": "Milwaukee/Juneau Town",
        "Alt_Location": "Milwaukee, Wisconsin",
        "Note2": 27,
        "Image": "Statue of Solomon Juneau in Milwaukee, photographed circa 1890. Juneau, a French Canadian fur trader, settled permanently at Milwaukee in 1818 and became the city’s first mayor. Public domain via Wikimedia Commons.",
        "URL": "https://upload.wikimedia.org/wikipedia/commons/6/6e/Solomon_Juneau_statue_in_Milwaukee_circa_1890.jpg",
        "Note3": null,
        "Note4": 1795.0,
        "Note5": 200
      }
    },
    {
      "type": "Feature",
      "geometry": {
        "type": "Point",
        "coordinates": [
          -90.3066,
          38.9292
        ]
      },
      "properties": {
        "Settlement": "Portage des Sioux",
        "Alt_Location": "Portage Des Sioux, Missouri",
        "Note2": 28,
        "Image": "Portage des Sioux Common Field, Missouri, shown in a 1905 plat preserving the long, narrow lots characteristic of the French colonial common-field system. Library of Congress Geography and Map Division. Public domain via Wikimedia Commons.",
        "URL": "https://upload.wikimedia.org/wikipedia/commons/c/ca/Plat_book_of_St._Charles_County%2C_Missouri_-_compiled_from_county_records_and_actual_surveys_LOC_2007626863-33.jpg?utm_campaign=index&utm_content=original&utm_source=commons.wikimedia.org",
        "Note3": null,
        "Note4": null,
        "Note5": 200
      }
    },
    {
      "type": "Feature",
      "geometry": {
        "type": "Point",
        "coordinates": [
          -85.6681,
          42.9634
        ]
      },
      "properties": {
        "Settlement": "Grand Rapids",
        "Alt_Location": "Grand Rapids, Michigan",
        "Note2": 29,
        "Image": "Grand Rapids, Michigan, in 1831, showing the Baptist mission west of the Grand River and Louis Campau’s trading post at center right. Campau, a French Canadian fur trader, established the post in 1826. Public domain via Wikimedia Commons.",
        "URL": "https://upload.wikimedia.org/wikipedia/commons/2/23/Grand_Rapids_1831.jpg",
        "Note3": null,
        "Note4": 1826.0,
        "Note5": 150
      }
    },
    {
      "type": "Feature",
      "geometry": {
        "type": "Point",
        "coordinates": [
          -86.252,
          41.6764
        ]
      },
      "properties": {
        "Settlement": "South Bend",
        "Alt_Location": "South Bend, Indiana",
        "Note2": 30,
        "Image": "Pierre Navarre Cabin, South Bend, Indiana. Navarre, a French fur trader, established a trading post on the St. Joseph River in 1820 and lived here with his Potawatomi wife, Keshewaquay (Angelique), and their family. Via Wikimedia Commons.",
        "URL": "https://upload.wikimedia.org/wikipedia/commons/b/bd/Peter_Navarre_Cabin.jpg?utm_source=commons.wikimedia.org&utm_campaign=index&utm_content=original",
        "Note3": null,
        "Note4": 1823.0,
        "Note5": 150
      }
    },
    {
      "type": "Feature",
      "geometry": {
        "type": "Point",
        "coordinates": [
          -90.6646,
          42.5006
        ]
      },
      "properties": {
        "Settlement": "Dubuque",
        "Alt_Location": "Dubuque, Iowa",
        "Note2": 31,
        "Image": "Julien Dubuque Monument at the Mines of Spain, overlooking the Mississippi River south of Dubuque, Iowa. The monument, erected in 1897, marks Dubuque’s burial site within the lead-mining landscape associated with his late eighteenth-century settlement. Photograph by Harry N. Bevers, 1934. Historic American Buildings Survey, Library of Congress; public domain.",
        "URL": "https://tile.loc.gov/storage-services/service/pnp/habshaer/ia/ia0000/ia0030/photos/067763pr.jpg",
        "Note3": null,
        "Note4": null,
        "Note5": 150
      }
    },
    {
      "type": "Feature",
      "geometry": {
        "type": "Point",
        "coordinates": [
          -86.2542,
          41.8298
        ]
      },
      "properties": {
        "Settlement": "Ft. St. Joseph/Niles",
        "Alt_Location": "Niles, Michigan",
        "Note2": 32,
        "Image": "Site of Fort St. Joseph near Niles, Michigan, a French mission, garrison, and trading post established in the late seventeenth century on the St. Joseph River. Photograph by Chris Light, 2010. CC BY-SA 3.0, via Wikimedia Commons.",
        "URL": "https://upload.wikimedia.org/wikipedia/commons/3/3e/Fort_St._Joseph_Site_Niles_Michigan_068.jpg",
        "Note3": null,
        "Note4": 1680.0,
        "Note5": 100
      }
    },
    {
      "type": "Feature",
      "geometry": {
        "type": "Point",
        "coordinates": [
          -86.3565,
          40.7545
        ]
      },
      "properties": {
        "Settlement": "Logansport",
        "Alt_Location": "Logansport, Indiana",
        "Note2": 33,
        "Image": "Confluence of the Eel River (French Rivière à l’Anguille) and Wabash River at Logansport, Indiana, circa 1905–1907. Postcard published by the Souvenir Post Card Co. Amon Carter Museum of American Art; public domain.",
        "URL": "https://d2ujpqfu85jxzw.cloudfront.net/website/panth-live/styles/full_width_varied_height/s3/artwork/P1976-48-731/carter_p1976-48-731_o2_14.jpg?itok=Ndyz9mQr",
        "Note3": null,
        "Note4": 1826.0,
        "Note5": 100
      }
    },
    {
      "type": "Feature",
      "geometry": {
        "type": "Point",
        "coordinates": [
          -90.5776,
          41.5236
        ]
      },
      "properties": {
        "Settlement": "Davenport",
        "Alt_Location": "Davenport, Iowa",
        "Note2": 34,
        "Image": "Antoine LeClaire House, Davenport, Iowa, built in 1855. LeClaire, the son of a French Canadian father and Potawatomi mother, was an interpreter and landowner whose property formed the basis of the town of Davenport. Via Wikimedia Commons.",
        "URL": "https://upload.wikimedia.org/wikipedia/commons/f/ff/Antoine_LeClaire_House_03.JPG?utm_source=commons.wikimedia.org&utm_campaign=index&utm_content=original",
        "Note3": null,
        "Note4": null,
        "Note5": 100
      }
    },
    {
      "type": "Feature",
      "geometry": {
        "type": "Point",
        "coordinates": [
          -89.7304,
          37.6261
        ]
      },
      "properties": {
        "Settlement": "Apple Creek",
        "Alt_Location": "Apple Creek, Missouri",
        "Note2": 35,
        "Image": "Shawnee man from the Apple Creek (Rivière à la Pomme) community, drawn by Joseph Warin during Victor Collot’s 1796 journey through the Mississippi Valley and published in 1826. Under Spanish rule, Shawnee and Delaware migrants established several large villages along Apple Creek, including Le Grand Village Sauvage and Petit Village Sauvage. Their communities were closely connected to the region’s French-speaking population, and some houses were built in French colonial style with closely set vertical posts, clay infill, and shingled roofs. Library of Congress Geography and Map Division; public domain.",
        "URL": "https://tile.loc.gov/image-services/iiif/service:gmd:gmd404m:g4042m:g4042mm:gct00039:ca000022/full/pct:12.5/0/default.jpg",
        "Note3": null,
        "Note4": null,
        "Note5": 100
      }
    },
    {
      "type": "Feature",
      "geometry": {
        "type": "Point",
        "coordinates": [
          -86.9081,
          40.4259
        ]
      },
      "properties": {
        "Settlement": "Ft. Ouiatenon",
        "Alt_Location": "West Lafayette, Indiana",
        "Note2": 36,
        "Image": "Historical marker at Fort Ouiatenon near West Lafayette, Indiana. The French established the fort on the Wabash River in 1717 as a trading post and diplomatic center. Photograph taken January 28, 2007. Public domain via Wikimedia Commons.",
        "URL": "https://upload.wikimedia.org/wikipedia/commons/f/fb/Fort_Ouiatenon_marker.png",
        "Note3": null,
        "Note4": 1717.0,
        "Note5": 5
      }
    },
    {
      "type": "Feature",
      "geometry": {
        "type": "Point",
        "coordinates": [
          -93.09,
          44.9537
        ]
      },
      "properties": {
        "Settlement": "St. Paul",
        "Alt_Location": "St. Paul, Minnesota",
        "Note2": 37,
        "Image": "Fountain Cave on the Mississippi River near St. Paul, Minnesota, photographed by Whitney & Zimmerman, circa 1859–1890. French Canadian trader Pierre “Pig’s Eye” Parrant established a tavern near the cave in 1838, part of the early river settlement from which St. Paul developed. New York Public Library; public domain via Wikimedia Commons.",
        "URL": "https://upload.wikimedia.org/wikipedia/commons/e/e9/Fountain_cave--near_St._Paul%2C_by_Whitney_%26_Zimmerman.jpg?utm_source=commons.wikimedia.org&utm_campaign=index&utm_content=original",
        "Note3": null,
        "Note4": null,
        "Note5": 5
      }
    },
    {
      "type": "Feature",
      "geometry": {
        "type": "Point",
        "coordinates": [
          -90.15891308,
          38.08782194
        ]
      },
      "properties": {
        "Settlement": "Fort de Chartres",
        "Alt_Location": "Fort de Chartres, Illinois",
        "Note2": 38,
        "Image": "Powder magazine at Fort de Chartres, near Prairie du Rocher, Illinois, part of the eighteenth-century French stone fort. Photograph by Lester Jones, October 1, 1940. Historic American Buildings Survey, Library of Congress; no known restrictions on publication.",
        "URL": "https://tile.loc.gov/storage-services/service/pnp/habshaer/il/il0200/il0210/photos/063485pr.jpg",
        "Note3": null,
        "Note4": null,
        "Note5": 5
      }
    }
  ]
}