{
"type": "FeatureCollection",
"name": "little-rock-streams",
"crs": { "type": "name", "properties": { "name": "urn:ogc:def:crs:OGC:1.3:CRS84" } },
"features": [
{ "type": "Feature", "properties": { "stream_nam": "Little Maumelle River", "gnis_name": "Little Maumelle River", "county": "Pulaski", "huc_8_name": "Lower Arkansas-Maumelle", "trib_of": "Arkansas River", "ecoregion": "Arkansas Valley" }, "geometry": { "type": "LineString", "coordinates": [ [ -92.42, 34.812512674348099 ], [ -92.418778100573633, 34.812373679152749 ], [ -92.417749100761029, 34.811733879512452 ], [ -92.417365100367149, 34.810505479462329 ], [ -92.416517300389884, 34.809763879126336 ], [ -92.41371310048072, 34.809356012454643 ], [ -92.412196300349095, 34.808772813051206 ], [ -92.40917370025447, 34.806425812291117 ], [ -92.40622676646916, 34.805297612717055 ], [ -92.399340767142903, 34.803511612246645 ], [ -92.394655700611239, 34.801828679339728 ], [ -92.393429100199072, 34.801647812521097 ], [ -92.392438367158007, 34.802082479150343 ], [ -92.38855176737313, 34.801247012467179 ], [ -92.385435900207824, 34.79997001237242 ], [ -92.384600766975154, 34.79990841267437 ], [ -92.383570500092958, 34.799304612376673 ], [ -92.379327700624998, 34.798622812873241 ], [ -92.375998367426163, 34.798579878954072 ] ] } },
{ "type": "Feature", "properties": { "stream_nam": "Arkansas River", "gnis_name": "Arkansas River", "county": "Pulaski", "huc_8_name": "Lower Arkansas-Maumelle", "trib_of": "Mississippi River", "ecoregion": "Arkansas Valley" }, "geometry": { "type": "LineString", "coordinates": [ [ -92.375998367426163, 34.798579878954072 ], [ -92.368454366536994, 34.79636521270524 ], [ -92.366970767534582, 34.795653412964967 ], [ -92.361274100629814, 34.794704678894497 ], [ -92.359423700612723, 34.792883079357111 ], [ -92.35844736716092, 34.792593079748755 ] ] } },
{ "type": "Feature", "properties": { "stream_nam": "White Oak Bayou", "gnis_name": "White Oak Bayou", "county": "Pulaski", "huc_8_name": "Lower Arkansas-Maumelle", "trib_of": "Arkansas River", "ecoregion": "Arkansas Valley" }, "geometry": { "type": "LineString", "coordinates": [ [ -92.358957561276512, 34.84 ], [ -92.358982300233734, 34.839962878884343 ], [ -92.358328700433447, 34.839468279374813 ], [ -92.358314967550044, 34.838984612865026 ], [ -92.35867476666526, 34.838566678882252 ], [ -92.358500900867568, 34.837500279570037 ], [ -92.359107500361119, 34.837197679671036 ], [ -92.359727500151209, 34.837335013020748 ], [ -92.359993966665215, 34.836785212388016 ], [ -92.35921356656614, 34.836153279442776 ], [ -92.359312966549282, 34.835229679076541 ], [ -92.358219366637414, 34.834675012621346 ], [ -92.35835910058988, 34.834136212595475 ], [ -92.35915216668667, 34.83359167967388 ], [ -92.358178366801198, 34.832861012855616 ], [ -92.358204900697856, 34.832476078877754 ], [ -92.359957366987075, 34.831101279686443 ], [ -92.36129076689916, 34.831243612369406 ], [ -92.362036967261574, 34.8303582790736 ], [ -92.362209700718736, 34.829412812719958 ], [ -92.362662900845876, 34.829038812706152 ], [ -92.365655367084116, 34.828048078939041 ], [ -92.366486900604457, 34.825310279364885 ], [ -92.366192700267874, 34.82372167899878 ], [ -92.364819700268654, 34.824090612788837 ], [ -92.364299367061236, 34.823508079222186 ], [ -92.363519300061952, 34.823244612201478 ], [ -92.363612166620854, 34.822486013028282 ], [ -92.364944166826405, 34.820671412828709 ], [ -92.364423900164951, 34.81998447965988 ], [ -92.364876699886238, 34.819291679370146 ], [ -92.363462900752012, 34.8180718788973 ], [ -92.362303167539537, 34.818264812838507 ], [ -92.361483100941243, 34.81778687965209 ], [ -92.36042316656166, 34.817732412537318 ], [ -92.360089566611066, 34.817232212632547 ], [ -92.360722700009148, 34.816841679085464 ], [ -92.361035300776621, 34.815791612480908 ], [ -92.360808367248922, 34.815231012466356 ], [ -92.361607567033062, 34.814367679419298 ], [ -92.361527567100424, 34.814059879423034 ], [ -92.360780900285476, 34.813818279023273 ], [ -92.359474700053028, 34.814082612982958 ], [ -92.357881300242767, 34.81339061287607 ], [ -92.355208900184678, 34.814111679255035 ], [ -92.352029367574104, 34.813744412533467 ], [ -92.349802567638349, 34.812337879568688 ], [ -92.349395766605284, 34.811650813040821 ], [ -92.347989567461653, 34.811865612325995 ], [ -92.346689567100327, 34.81109647914311 ], [ -92.344507766977472, 34.810709079572263 ], [ -92.344028166637898, 34.810255279350962 ], [ -92.343828366671147, 34.807958879556473 ], [ -92.342974100608942, 34.80668461239852 ], [ -92.342579900635045, 34.806381212556161 ], [ -92.341119500722527, 34.806478679377783 ], [ -92.339372967214516, 34.805171612807413 ], [ -92.337944967036989, 34.804590212698017 ], [ -92.335739500803385, 34.802732012902482 ], [ -92.333920100346489, 34.802961278879351 ], [ -92.331678900974637, 34.802783813075337 ], [ -92.330030767118899, 34.802195279692768 ], [ -92.329651366837354, 34.801825612902725 ], [ -92.329576166703163, 34.801089612514104 ], [ -92.331191367418555, 34.800979212340756 ], [ -92.331735167061183, 34.800674212468763 ], [ -92.330680299934158, 34.798744612644285 ], [ -92.329850300194167, 34.79857541308958 ], [ -92.327398967242146, 34.799106879576748 ], [ -92.324204367467445, 34.798577212609963 ], [ -92.322710700880378, 34.797528279406663 ], [ -92.322145167521015, 34.796437012715089 ], [ -92.320444700709189, 34.796025679400898 ], [ -92.318759900360419, 34.794362412802521 ], [ -92.318534900209016, 34.793532279576318 ], [ -92.317583100025359, 34.793144479219208 ], [ -92.315688500834639, 34.791259812638032 ], [ -92.312149567437288, 34.788715012276448 ], [ -92.31202136709166, 34.787708879384205 ], [ -92.312909300480229, 34.786663279627078 ], [ -92.31189390013499, 34.784842079298365 ], [ -92.310798566613428, 34.783769812627057 ] ] } },
{ "type": "Feature", "properties": { "stream_nam": "Arkansas River", "gnis_name": "Arkansas River", "county": "Pulaski", "huc_8_name": "Lower Arkansas-Maumelle", "trib_of": "Mississippi River", "ecoregion": "Mississippi Alluvial Plain" }, "geometry": { "type": "LineString", "coordinates": [ [ -92.183643967104075, 34.726254479607128 ], [ -92.178404900376648, 34.72209047980575 ], [ -92.177423101078787, 34.721449879840591 ], [ -92.175297367697937, 34.720772012607235 ], [ -92.173900500880706, 34.719616813012543 ], [ -92.1730259676998, 34.719480812617462 ], [ -92.171132767410626, 34.718559879857949 ], [ -92.163858300474487, 34.717748812931418 ], [ -92.161319567076603, 34.716520212897422 ], [ -92.155916500588035, 34.711761479803549 ], [ -92.154503300685406, 34.709173879321085 ], [ -92.153221567767147, 34.70748541258429 ], [ -92.152511767920089, 34.7058156129509 ], [ -92.150866967083928, 34.699927479431786 ], [ -92.151263167057763, 34.691100012955843 ], [ -92.150946967881083, 34.690373813031862 ], [ -92.151312966895986, 34.684802279321453 ], [ -92.152090767649057, 34.6842194126179 ], [ -92.152291700485037, 34.683725013137433 ], [ -92.152683767187511, 34.681160812605697 ], [ -92.15351316747531, 34.679541679529216 ], [ -92.153609367715831, 34.677612079183028 ], [ -92.154815900229863, 34.674609412980054 ], [ -92.155530567293965, 34.673523412442094 ], [ -92.157314700718345, 34.672186212610114 ], [ -92.157497967433585, 34.668505613224305 ], [ -92.158046900932845, 34.66809407909173 ], [ -92.158094900405132, 34.667129279706934 ], [ -92.158689500360822, 34.666683479913708 ], [ -92.159198500873714, 34.665304412541808 ], [ -92.159490900276495, 34.661197812684115 ], [ -92.160280766860097, 34.660364679131561 ], [ -92.160412416869946, 34.66 ] ] } },
{ "type": "Feature", "properties": { "stream_nam": "Arkansas River", "gnis_name": "Arkansas River", "county": "Pulaski", "huc_8_name": "Lower Arkansas-Maumelle", "trib_of": "Mississippi River", "ecoregion": "Arkansas Valley" }, "geometry": { "type": "LineString", "coordinates": [ [ -92.35844736716092, 34.792593079748755 ], [ -92.353423300403975, 34.791180279416643 ], [ -92.349596567563111, 34.789489879537228 ], [ -92.347199567064095, 34.788955079252055 ], [ -92.342584167540409, 34.788632012812101 ], [ -92.33958630096221, 34.788609879414054 ], [ -92.339220366834994, 34.788884812277608 ], [ -92.338161767044738, 34.788887412838477 ], [ -92.323716166747232, 34.788470412483989 ], [ -92.322664367438605, 34.788330079213416 ], [ -92.322325767388577, 34.788033079469486 ], [ -92.320564300652364, 34.787977812267059 ], [ -92.319548366974502, 34.787087012976023 ], [ -92.317082367487217, 34.787009412378161 ], [ -92.316743767216892, 34.786712479252238 ], [ -92.316039167094317, 34.786690279625851 ], [ -92.313597567434527, 34.78518201224491 ], [ -92.312937100436116, 34.785161212269919 ], [ -92.311907566945123, 34.784556212397554 ], [ -92.308946700745992, 34.781922079367298 ], [ -92.306599967229033, 34.77751801289763 ], [ -92.304977100926521, 34.77549847901269 ], [ -92.300415100155107, 34.766729879287027 ], [ -92.288950966987372, 34.756668613029781 ], [ -92.287500100849357, 34.756586812287246 ], [ -92.285164500464958, 34.755653812623962 ], [ -92.284019967325051, 34.755617412510674 ], [ -92.281623967296483, 34.754109812485453 ], [ -92.278510100551742, 34.752865612281198 ], [ -92.273665767313204, 34.751852479530747 ], [ -92.264799500462104, 34.750973279595506 ], [ -92.263291567525954, 34.750505612357202 ], [ -92.254944766998875, 34.749279412368431 ], [ -92.249590700712787, 34.748235679704514 ], [ -92.24674150044055, 34.74721667909926 ], [ -92.233986366995012, 34.747084612295112 ], [ -92.233690500210955, 34.746824612328453 ], [ -92.229863300560936, 34.746665479145101 ], [ -92.22703610020254, 34.746789079586542 ], [ -92.225249167002076, 34.746373612306755 ], [ -92.223592300531521, 34.745103279533488 ], [ -92.222465500849751, 34.744709012456994 ], [ -92.215251501059797, 34.744404279350555 ], [ -92.212480501098653, 34.743384079621492 ], [ -92.208568967699762, 34.743150013037344 ], [ -92.204944500409013, 34.742459879567612 ], [ -92.20322456753982, 34.741580879305964 ], [ -92.200270900539692, 34.74069767898893 ], [ -92.198264167181264, 34.73937981237188 ], [ -92.196959900994841, 34.739015279449411 ], [ -92.193073567291549, 34.735596279500129 ], [ -92.192207700889611, 34.735281812679126 ], [ -92.190264700472667, 34.733572212707841 ], [ -92.190289367586914, 34.733072012578369 ], [ -92.187758900274588, 34.729875812423721 ], [ -92.183643967104075, 34.726254479607128 ] ] } },
{ "type": "Feature", "properties": { "stream_nam": "Arkansas River", "gnis_name": "Arkansas River", "county": "Pulaski", "huc_8_name": "Lower Arkansas-Maumelle", "trib_of": "Mississippi River", "ecoregion": "Arkansas Valley" }, "geometry": { "type": "LineString", "coordinates": [ [ -92.42, 34.830030800350045 ], [ -92.419709167145683, 34.83004267957439 ], [ -92.419124966721938, 34.828648278827821 ], [ -92.417446900429027, 34.826086812878657 ], [ -92.415124566452974, 34.823424679664626 ], [ -92.411443366809749, 34.821004212382363 ], [ -92.408946500504356, 34.819956013011264 ], [ -92.39821236714161, 34.819990679441297 ], [ -92.390002700350138, 34.818190079080757 ], [ -92.382609700043062, 34.816179079451359 ], [ -92.378370366523285, 34.809919412647687 ], [ -92.378256966758499, 34.803564279382506 ], [ -92.377461567355581, 34.80002961264973 ], [ -92.375998367426163, 34.798579878954072 ] ] } },
{ "type": "Feature", "properties": { "stream_nam": "Fourche Creek", "gnis_name": "Fourche Creek", "county": "Pulaski", "huc_8_name": "Lower Arkansas-Maumelle", "trib_of": "Arkansas River", "ecoregion": "South Central Plains" }, "geometry": { "type": "LineString", "coordinates": [ [ -92.340294166859735, 34.709449012626337 ], [ -92.339136966611406, 34.708768479378108 ], [ -92.332177167630647, 34.708809279503022 ], [ -92.331530100418064, 34.710612879287069 ], [ -92.332511900457519, 34.711539879625271 ], [ -92.332690100302244, 34.712677479447549 ], [ -92.330445967340623, 34.713649612715535 ], [ -92.328670900016022, 34.713916013057883 ], [ -92.328812700075503, 34.715566679082805 ], [ -92.329966500409498, 34.716318679198238 ], [ -92.329952900706772, 34.716604612522929 ], [ -92.328096566763165, 34.716725212442292 ], [ -92.32687809992315, 34.717331212695974 ], [ -92.32597456674705, 34.716873279211129 ], [ -92.323300566672046, 34.718435479652641 ], [ -92.322858900115762, 34.718457412912166 ], [ -92.322303967670479, 34.718082079218149 ], [ -92.321987766954408, 34.717320612800286 ], [ -92.320647766770733, 34.716777412931513 ], [ -92.3208103676441, 34.716138412559701 ], [ -92.320297766797779, 34.715800079648396 ], [ -92.319676766620915, 34.715888012708376 ], [ -92.319072500832817, 34.716548879744785 ], [ -92.318177567206547, 34.715912279314324 ], [ -92.317395500022414, 34.716603479059422 ], [ -92.316999566615891, 34.716591012422697 ], [ -92.315470367518614, 34.715397612781103 ], [ -92.314898366916864, 34.715379613206224 ], [ -92.313916900197356, 34.71563501278915 ], [ -92.313177100122743, 34.716363212535128 ], [ -92.310498567469807, 34.716171413154171 ], [ -92.308713100826154, 34.716651812968266 ], [ -92.30721256680016, 34.71578127987086 ], [ -92.306630367122608, 34.71597767951971 ], [ -92.306031567012738, 34.715600878996547 ], [ -92.305949966774676, 34.716385679236204 ], [ -92.305589499973095, 34.716553212522612 ], [ -92.304527300548628, 34.715732279274057 ], [ -92.303714767586627, 34.716136079116609 ], [ -92.301875566770079, 34.715899013189222 ], [ -92.30073570001133, 34.714860879568633 ], [ -92.300763100161987, 34.714289079362246 ], [ -92.300308300396722, 34.713666279137598 ], [ -92.299599300762864, 34.713751212965825 ], [ -92.299063367149813, 34.712982679397143 ], [ -92.29777390096514, 34.713228213089778 ], [ -92.295471367641156, 34.712546879206911 ], [ -92.294277367090586, 34.71172167981932 ], [ -92.293963167721941, 34.710924412741115 ], [ -92.290500566877355, 34.709633613034605 ], [ -92.28869770010337, 34.708645812465036 ], [ -92.285794300510844, 34.708553679073752 ], [ -92.284947167254671, 34.707846679327716 ], [ -92.283180766942579, 34.707933812427456 ], [ -92.282105100751124, 34.707398479458874 ], [ -92.281471101060077, 34.706841479517436 ], [ -92.28138910028926, 34.705801012919665 ], [ -92.282215300980809, 34.705111479345014 ], [ -92.282745700974701, 34.704162079428201 ], [ -92.283746100851829, 34.703513879106609 ], [ -92.283866767705035, 34.702837679735339 ], [ -92.283361300378118, 34.702356412778684 ], [ -92.28196230076189, 34.702133012717439 ], [ -92.279531967572666, 34.703200879638423 ], [ -92.276938500466727, 34.704907812364574 ], [ -92.275506700462415, 34.705363279667985 ], [ -92.273154700600685, 34.705717812648047 ], [ -92.27134170082779, 34.704944212631915 ], [ -92.269916767423439, 34.705256679832118 ], [ -92.269002500714421, 34.705943279878653 ], [ -92.268182100644907, 34.707420213030638 ], [ -92.267128900609507, 34.708245612557555 ], [ -92.26546496700351, 34.708944012906947 ], [ -92.265489700156607, 34.711163679807797 ], [ -92.26484610038645, 34.711715813002343 ], [ -92.26349870069518, 34.712245412515308 ], [ -92.259589300986434, 34.712907812944714 ], [ -92.258908700445346, 34.713315479039075 ], [ -92.258388300772694, 34.714050412916507 ], [ -92.258170367236119, 34.716727612644902 ], [ -92.257584566952801, 34.716995212354874 ], [ -92.256313967365031, 34.716847079694105 ], [ -92.254763100066867, 34.716117479600122 ], [ -92.254104300124041, 34.715165879265982 ], [ -92.254317900670188, 34.713490612919855 ], [ -92.253578700863557, 34.713288013178513 ], [ -92.252136167118749, 34.713957479536312 ], [ -92.251670167402295, 34.714479479102287 ], [ -92.251672566936932, 34.715338479055177 ], [ -92.252199300602456, 34.716285879447803 ], [ -92.251821300920483, 34.716810612505164 ], [ -92.249999966988753, 34.716093413218054 ], [ -92.248908700664586, 34.714888879485756 ], [ -92.248514500877164, 34.714840479671857 ], [ -92.244107966857371, 34.717562212680761 ], [ -92.2417357669094, 34.717414413169031 ], [ -92.239218100243022, 34.71844287982703 ], [ -92.236750700482759, 34.717756412578652 ], [ -92.236199900212227, 34.717987879299919 ], [ -92.22246490081875, 34.717724013052411 ], [ -92.221706500763148, 34.717914279888063 ], [ -92.218681501092149, 34.717601813046372 ], [ -92.212534900126855, 34.71894181281786 ], [ -92.206220700206728, 34.716965479621074 ], [ -92.20527750036932, 34.717776012554651 ], [ -92.203477300803101, 34.71854067979951 ], [ -92.20143596719619, 34.720621812985762 ], [ -92.201168500143609, 34.721579479379827 ], [ -92.200332566790635, 34.722447079868274 ], [ -92.19935756760016, 34.724348012804647 ], [ -92.199176301028643, 34.725344212468464 ], [ -92.199489501166752, 34.727036479399494 ], [ -92.198294500384236, 34.728930279355133 ], [ -92.19807090118077, 34.729889412635302 ], [ -92.197704767689714, 34.730163812755166 ], [ -92.195510100205809, 34.729985079821518 ], [ -92.191521967750944, 34.728638412391597 ], [ -92.190082501188527, 34.727446279693908 ], [ -92.188912167619165, 34.727050212357234 ], [ -92.187418100352446, 34.726071012424498 ], [ -92.183643967104075, 34.726254479607128 ] ] } },
{ "type": "Feature", "properties": { "stream_nam": "Rock Creek", "gnis_name": "Rock Creek", "county": "Pulaski", "huc_8_name": "Lower Arkansas-Maumelle", "trib_of": "Fourche Creek", "ecoregion": "Ouachita Mountains" }, "geometry": { "type": "LineString", "coordinates": [ [ -92.42, 34.757169128721813 ], [ -92.419692700687065, 34.757315679241323 ], [ -92.416708966909127, 34.75590247918479 ], [ -92.414670367346361, 34.757468812366831 ], [ -92.413258300161985, 34.757902812947023 ], [ -92.412239300870468, 34.757484879248231 ], [ -92.409788766788679, 34.755582279833632 ], [ -92.407777566690598, 34.754768212470047 ], [ -92.405433300008909, 34.754327879581886 ], [ -92.404434367299089, 34.753684479231346 ], [ -92.401450700154768, 34.753590079511213 ], [ -92.39970616661752, 34.752435213016589 ], [ -92.396962167408532, 34.752060613045302 ], [ -92.396323100161624, 34.75167001310983 ], [ -92.395637699829308, 34.750498879459755 ], [ -92.395231367092236, 34.750388812948287 ], [ -92.390136300335058, 34.750650812885524 ], [ -92.387239367455578, 34.750297812932502 ], [ -92.386099500622578, 34.749754079392353 ], [ -92.3844611008534, 34.749819279372907 ], [ -92.383269167292568, 34.74931861301441 ], [ -92.382443366727315, 34.749351212865442 ], [ -92.379453700920394, 34.750266879813623 ], [ -92.377294700918526, 34.751859879770784 ], [ -92.370955166825496, 34.751889479544893 ], [ -92.367741566893926, 34.749269613030904 ], [ -92.367214899996668, 34.748450679198974 ], [ -92.365776166559783, 34.74805001230915 ], [ -92.364649900334967, 34.74667067954902 ], [ -92.364062966951977, 34.745428612787727 ], [ -92.362597500813322, 34.744709079806334 ], [ -92.360638566616672, 34.742851812827318 ], [ -92.359559366629099, 34.742181479618701 ], [ -92.35841376706, 34.74200047934378 ], [ -92.35463676684536, 34.739874479506 ], [ -92.353777767270401, 34.73968781301523 ], [ -92.352445167062925, 34.738083079741713 ], [ -92.351632099882636, 34.73655507906718 ], [ -92.351184966769353, 34.734592812673618 ], [ -92.351769900603912, 34.732206812332485 ], [ -92.35498450012652, 34.728891012543997 ], [ -92.357121366941627, 34.727939279383506 ], [ -92.35888510076262, 34.726712812645907 ], [ -92.35891016683162, 34.723870813054134 ], [ -92.359315767363697, 34.722941479232134 ], [ -92.359087967312803, 34.720160079163797 ], [ -92.358561700536669, 34.719473079308862 ], [ -92.356399766800635, 34.71918521306246 ], [ -92.353585500139559, 34.718131213197751 ], [ -92.352471966831928, 34.717452279645428 ], [ -92.349955766926783, 34.716622213223559 ], [ -92.349156966878567, 34.715810012469298 ], [ -92.346424300242788, 34.714901479670125 ], [ -92.345490167597958, 34.714156479650526 ], [ -92.344622166729863, 34.712948412549395 ], [ -92.34270170001038, 34.712566279831414 ], [ -92.341224700084354, 34.711195879720997 ], [ -92.340294166859735, 34.709449012626337 ] ] } },
{ "type": "Feature", "properties": { "stream_nam": "Fourche Creek", "gnis_name": "Fourche Creek", "county": "Pulaski", "huc_8_name": "Lower Arkansas-Maumelle", "trib_of": "Arkansas River", "ecoregion": "Ouachita Mountains" }, "geometry": { "type": "MultiLineString", "coordinates": [ [ [ -92.42, 34.662268481036961 ], [ -92.41997256689929, 34.662281412515242 ], [ -92.419766100231712, 34.6633202799608 ], [ -92.42, 34.663427266705163 ] ], [ [ -92.42, 34.664285406334102 ], [ -92.41997876692156, 34.664271412943819 ], [ -92.419452766714173, 34.665568679964018 ], [ -92.418374900664816, 34.666376679525442 ], [ -92.418388100499342, 34.666750412797491 ], [ -92.419179766529069, 34.666794479357328 ], [ -92.419106500615669, 34.667349812551343 ], [ -92.41705690056969, 34.668569813011331 ], [ -92.416976900252124, 34.66896007922675 ], [ -92.417588900420853, 34.66968581283831 ], [ -92.417289300593353, 34.670301479481815 ], [ -92.416251166501866, 34.671202812539683 ], [ -92.416117900388159, 34.671999879302099 ], [ -92.415472300846417, 34.672428612610851 ], [ -92.415139567164189, 34.672142679471172 ], [ -92.414281167354048, 34.672708812410377 ], [ -92.413402767400939, 34.67280201298216 ], [ -92.411593100226952, 34.672301413256562 ], [ -92.411832300243375, 34.67336241303579 ], [ -92.411585900561988, 34.674060479750601 ], [ -92.410966966887642, 34.674269279808478 ], [ -92.410261700129169, 34.674016213294905 ], [ -92.41012176705641, 34.674615412657445 ], [ -92.407817966575891, 34.673897079448444 ], [ -92.40427209987206, 34.676614879891112 ], [ -92.404398366491193, 34.676884279922064 ], [ -92.404039167349225, 34.6775028795048 ], [ -92.404579166795401, 34.67819947915185 ], [ -92.404070500251677, 34.678720679136539 ], [ -92.402119566505732, 34.679949079526864 ], [ -92.400897100723753, 34.679406479124417 ], [ -92.399872100697678, 34.679884479458842 ], [ -92.399259366914308, 34.681066079271154 ], [ -92.399538566995588, 34.681660012434158 ], [ -92.398839700295881, 34.681945613144386 ], [ -92.398227100540097, 34.682660012500939 ], [ -92.398333500522412, 34.682978879178933 ], [ -92.396701966968095, 34.685105812499359 ], [ -92.395517100791523, 34.68567161279406 ], [ -92.394911566553574, 34.685374479504056 ], [ -92.394805566866722, 34.684659812970615 ], [ -92.395165166660149, 34.684154212587764 ], [ -92.395118900234664, 34.683643013010759 ], [ -92.394200900294564, 34.682911479328823 ], [ -92.394527366568369, 34.682284879239127 ], [ -92.394254700636438, 34.682032012641194 ], [ -92.392817166774421, 34.682168812854123 ], [ -92.392297767319263, 34.682624879793934 ], [ -92.391585700454485, 34.682756612421329 ], [ -92.391439500066525, 34.682388212472858 ], [ -92.391013500488739, 34.682679479412677 ], [ -92.389190100286228, 34.68257427966094 ], [ -92.389010300519331, 34.682920479069352 ], [ -92.386387300227781, 34.68444221246132 ], [ -92.384776700439801, 34.684672279498109 ], [ -92.384543299978631, 34.685359413255796 ], [ -92.38427710044374, 34.685414213115287 ], [ -92.383665100037732, 34.68517747968388 ], [ -92.382960166811543, 34.684336213274726 ], [ -92.381782366550937, 34.684110279214849 ], [ -92.380884500197027, 34.68348307948672 ], [ -92.38004576676606, 34.683730079812435 ], [ -92.379452766662894, 34.684768812913461 ], [ -92.37882709988763, 34.684840013021152 ], [ -92.377929300723608, 34.684174412593805 ], [ -92.377703967542956, 34.68290441284379 ], [ -92.376392966700223, 34.682903812905707 ], [ -92.376199700197645, 34.68327747964841 ], [ -92.376392366595951, 34.683728279435606 ], [ -92.37594596677188, 34.684310812811837 ], [ -92.374341500867757, 34.68451521247782 ], [ -92.37359030021446, 34.685466612661699 ], [ -92.372352167324209, 34.685296813140269 ], [ -92.371414500284118, 34.686072279334994 ], [ -92.371028967236299, 34.686935613116695 ], [ -92.369645100502822, 34.687387012569673 ], [ -92.369000300075186, 34.688360279647114 ], [ -92.367822700071969, 34.689026012693176 ], [ -92.367510367374976, 34.689724279064862 ], [ -92.364834700582165, 34.689258212536423 ], [ -92.363610900739289, 34.690572479438181 ], [ -92.361840899886971, 34.691090013081059 ], [ -92.361634967346404, 34.69171121278972 ], [ -92.362188100463797, 34.693101812959917 ], [ -92.361363700093335, 34.694454412940118 ], [ -92.361284900521994, 34.696285013234146 ], [ -92.360393699999335, 34.697582679580677 ], [ -92.359628300159713, 34.69769301325119 ], [ -92.359100500775412, 34.69836907947159 ], [ -92.357095899918662, 34.698843479820709 ], [ -92.353451967545737, 34.700447679840998 ], [ -92.347666100597635, 34.705420679284799 ], [ -92.342981100544364, 34.708531012635561 ], [ -92.34079676726418, 34.70907101257616 ], [ -92.340294166859735, 34.709449012626337 ] ] ] } },
{ "type": "Feature", "properties": { "stream_nam": "McHenry Creek", "gnis_name": "McHenry Creek", "county": "Pulaski", "huc_8_name": "Lower Arkansas-Maumelle", "trib_of": "Fourche Creek", "ecoregion": "Ouachita Mountains" }, "geometry": { "type": "LineString", "coordinates": [ [ -92.42, 34.702478082529304 ], [ -92.418752300251597, 34.701877879633741 ], [ -92.418319900760693, 34.700805812423461 ], [ -92.418346766671078, 34.699854812674346 ], [ -92.417328567221858, 34.698832212737692 ], [ -92.417082566752839, 34.698040479448899 ], [ -92.416284100580583, 34.697556679153223 ], [ -92.415232167189927, 34.697853279713627 ], [ -92.414513766799232, 34.696913079048898 ], [ -92.413741566731872, 34.696907479234028 ], [ -92.413289166829912, 34.696456612514936 ], [ -92.412883367435938, 34.695675879296957 ], [ -92.413469366588117, 34.694917412861066 ], [ -92.412757300753626, 34.69438947934519 ], [ -92.412537900044242, 34.69373527962874 ], [ -92.411652900029054, 34.693251412395362 ], [ -92.410081966743391, 34.693591879186648 ], [ -92.408837700351597, 34.692788879410365 ], [ -92.408365100334237, 34.692953679117061 ], [ -92.408265166468667, 34.693514413050949 ], [ -92.407506500104844, 34.69328341268649 ], [ -92.407174500299334, 34.691287812720269 ], [ -92.406715366731902, 34.690781879729904 ], [ -92.404732366953397, 34.690050279836079 ], [ -92.404493366790192, 34.688615479849233 ], [ -92.40322290037372, 34.687383679258033 ], [ -92.403156499869951, 34.686817412938254 ], [ -92.401625967469428, 34.686360679209059 ], [ -92.400055967251319, 34.685189413062744 ], [ -92.400256367205245, 34.683683213004016 ], [ -92.399864100481196, 34.682946412449191 ], [ -92.399464900670608, 34.682775879497001 ], [ -92.398932366668134, 34.683006479355697 ], [ -92.398593300063141, 34.682357813088828 ] ] } },
{ "type": "Feature", "properties": { "stream_nam": "Brodie Creek", "gnis_name": "Brodie Creek", "county": "Pulaski", "huc_8_name": "Lower Arkansas-Maumelle", "trib_of": "Fourche Creek", "ecoregion": "Ouachita Mountains" }, "geometry": { "type": "LineString", "coordinates": [ [ -92.42, 34.730012884905619 ], [ -92.419710966465288, 34.729633479102127 ], [ -92.41900516673941, 34.729688413180725 ], [ -92.418445966752472, 34.729385879868246 ], [ -92.418226699897588, 34.72762681259848 ], [ -92.417394700000273, 34.726384212517594 ], [ -92.416109900801146, 34.725433012392052 ], [ -92.416077100497304, 34.723866212767248 ], [ -92.41511169995583, 34.72391001281926 ], [ -92.415111899830762, 34.72321201241909 ], [ -92.414798966502133, 34.722821479367781 ], [ -92.413733567373754, 34.723415013084839 ], [ -92.413207900083492, 34.722656279816704 ], [ -92.413461167191187, 34.721694413196559 ], [ -92.412495767291304, 34.721655679018198 ], [ -92.411943500563424, 34.720754013216983 ], [ -92.410478967381167, 34.720171012374436 ], [ -92.410119700308172, 34.719533212499435 ], [ -92.408768500032906, 34.718483013033648 ], [ -92.408022900356485, 34.718427679582575 ], [ -92.40652476671103, 34.719092612657931 ], [ -92.405166566614241, 34.719092212804334 ], [ -92.404506900318509, 34.720389279118578 ], [ -92.402562900781675, 34.720344812379388 ], [ -92.402183100633152, 34.721229813096663 ], [ -92.399653100517753, 34.72119041249708 ], [ -92.399060300294764, 34.721663012789769 ], [ -92.396191100866673, 34.721024279434502 ], [ -92.395618967064294, 34.720051213180049 ], [ -92.394454167280728, 34.719616412993709 ], [ -92.393629167457291, 34.718566212668158 ], [ -92.392477500549901, 34.718417279807205 ], [ -92.391159100892168, 34.718862079136663 ], [ -92.388817499920748, 34.715782679603663 ], [ -92.386447700463819, 34.715396879155975 ], [ -92.385969100483521, 34.714319213171287 ], [ -92.385097367461114, 34.713587679472901 ], [ -92.385297566721235, 34.712928212896941 ], [ -92.384752300593888, 34.712021013086265 ], [ -92.385598966902165, 34.709970879604548 ], [ -92.385867567352307, 34.706452679267628 ], [ -92.383526300304894, 34.703747079074269 ], [ -92.381030500452766, 34.703174212479674 ], [ -92.380976100475607, 34.702594479713461 ], [ -92.380287367264032, 34.702251079473008 ], [ -92.379287167389137, 34.70231581274156 ], [ -92.37802196677282, 34.703068279812172 ], [ -92.376151967594154, 34.702418679744262 ], [ -92.374779700108846, 34.701391412637214 ], [ -92.372702700818962, 34.700820679107963 ], [ -92.369235100270487, 34.701306079237121 ], [ -92.365912500707026, 34.699323079633359 ], [ -92.364248167584435, 34.698823612977691 ], [ -92.3632957003272, 34.697823479254488 ], [ -92.361065300304361, 34.696565412500505 ] ] } },
{ "type": "Feature", "properties": { "stream_nam": "Little Fourche Creek", "gnis_name": "Little Fourche Creek", "county": "Pulaski", "huc_8_name": "Lower Arkansas-Maumelle", "trib_of": "Fourche Creek", "ecoregion": "South Central Plains" }, "geometry": { "type": "LineString", "coordinates": [ [ -92.315552936323243, 34.66 ], [ -92.315945100207585, 34.660601079346556 ], [ -92.315552500718965, 34.661101412556562 ], [ -92.315086767194146, 34.660826479200395 ], [ -92.315505967373554, 34.662057879482433 ], [ -92.31511350098971, 34.662118412540934 ], [ -92.315100167432334, 34.662376813271095 ], [ -92.314428167139297, 34.662305279921398 ], [ -92.314088900017993, 34.663503612936331 ], [ -92.313217300263361, 34.66354207950473 ], [ -92.313383700339699, 34.663206879781349 ], [ -92.312991167344521, 34.663135412439289 ], [ -92.313363767017563, 34.662596612911955 ], [ -92.312432300236111, 34.66248667944793 ], [ -92.312399100285162, 34.663080413098939 ], [ -92.311680500984465, 34.662855013021897 ], [ -92.311134967008002, 34.663201279715011 ], [ -92.310915367136857, 34.663723613222814 ], [ -92.310090367641834, 34.663992879238364 ], [ -92.310203500386535, 34.664559079354959 ], [ -92.309677900108142, 34.664724013149701 ], [ -92.309571367238902, 34.665317679409711 ], [ -92.30921216749023, 34.665477079589827 ], [ -92.309624567307083, 34.66615867968445 ], [ -92.308852900999739, 34.666213679927239 ], [ -92.308812900035392, 34.666757879855119 ], [ -92.309205366950522, 34.667126213181568 ], [ -92.308799500462513, 34.667555012964691 ], [ -92.309351700929852, 34.668242212797146 ], [ -92.308739500954928, 34.668621479421162 ], [ -92.308333566623929, 34.669753879447654 ], [ -92.308739367286094, 34.670474012500542 ], [ -92.308226966684217, 34.673178612939026 ], [ -92.308812500950893, 34.67396467915362 ], [ -92.307587967127347, 34.674992612546383 ], [ -92.306663100968095, 34.675086012675642 ], [ -92.30688930097503, 34.675767679191303 ], [ -92.3062305003548, 34.676757212561625 ], [ -92.306463300644381, 34.677323412422126 ], [ -92.305871100243039, 34.677928012988147 ], [ -92.306150366672398, 34.678697612995606 ], [ -92.305817700151508, 34.679049413169302 ], [ -92.305717367063735, 34.683491079705121 ], [ -92.304606100111897, 34.684249679701495 ], [ -92.304066966918029, 34.684145213205149 ], [ -92.302270100264153, 34.684953079302915 ], [ -92.30137770020896, 34.689482679407874 ], [ -92.298954567716905, 34.692786212865393 ], [ -92.299001166968878, 34.693116013195393 ], [ -92.301183767672853, 34.695348079565171 ], [ -92.298613900828229, 34.699542079277649 ], [ -92.299239967457524, 34.701034813077214 ], [ -92.298063166722471, 34.702608079156136 ], [ -92.298717767189302, 34.702736213246681 ], [ -92.299623300315119, 34.702228012566245 ], [ -92.302120166943951, 34.702521679553854 ], [ -92.303702567297407, 34.701677013215772 ], [ -92.303291300306256, 34.701986079747336 ], [ -92.303191967604832, 34.70405881292087 ], [ -92.302690967261825, 34.704400813191995 ], [ -92.30185350071946, 34.704410079906395 ], [ -92.298854300608781, 34.703563612914579 ], [ -92.298180766754072, 34.703828612716464 ], [ -92.298798900707069, 34.705637613054733 ], [ -92.299706700172251, 34.706919012758036 ], [ -92.30078756706223, 34.707346879424854 ], [ -92.301111500084247, 34.708860212939221 ], [ -92.301943900756115, 34.708958212629966 ], [ -92.302094167362569, 34.709499679833385 ], [ -92.301197300312666, 34.709829279378937 ], [ -92.299916899972644, 34.708965612769369 ], [ -92.299432966800566, 34.708950279602831 ], [ -92.298625767214233, 34.709246813017231 ], [ -92.297840167294567, 34.710009279444243 ], [ -92.296112567635717, 34.710205079168183 ], [ -92.296002299991954, 34.710666879713045 ], [ -92.29642496673705, 34.711038212564368 ], [ -92.298302966763174, 34.711384012549907 ], [ -92.299063367149813, 34.712982679397143 ] ] } },
{ "type": "Feature", "properties": { "stream_nam": "Fourche Creek", "gnis_name": "Fourche Creek", "county": "Pulaski", "huc_8_name": "Lower Arkansas-Maumelle", "trib_of": "Arkansas River", "ecoregion": "South Central Plains" }, "geometry": { "type": "MultiLineString", "coordinates": [ [ [ -92.321892566942225, 34.702680079304585 ], [ -92.318846967312552, 34.703729479303199 ], [ -92.318424100862671, 34.703358279104741 ], [ -92.318351767125876, 34.702103479646112 ], [ -92.317881567389023, 34.701802279236091 ], [ -92.316418099934978, 34.70200681292603 ], [ -92.316019167635446, 34.701135279422715 ], [ -92.315577567424427, 34.701157079056244 ], [ -92.31456390080335, 34.702091479288846 ], [ -92.312410166699337, 34.701987812653414 ], [ -92.311325900624894, 34.701631479155154 ] ], [ [ -92.311325900624894, 34.701631479155154 ], [ -92.310363300358574, 34.701493679450721 ], [ -92.309327700057239, 34.701962079501911 ], [ -92.309486567342134, 34.702325012424097 ], [ -92.310653700248395, 34.702791279217863 ], [ -92.310680566744139, 34.703150012699325 ], [ -92.310360699972748, 34.703390479121531 ], [ -92.308223700052778, 34.703859812637745 ], [ -92.306554367112085, 34.702840812810514 ], [ -92.306156767021449, 34.702864079357262 ], [ -92.305872300949019, 34.703284479766964 ] ], [ [ -92.336848300389903, 34.708659279667799 ], [ -92.334215166662332, 34.707576479892538 ], [ -92.334442099953108, 34.706509879808976 ], [ -92.335352367550541, 34.705894279055435 ], [ -92.335012366709961, 34.705633079595195 ], [ -92.33297376671581, 34.704960812451894 ], [ -92.33074216728626, 34.704640279210913 ], [ -92.325810900247376, 34.70273181244923 ], [ -92.322527167263928, 34.702306413060114 ], [ -92.321892566942225, 34.702680079304585 ] ], [ [ -92.301943900756115, 34.708958212629966 ], [ -92.303596700816641, 34.709404079063596 ], [ -92.304278900801222, 34.708960412913811 ], [ -92.303994900637178, 34.708450412570073 ], [ -92.30277856710245, 34.708089812887039 ], [ -92.303002500224764, 34.707094812641571 ], [ -92.302540767180744, 34.706615012912351 ], [ -92.302733900056239, 34.706263212881417 ], [ -92.304043300380144, 34.706519279110097 ], [ -92.304933900481018, 34.705402212595565 ], [ -92.306089100814972, 34.706118679213503 ], [ -92.307628700403413, 34.706167279075849 ], [ -92.307791367053625, 34.705528279612416 ], [ -92.305768767480444, 34.703192879340932 ] ] ] } }
]
}
