{"type":"FeatureCollection","name":"native-land-arkansas-territories","crs":{"type":"name","properties":{"name":"urn:ogc:def:crs:OGC:1.3:CRS84"}},"features":[{"type":"Feature","properties":{"Name":"O-ga-xpa Ma-zhoⁿ (O-ga-xpa) (Quapaw)","ID":36477,"Slug":"quapaw","descriptio":"https://native-land.ca/maps/territories/quapaw/","color":"#AE2C6F"},"geometry":{"type":"Polygon","coordinates":[[[-94.0366409132266,36.4428609727638],[-93.9900281391331,36.4611590091734],[-93.8917486741828,36.4765698264978],[-93.8417346290531,36.49915987452556],[-90.152481,36.497952],[-90.138512,36.413952],[-90.064514,36.382085],[-90.06398,36.303038],[-90.319168,36.089976],[-90.37789,35.995683],[-89.733095,36.000608],[-89.64727,35.89492],[-89.74124106460009,35.90674877319051],[-89.772467,35.865098],[-89.706085,35.81826],[-89.781793,35.805084],[-89.821216,35.756716],[-89.956254,35.733386],[-89.931036,35.660044],[-89.851176,35.657432],[-89.956749,35.590511],[-89.909022,35.520548],[-90.032938,35.55344],[-90.041563,35.39662],[-90.098719,35.478595],[-90.179265,35.385194],[-90.13551,35.376668],[-90.130475,35.413745],[-90.074992,35.384152],[-90.109093,35.304987],[-90.168794,35.279088],[-90.07875043598528,35.227805886033394],[-90.117393,35.18789],[-90.065392,35.137691],[-90.165328,35.125228],[-90.209397,35.026546],[-90.295596,35.040093],[-90.309297,34.995694],[-90.244725,34.921031],[-90.313476,34.871698],[-90.307384,34.846195],[-90.414864,34.831846],[-90.438313,34.884581],[-90.479872,34.883264],[-90.452479,34.739898],[-90.51831749421778,34.7327904640966],[-90.522892,34.802265],[-90.568081,34.724802],[-90.471185,34.699066],[-90.466041,34.674312],[-90.532188,34.627487],[-90.549856,34.695478],[-90.588419,34.670963],[-90.540736,34.548085],[-90.588942,34.491097],[-90.571145,34.420319],[-90.658542,34.375705],[-90.661395,34.315398],[-90.693129,34.32257],[-90.6832221451942,34.3688169490869],[-90.765764,34.362109],[-90.743082,34.302257],[-90.828267,34.27365],[-90.847808,34.20653],[-90.929015,34.244541],[-90.916048,34.196916],[-90.816572,34.183023],[-90.810884,34.155903],[-90.847168,34.136884],[-90.91001,34.165508],[-90.9543,34.138498],[-90.870528,34.080516],[-90.89242,34.02686],[-90.987948,34.019038],[-90.967632,33.963324],[-91.01889,34.003151],[-91.087921,33.975335],[-91.010318,33.929352],[-91.073011,33.857449],[-90.988466,33.78453],[-91.023285,33.762991],[-91.132185,33.78342],[-91.146618,33.732456],[-91.117733,33.705342],[-91.059891,33.714816],[-91.03146,33.678142],[-91.09404,33.658351],[-91.160866,33.707096],[-91.229015,33.677543],[-91.130445,33.606034],[-91.231418,33.560593],[-91.18290081205737,33.50237852777419],[-91.235181,33.438972],[-91.177293,33.443638],[-91.16740319683039,33.4983043760841],[-91.117975,33.453807],[-91.208113,33.402007],[-91.14093768554619,33.3804765253698],[-91.086498,33.451576],[-91.057621,33.445341],[-91.142219,33.348989],[-91.106142,33.241799],[-91.07853,33.283306],[-91.043624,33.274636],[-91.091711,33.220813],[-91.089862,33.139655],[-91.20178,33.125121],[-91.124639,33.064127],[-91.129088,33.033554],[-91.166073,33.004106],[-94.042964,33.019219],[-94.04345,33.552253],[-94.082641,33.575492],[-94.128658,33.550952],[-94.183913,33.594682],[-94.217198,33.580737],[-94.194399,33.573678],[-94.196395,33.555123],[-94.250197,33.556765],[-94.242777,33.589709],[-94.275601,33.557964],[-94.289129,33.582144],[-94.309582,33.551673],[-94.344023,33.567824],[-94.381667,33.544035],[-94.382887,33.583268],[-94.412175,33.568691],[-94.471974,33.602665],[-94.448637,33.642766],[-94.485875,33.637867],[-94.431215,35.39429],[-94.617919,36.499414],[-94.13590828437478,36.499256188007934],[-94.0366409132266,36.4428609727638]]]}},{"type":"Feature","properties":{"Name":"Caddo","ID":35855,"Slug":"caddo","descriptio":"https://native-land.ca/maps/territories/caddo/","color":"#3EF38C"},"geometry":{"type":"Polygon","coordinates":[[[-92.746772,36.150062],[-92.625635,35.816787],[-92.819454,35.403154],[-92.819454,34.92782],[-92.649862,34.389759],[-92.528725,33.948764],[-92.456043,33.545865],[-92.456043,33.010882522506414],[-94.042964,33.019219],[-94.04345,33.552253],[-94.082641,33.575492],[-94.128658,33.550952],[-94.183913,33.594682],[-94.217198,33.580737],[-94.194399,33.573678],[-94.196395,33.555123],[-94.250197,33.556765],[-94.242777,33.589709],[-94.275601,33.557964],[-94.289129,33.582144],[-94.309582,33.551673],[-94.344023,33.567824],[-94.381667,33.544035],[-94.382887,33.583268],[-94.412175,33.568691],[-94.471974,33.602665],[-94.448637,33.642766],[-94.485875,33.637867],[-94.431215,35.39429],[-94.617919,36.499414],[-93.01758292583034,36.498890044378975],[-92.746772,36.150062]]]}},{"type":"Feature","properties":{"Name":"Chahta Yakni (Choctaw)","ID":36162,"Slug":"chahta-choctaw","descriptio":"https://native-land.ca/maps/territories/chahta-choctaw/","color":"#BD725E"},"geometry":{"type":"MultiPolygon","coordinates":[[[[-91.1654655070731,33.0351386350899],[-91.15029311819228,33.08441124942664],[-91.124639,33.064127],[-91.129088,33.033554],[-91.16442322282951,33.005419576804556],[-91.1654655070731,33.0351386350899]]],[[[-91.1179532747293,33.1563592912783],[-91.1265918624256,33.2286500887236],[-91.1503479786011,33.2611614736967],[-91.1741040947765,33.3189296218089],[-91.1481883316735,33.3586230309099],[-91.1002515501589,33.4115386231925],[-91.10981853019089,33.42111885411397],[-91.086498,33.451576],[-91.057621,33.445341],[-91.142219,33.348989],[-91.106142,33.241799],[-91.07853,33.283306],[-91.043624,33.274636],[-91.091711,33.220813],[-91.089862,33.139655],[-91.11959065538876,33.135794349546806],[-91.1179532747293,33.1563592912783]]],[[[-91.1520584758217,33.4634173048163],[-91.17068785177042,33.48014828347249],[-91.16740319683039,33.4983043760841],[-91.117975,33.453807],[-91.13353302909987,33.444866199146055],[-91.1520584758217,33.4634173048163]]],[[[-91.2194074791867,33.523903213787],[-91.2084511285432,33.533035667078806],[-91.18290081205737,33.50237852777419],[-91.1882358497073,33.49590808024447],[-91.2194074791867,33.523903213787]]],[[[-91.1727812460885,33.6188670769666],[-91.18065442868519,33.64245913985847],[-91.130445,33.606034],[-91.15606597674292,33.59450376118195],[-91.1727812460885,33.6188670769666]]],[[[-91.1986847089199,33.6964870377297],[-91.1520584758217,33.7395789720364],[-91.14009312130786,33.75549583355275],[-91.146618,33.732456],[-91.117733,33.705342],[-91.059891,33.714816],[-91.03146,33.678142],[-91.09404,33.658351],[-91.160866,33.707096],[-91.19699638500794,33.69142795985063],[-91.1986847089199,33.6964870377297]]],[[[-91.0588060096339,33.7912607327705],[-91.0588060096339,33.84519737432722],[-90.988466,33.78453],[-91.023285,33.762991],[-91.10754178389385,33.778797077485464],[-91.0588060096339,33.7912607327705]]],[[[-91.0536253170608,33.9289262689633],[-91.06491604868887,33.96170361105706],[-91.010318,33.929352],[-91.05742364848172,33.87532623248559],[-91.0536253170608,33.9289262689633]]],[[[-91.0743480873276,33.9890851100854],[-91.0069990839711,34.0105600986394],[-90.9474624872792,34.0441703414409],[-90.9474624872792,34.133765480034164],[-90.870528,34.080516],[-90.89242,34.02686],[-90.987948,34.019038],[-90.967632,33.963324],[-91.01889,34.003151],[-91.07184325896193,33.981813516097326],[-91.0743480873276,33.9890851100854]]],[[[-90.9474624872792,34.1468212660299],[-90.92969367733046,34.153504023375575],[-90.9474624872792,34.14266781753418],[-90.9474624872792,34.1468212660299]]],[[[-90.8425741467187,34.1862692273947],[-90.842414500332,34.1866322108359],[-90.816572,34.183023],[-90.810884,34.155903],[-90.847168,34.136884],[-90.90447714405832,34.16298783086989],[-90.8425741467187,34.1862692273947]]],[[[-90.76256460215451,34.353666606919646],[-90.743082,34.302257],[-90.7989875085331,34.283482698390486],[-90.76256460215451,34.353666606919646]]],[[[-90.7472211098499,34.3832322393058],[-90.62910859727997,34.39073002178509],[-90.658542,34.375705],[-90.661395,34.315398],[-90.693129,34.32257],[-90.6832221451942,34.3688169490869],[-90.75784951444052,34.36275218843218],[-90.7472211098499,34.3832322393058]]],[[[-90.57519295262482,34.43641755542393],[-90.571145,34.420319],[-90.61721639037495,34.396800698339895],[-90.57519295262482,34.43641755542393]]]]}},{"type":"Feature","properties":{"Name":"Cherokee (Oklahoma)","ID":36455,"Slug":"cherokee-oklahoma","descriptio":"https://native-land.ca/maps/territories/cherokee-oklahoma/","color":"#7A5F2E"},"geometry":{"type":"Polygon","coordinates":[[[-94.61640577347077,36.490457025565185],[-94.617919,36.499414],[-94.61784962531108,36.49941397728649],[-94.61640577347077,36.490457025565185]]]}},{"type":"Feature","properties":{"Name":"Chikashsha I̠yaakni’ (Chickasaw)","ID":36468,"Slug":"chickasaw","descriptio":"https://native-land.ca/maps/territories/chickasaw/","color":"#851347"},"geometry":{"type":"MultiPolygon","coordinates":[[[[-90.5865088684497,34.4237648355193],[-90.5865088684497,34.4800269879701],[-90.58637351023496,34.4808822127555],[-90.571145,34.420319],[-90.57429163702594,34.418712719872815],[-90.5865088684497,34.4237648355193]]],[[[-90.579906012085,34.5217453752023],[-90.5600974429981,34.5580052588798],[-90.5865088684497,34.5960611334239],[-90.5909107726905,34.6811706448404],[-90.57393090297623,34.68017327146586],[-90.588419,34.670963],[-90.540736,34.548085],[-90.58379347737007,34.49718346242449],[-90.579906012085,34.5217453752023]]],[[[-90.5358869696632,34.6467751897785],[-90.51358175934755,34.64065822800054],[-90.532188,34.627487],[-90.53790652939702,34.649493369268335],[-90.5358869696632,34.6467751897785]]],[[[-90.46950704708772,34.69099134090381],[-90.466041,34.674312],[-90.49103717908245,34.65661737914742],[-90.46950704708772,34.69099134090381]]],[[[-90.5600974429981,34.7119334202817],[-90.55842582965951,34.72223754466765],[-90.471185,34.699066],[-90.47102798126863,34.698310393142236],[-90.5600974429981,34.7119334202817]]],[[[-90.45469795277822,34.75151127288005],[-90.452479,34.739898],[-90.4701191719183,34.73799367097879],[-90.45469795277822,34.75151127288005]]],[[[-90.4632555496657,34.7824636210018],[-90.46186577741491,34.78902532197519],[-90.45531515540448,34.75474150949949],[-90.4632555496657,34.7824636210018]]],[[[-90.3276857025416,34.8685266477798],[-90.27761529826327,34.89743022205899],[-90.313476,34.871698],[-90.307384,34.846195],[-90.40099281640738,34.83369785721409],[-90.3276857025416,34.8685266477798]]],[[[-90.2519208447718,34.9227017279093],[-90.2583777405947,34.936817324893475],[-90.244725,34.921031],[-90.27414617915431,34.899919524803714],[-90.2519208447718,34.9227017279093]]],[[[-90.3063161272717,34.9847997183271],[-90.30373518115476,34.98926300699309],[-90.28145263038721,34.96349824691197],[-90.3063161272717,34.9847997183271]]],[[[-90.20745216114057,35.030901002117744],[-90.209397,35.026546],[-90.22033108610064,35.02826439655223],[-90.20745216114057,35.030901002117744]]],[[[-90.195582873615,35.0611634023733],[-90.1839267416485,35.0945500786414],[-90.1762081231009,35.100864562938945],[-90.20601137183442,35.03412730564877],[-90.195582873615,35.0611634023733]]],[[[-90.07531654575764,35.1472716286896],[-90.065392,35.137691],[-90.08867553251764,35.13478731498392],[-90.07531654575764,35.1472716286896]]],[[[-90.0823277080928,35.22984323404283],[-90.07875043598528,35.227805886033394],[-90.08028267691397,35.22622315580199],[-90.0823277080928,35.22984323404283]]],[[[-90.1023338179018,35.3278738843985],[-90.0829069312887,35.3801604726189],[-90.07894532348963,35.386260586450426],[-90.074992,35.384152],[-90.10152084521063,35.32256565264656],[-90.1023338179018,35.3278738843985]]],[[[-90.042110469512,35.4102495124111],[-90.04074826293403,35.41143357294907],[-90.041563,35.39662],[-90.05029118246784,35.409138244065396],[-90.042110469512,35.4102495124111]]],[[[-89.91089688793872,35.52329639786403],[-89.909022,35.520548],[-89.91405320161924,35.521883471477935],[-89.91089688793872,35.52329639786403]]],[[[-89.9138930179055,35.6568713883199],[-89.91589418436122,35.65954875303721],[-89.851176,35.657432],[-89.88857564973382,35.633724973015475],[-89.9138930179055,35.6568713883199]]],[[[-89.9469187251356,35.7010565499536],[-89.94562715007483,35.70247972562407],[-89.94362056468803,35.696643934306806],[-89.9469187251356,35.7010565499536]]],[[[-89.71053053872032,35.82139669582993],[-89.706085,35.81826],[-89.71428199602062,35.81683341866688],[-89.71053053872032,35.82139669582993]]],[[[-89.7584779251769,35.8859219787066],[-89.75549751882814,35.887732774664016],[-89.7577962911023,35.88466655290376],[-89.7584779251769,35.8859219787066]]],[[[-89.66130426113509,35.912202295261814],[-89.64727,35.89492],[-89.67181732152847,35.89800993731241],[-89.66130426113509,35.912202295261814]]],[[[-89.7215668406205,35.9818740092205],[-89.72035983950002,35.984925464108095],[-89.69690526943947,35.956042660722616],[-89.7215668406205,35.9818740092205]]]]}},{"type":"Feature","properties":{"Name":"Choctaw (Oklahoma)","ID":36306,"Slug":"choctaw-oklahoma","descriptio":"https://native-land.ca/maps/territories/choctaw-oklahoma/","color":"#DEF00B"},"geometry":{"type":"Polygon","coordinates":[[[-94.48585809153708,33.63786922446318],[-94.485875,33.637867],[-94.48573480299932,33.64237203542864],[-94.48585809153708,33.63786922446318]]]}},{"type":"Feature","properties":{"Name":"Kaskaskia","ID":34078,"Slug":"kaskaskia","descriptio":"https://native-land.ca/maps/territories/kaskaskia/","color":"#1D0B30"},"geometry":{"type":"Polygon","coordinates":[[[-94.0939822030992,36.4843643314404],[-94.5918865830751,36.34532491395086],[-94.617919,36.499414],[-93.994403577159,36.49920985887248],[-94.0939822030992,36.4843643314404]]]}},{"type":"Feature","properties":{"Name":"Kiikaapoi (Kickapoo)","ID":33754,"Slug":"kiikaapoi-kickapoo","descriptio":"https://native-land.ca/maps/territories/kiikaapoi-kickapoo/","color":"#87B200"},"geometry":{"type":"Polygon","coordinates":[[[-94.184147734987,35.0588327934155],[-94.20024682734244,33.58783882072134],[-94.217198,33.580737],[-94.20038153619915,33.57553030593578],[-94.20060347547644,33.55525143977422],[-94.250197,33.556765],[-94.242777,33.589709],[-94.275601,33.557964],[-94.289129,33.582144],[-94.309582,33.551673],[-94.344023,33.567824],[-94.381667,33.544035],[-94.382887,33.583268],[-94.412175,33.568691],[-94.471974,33.602665],[-94.448637,33.642766],[-94.485875,33.637867],[-94.431215,35.39429],[-94.617919,36.499414],[-94.26136497853147,36.49929726296785],[-94.184147734987,35.0588327934155]]]}},{"type":"Feature","properties":{"Name":"Koroa","ID":32567,"Slug":"koroa","descriptio":"https://native-land.ca/maps/territories/koroa/","color":"#7466F4"},"geometry":{"type":"Polygon","coordinates":[[[-92.4817429243402,33.2096485758477],[-92.5369174318056,33.9388501039091],[-92.3072495042511,34.3669986250795],[-91.8996972140643,34.4349624644629],[-91.5303969072142,34.3623509341851],[-91.2130801097553,34.2487422464563],[-90.874938912364,34.0697051141146],[-90.89242,34.02686],[-90.987948,34.019038],[-90.967632,33.963324],[-91.01889,34.003151],[-91.087921,33.975335],[-91.010318,33.929352],[-91.073011,33.857449],[-90.988466,33.78453],[-91.023285,33.762991],[-91.132185,33.78342],[-91.146618,33.732456],[-91.117733,33.705342],[-91.059891,33.714816],[-91.03146,33.678142],[-91.09404,33.658351],[-91.160866,33.707096],[-91.229015,33.677543],[-91.130445,33.606034],[-91.231418,33.560593],[-91.18290081205737,33.50237852777419],[-91.235181,33.438972],[-91.177293,33.443638],[-91.16740319683039,33.4983043760841],[-91.117975,33.453807],[-91.208113,33.402007],[-91.14093768554619,33.3804765253698],[-91.086498,33.451576],[-91.057621,33.445341],[-91.142219,33.348989],[-91.106142,33.241799],[-91.07853,33.283306],[-91.043624,33.274636],[-91.091711,33.220813],[-91.089862,33.139655],[-91.20178,33.125121],[-91.124639,33.064127],[-91.129088,33.033554],[-91.166073,33.004106],[-91.99650391485335,33.00846845322335],[-92.4817429243402,33.2096485758477]]]}},{"type":"Feature","properties":{"Name":"Očhéthi Šakówiŋ","ID":36082,"Slug":"oceti-sakowin-sioux","descriptio":"https://native-land.ca/maps/territories/oceti-sakowin-sioux/","color":"#E264F7"},"geometry":{"type":"Polygon","coordinates":[[[-89.68785127445591,35.900028239364566],[-89.74124106460009,35.90674877319051],[-89.772467,35.865098],[-89.7227991148143,35.83005319257739],[-89.73084079290992,35.8139515738445],[-89.781793,35.805084],[-89.821216,35.756716],[-89.956254,35.733386],[-89.931036,35.660044],[-89.851176,35.657432],[-89.956749,35.590511],[-89.909022,35.520548],[-90.032938,35.55344],[-90.041563,35.39662],[-90.098719,35.478595],[-90.179265,35.385194],[-90.13551,35.376668],[-90.130475,35.413745],[-90.074992,35.384152],[-90.109093,35.304987],[-90.168794,35.279088],[-90.07875043598528,35.227805886033394],[-90.117393,35.18789],[-90.06754807225637,35.139772357496916],[-90.06879982421123,35.137266010875514],[-90.165328,35.125228],[-90.209397,35.026546],[-90.295596,35.040093],[-90.309297,34.995694],[-90.244725,34.921031],[-90.313476,34.871698],[-90.307384,34.846195],[-90.414864,34.831846],[-90.438313,34.884581],[-90.479872,34.883264],[-90.452479,34.739898],[-90.51831749421778,34.7327904640966],[-90.522892,34.802265],[-90.568081,34.724802],[-90.471185,34.699066],[-90.466041,34.674312],[-90.532188,34.627487],[-90.549856,34.695478],[-90.588419,34.670963],[-90.540736,34.548085],[-90.588942,34.491097],[-90.57538637985482,34.43718680824658],[-90.59757070206145,34.40682933477385],[-90.658542,34.375705],[-90.66118797188747,34.319774180996205],[-90.66396199601931,34.31597815048372],[-90.693129,34.32257],[-90.6832221451942,34.3688169490869],[-90.765764,34.362109],[-90.743082,34.302257],[-90.828267,34.27365],[-90.847808,34.20653],[-90.929015,34.244541],[-90.916048,34.196916],[-90.816572,34.183023],[-90.810884,34.155903],[-90.847168,34.136884],[-90.91001,34.165508],[-90.9543,34.138498],[-90.870528,34.080516],[-90.89242,34.02686],[-90.987948,34.019038],[-90.967632,33.963324],[-91.01889,34.003151],[-91.087921,33.975335],[-91.010318,33.929352],[-91.04894518265853,33.88505023880342],[-91.9191182088624,34.2590413868509],[-92.1742289549527,34.6540874346348],[-92.7401494479878,35.0748966019186],[-93.3150004254969,35.0465679129474],[-94.0191103736499,34.8543122521358],[-94.44615691838172,34.9141522555839],[-94.431215,35.39429],[-94.617919,36.499414],[-90.152481,36.497952],[-90.138512,36.413952],[-90.064514,36.382085],[-90.06398,36.303038],[-90.319168,36.089976],[-90.37789,35.995683],[-89.733095,36.000608],[-89.67397710318308,35.927808089964614],[-89.68785127445591,35.900028239364566]]]}},{"type":"Feature","properties":{"Name":"Tayoroniku (Tunica)","ID":33213,"Slug":"tayoroniku","descriptio":"https://native-land.ca/maps/territories/tayoroniku/","color":"#67831E"},"geometry":{"type":"Polygon","coordinates":[[[-92.4283377039437,33.0809019621806],[-92.2804598092413,33.2753063467102],[-92.0460147329728,33.3686933706339],[-91.7655407976081,33.45833509836],[-91.4566208129547,33.5533657442213],[-91.261015183336,33.5504984348689],[-91.20839079528818,33.53296327482468],[-91.18290081205737,33.50237852777419],[-91.235181,33.438972],[-91.177293,33.443638],[-91.16740319683039,33.4983043760841],[-91.117975,33.453807],[-91.208113,33.402007],[-91.14093768554619,33.3804765253698],[-91.086498,33.451576],[-91.057621,33.445341],[-91.142219,33.348989],[-91.106142,33.241799],[-91.07853,33.283306],[-91.043624,33.274636],[-91.091711,33.220813],[-91.089862,33.139655],[-91.20178,33.125121],[-91.124639,33.064127],[-91.129088,33.033554],[-91.166073,33.004106],[-92.49082208356756,33.011065225392954],[-92.4283377039437,33.0809019621806]]]}},{"type":"Feature","properties":{"Name":"Yazoo","ID":32560,"Slug":"yazoo","descriptio":"https://native-land.ca/maps/territories/yazoo/","color":"#722D2F"},"geometry":{"type":"Polygon","coordinates":[[[-91.42091723199,33.1632225967062],[-91.11545916813371,33.26948165798853],[-91.106142,33.241799],[-91.08393707866814,33.27517795370569],[-91.04668723396296,33.27539685023947],[-91.043624,33.274636],[-91.091711,33.220813],[-91.089862,33.139655],[-91.20178,33.125121],[-91.124639,33.064127],[-91.129088,33.033554],[-91.166073,33.004106],[-91.47054932438489,33.00570548732518],[-91.42091723199,33.1632225967062]]]}},{"type":"Feature","properties":{"Name":"𐓏𐒰𐓓𐒰𐓓𐒷  𐒼𐓂𐓊𐒻  𐓆𐒻𐒿𐒷  𐓀𐒰^𐓓𐒰^(Osage)","ID":36479,"Slug":"osage","descriptio":"https://native-land.ca/maps/territories/osage/","color":"#468BC1"},"geometry":{"type":"Polygon","coordinates":[[[-89.736328,35.924645],[-89.74784330330735,35.89794236456179],[-89.772467,35.865098],[-89.76444736934273,35.85943948623535],[-89.79473549743837,35.78920487572993],[-89.821216,35.756716],[-89.956254,35.733386],[-89.931036,35.660044],[-89.85155616047564,35.657444433999025],[-89.8517065531685,35.6570956910139],[-89.956749,35.590511],[-89.911574121913,35.52428915501498],[-89.91290413464087,35.52157846557836],[-90.032938,35.55344],[-90.041563,35.39662],[-90.098719,35.478595],[-90.179265,35.385194],[-90.13551,35.376668],[-90.130475,35.413745],[-90.074992,35.384152],[-90.109093,35.304987],[-90.168794,35.279088],[-90.07875043598528,35.227805886033394],[-90.117393,35.18789],[-90.09597517169239,35.16721436754651],[-90.12182780591631,35.130652901125366],[-90.165328,35.125228],[-90.209397,35.026546],[-90.295596,35.040093],[-90.309297,34.995694],[-90.25865905303586,34.937142599482996],[-90.29613776505137,34.88413923205074],[-90.313476,34.871698],[-90.31158326479584,34.863774423849065],[-90.33156297201111,34.842967012752254],[-90.414864,34.831846],[-90.438313,34.884581],[-90.479872,34.883264],[-90.452479,34.739898],[-90.51831749421778,34.7327904640966],[-90.522892,34.802265],[-90.568081,34.724802],[-90.471185,34.699066],[-90.47092786599173,34.69782861756588],[-90.5335262554133,34.63263695040783],[-90.549856,34.695478],[-90.588419,34.670963],[-90.5620281273277,34.60295432495383],[-90.637207,34.524661],[-90.69663800789466,34.367726678894115],[-90.765764,34.362109],[-90.743082,34.302257],[-90.828267,34.27365],[-90.847808,34.20653],[-90.929015,34.244541],[-90.916048,34.196916],[-90.816572,34.183023],[-90.810884,34.155903],[-90.847168,34.136884],[-90.91001,34.165508],[-90.9543,34.138498],[-90.870528,34.080516],[-90.89242,34.02686],[-90.987948,34.019038],[-90.967632,33.963324],[-91.01889,34.003151],[-91.087921,33.975335],[-91.010318,33.929352],[-91.073011,33.857449],[-90.988466,33.78453],[-91.023285,33.762991],[-91.132185,33.78342],[-91.146618,33.732456],[-91.117733,33.705342],[-91.059891,33.714816],[-91.03146,33.678142],[-91.09404,33.658351],[-91.160866,33.707096],[-91.229015,33.677543],[-91.130445,33.606034],[-91.13168695138422,33.60547508313261],[-91.274414,33.614619],[-91.538086,33.742613],[-91.779785,33.94336],[-92.109375,33.961586],[-92.39502,33.706063],[-92.285156,33.596319],[-92.131348,33.376412],[-91.977539,33.100745],[-91.92656615471705,33.00810105335699],[-94.042964,33.019219],[-94.04345,33.552253],[-94.082641,33.575492],[-94.128658,33.550952],[-94.183913,33.594682],[-94.217198,33.580737],[-94.194399,33.573678],[-94.196395,33.555123],[-94.250197,33.556765],[-94.242777,33.589709],[-94.275601,33.557964],[-94.289129,33.582144],[-94.309582,33.551673],[-94.344023,33.567824],[-94.381667,33.544035],[-94.382887,33.583268],[-94.412175,33.568691],[-94.471974,33.602665],[-94.448637,33.642766],[-94.485875,33.637867],[-94.431215,35.39429],[-94.617919,36.499414],[-90.152481,36.497952],[-90.138512,36.413952],[-90.064514,36.382085],[-90.06398,36.303038],[-90.319168,36.089976],[-90.37789,35.995683],[-89.733095,36.000608],[-89.70596188789548,35.96719530728689],[-89.736328,35.924645]]]}}]}