{
"type": "FeatureCollection",
"name": "north-america-major-rivers",
"crs": { "type": "name", "properties": { "name": "urn:ogc:def:crs:OGC:1.3:CRS84" } },
"features": [
{ "type": "Feature", "properties": { "scalerank": 5, "featurecla": "Lake Centerline", "name": "Colorado", "name_en": "Colorado", "min_zoom": 4.7 }, "geometry": { "type": "MultiLineString", "coordinates": [ [ [ -114.376914842545887, 34.539700832927167 ], [ -114.37102372916172, 34.48848948849917 ], [ -114.308030157965391, 34.432885647454725 ], [ -114.158788622197108, 34.355215969641336 ], [ -114.125069749868999, 34.317182115062622 ], [ -114.125018073025615, 34.314081529638941 ], [ -114.125612352228245, 34.286512152214129 ], [ -114.163517015597733, 34.25336172156625 ] ], [ [ -114.590984463062512, 35.352777818341679 ], [ -114.64852617044636, 35.475922756829789 ], [ -114.662065396400862, 35.545350042870211 ], [ -114.645167202604284, 35.630538642044769 ] ], [ [ -114.741362881291877, 36.013512681664963 ], [ -114.715757209527567, 36.084981187731671 ], [ -114.66914506729097, 36.121723131117676 ], [ -114.592974006245356, 36.147561346878717 ], [ -114.505279099950485, 36.156423855376659 ], [ -114.406086188626659, 36.148310654812917 ], [ -114.331542934658671, 36.116297105726915 ], [ -114.281571824579999, 36.060331529476571 ], [ -114.232143317759892, 36.031702785754987 ], [ -114.183205736455534, 36.030307521774773 ], [ -114.119437018903284, 36.076661281592919 ], [ -114.061921149941099, 36.175208238669313 ], [ -114.004586148132205, 36.195051988258683 ], [ -113.949473232603566, 36.15975698479707 ], [ -113.759872403188808, 36.006639716349866 ], [ -113.635771450292168, 35.830914007875208 ] ], [ [ -110.367728033921594, 37.897919623391942 ], [ -110.398811407920107, 37.882597561628245 ], [ -110.421135627107446, 37.832161363556111 ], [ -110.430230678702799, 37.771803290689377 ], [ -110.469918178780915, 37.70152334212861 ], [ -110.540353156073252, 37.626179104282301 ], [ -110.654299689279185, 37.521275946727599 ], [ -110.692333543857956, 37.483242092148885 ], [ -110.697707892405276, 37.451822821366193 ], [ -110.722099169141302, 37.405520738391431 ], [ -110.780803595609427, 37.336067613029968 ], [ -110.915575731234981, 37.156647039928998 ], [ -111.018928596077785, 37.126881415544972 ], [ -111.300565151560477, 37.054069322341377 ], [ -111.430867276203799, 37.00347809463841 ], [ -111.473448656130529, 36.932138780680248 ] ], [ [ -105.820796271730501, 40.184601751969353 ], [ -105.861362270951986, 40.164680488014142 ] ] ] } },
{ "type": "Feature", "properties": { "scalerank": 4, "featurecla": "Lake Centerline", "name": "La Grande", "name_en": "La Grande", "min_zoom": 4.0 }, "geometry": { "type": "MultiLineString", "coordinates": [ [ [ -70.843241339815961, 53.427023423692106 ], [ -70.948428717311401, 53.439348252819684 ], [ -70.991397670865751, 53.468364569269511 ], [ -71.007210659044631, 53.518180650616614 ], [ -71.04054195864444, 53.555025946790067 ], [ -71.116842210899279, 53.590786038245142 ] ], [ [ -72.033762986672457, 53.597917385079313 ], [ -71.92570756685069, 53.571562405380746 ], [ -71.871421474521412, 53.583551337724089 ], [ -71.816541103888767, 53.645924791296125 ] ], [ [ -74.433332282159029, 53.684527085756429 ], [ -74.697114631235195, 53.631455390254132 ], [ -74.85198889796925, 53.628044745568616 ], [ -74.965315314450152, 53.647630113638911 ], [ -75.2387869943243, 53.655639960515828 ], [ -75.616851772491259, 53.674088447024246 ], [ -75.80206010618889, 53.66416657133027 ], [ -75.894664273037733, 53.710468655204352 ], [ -76.135528123723873, 53.698841458066909 ], [ -76.664178025695264, 53.668352362371706 ], [ -77.039839850428734, 53.677189032447927 ], [ -77.196393601983118, 53.698893134010973 ], [ -77.311063605600907, 53.731785183139721 ], [ -77.420281745406214, 53.797905178181509 ] ] ] } },
{ "type": "Feature", "properties": { "scalerank": 1, "featurecla": "Lake Centerline", "name": "Madison", "name_en": "Madison", "min_zoom": 2.0 }, "geometry": { "type": "LineString", "coordinates": [ [ -111.099673020893192, 44.756519070099046 ], [ -111.118328212976621, 44.761945095489807 ], [ -111.188995734265688, 44.771195176716105 ], [ -111.241912401036473, 44.799643052385022 ], [ -111.300668504347982, 44.862895005999803 ], [ -111.309143439218303, 44.868424384178013 ] ] } },
{ "type": "Feature", "properties": { "scalerank": 5, "featurecla": "Lake Centerline", "name": "Mississippi", "name_en": "Mississippi", "min_zoom": 4.7 }, "geometry": { "type": "MultiLineString", "coordinates": [ [ [ -94.326484951819054, 47.405633856717145 ], [ -94.201660529409878, 47.457310289138604 ], [ -94.143576219666784, 47.464079901666196 ], [ -94.09412187352558, 47.432789822092673 ] ], [ [ -94.506809861585793, 47.456405951573458 ], [ -94.637060309385731, 47.439998684191949 ] ] ] } },
{ "type": "Feature", "properties": { "scalerank": 1, "featurecla": "Lake Centerline", "name": "Missouri", "name_en": "Missouri", "min_zoom": 2.0 }, "geometry": { "type": "MultiLineString", "coordinates": [ [ [ -99.364885423923113, 43.99090688764278 ], [ -99.327600877278655, 43.893961900121667 ], [ -99.353387417095576, 43.817609971922707 ], [ -99.42981686055964, 43.729475816056095 ], [ -99.441909145690488, 43.674492092636001 ], [ -99.389690110909839, 43.652684638285507 ], [ -99.346617804567984, 43.599457913152207 ], [ -99.312718065086585, 43.514863593180337 ], [ -99.196084357606992, 43.414818020235487 ], [ -98.996716682129147, 43.299372870261834 ], [ -98.892020230149456, 43.224958807503015 ], [ -98.881995001667974, 43.191679185645967 ], [ -98.797633226592097, 43.14622976339291 ], [ -98.559663255754629, 43.059878445134188 ] ], [ [ -111.5157199776948, 46.362493394554576 ], [ -111.539982062322281, 46.469076036030287 ], [ -111.585379808631217, 46.543851833995006 ], [ -111.697310961131905, 46.661596584614756 ] ], [ [ -100.777228156654076, 46.713324692980223 ], [ -100.625454474444382, 46.608369859481456 ], [ -100.568507046263164, 46.513336900777404 ], [ -100.55584632035135, 46.393163357403068 ], [ -100.570935839017693, 46.287459215070783 ], [ -100.613749762941154, 46.196198635358769 ], [ -100.55662146670727, 46.041169338993825 ], [ -100.399525112793697, 45.822267971389806 ], [ -100.368596767526753, 45.705220851860872 ], [ -100.368622605948474, 45.673749905134059 ], [ -100.402057257436468, 45.642718207079668 ], [ -100.43311479391258, 45.612565009067964 ], [ -100.438256598463227, 45.561198635009077 ], [ -100.43311479391258, 45.53484365531051 ], [ -100.405674607696938, 45.504871324452097 ], [ -100.341931728566408, 45.448492337051789 ], [ -100.297205776725207, 45.31589061176237 ], [ -100.301546597397532, 45.133627834756794 ], [ -100.320821906205992, 45.053115953038855 ], [ -100.348003710003184, 45.036837876866571 ], [ -100.37508216011355, 45.033323879393549 ], [ -100.402496507907472, 44.992861232959569 ], [ -100.409782884372589, 44.918085435894227 ], [ -100.443811815063157, 44.85395498313602 ], [ -100.504583299979288, 44.800469875584326 ], [ -100.583286505667672, 44.783106594693663 ], [ -100.679921433927007, 44.801813462721157 ], [ -100.691264411123655, 44.794630439043601 ], [ -100.696587083726911, 44.776156114113405 ], [ -100.659380052347501, 44.734789130114336 ], [ -100.635376349239095, 44.679572862697512 ], [ -100.633257615746345, 44.619989936186641 ], [ -100.608556281547123, 44.578467922556626 ], [ -100.561220668898727, 44.555058498650851 ], [ -100.555691290720461, 44.52999542924573 ], [ -100.562150844885537, 44.504079698219527 ], [ -100.536364305068616, 44.476303616119026 ], [ -100.41787024651461, 44.449535224371175 ], [ -100.393711513775315, 44.434419867283111 ] ], [ [ -101.400110032551936, 47.505782782449501 ], [ -101.427860277130037, 47.551723131117683 ], [ -101.548757290016908, 47.555753892528173 ], [ -101.772051154237317, 47.533274644609207 ], [ -101.976276415224334, 47.547227281713731 ], [ -102.161381395235139, 47.597663478886489 ], [ -102.268790859910212, 47.668692735381512 ], [ -102.298504808350174, 47.760315049400049 ], [ -102.345375332105846, 47.799408271174855 ], [ -102.409376593654827, 47.78597239890712 ], [ -102.491025356934642, 47.794188951359047 ], [ -102.590347459467637, 47.82395457664245 ], [ -102.61990637917603, 47.880953680767789 ], [ -102.579702114261124, 47.96503123680219 ], [ -102.614480353785268, 48.037972520315634 ], [ -102.724189419106381, 48.099725857162639 ], [ -102.872759162205512, 48.137423814057854 ], [ -103.060215420605118, 48.151066392799862 ], [ -103.179381273626859, 48.136183579708472 ], [ -103.230256720371301, 48.092723700638317 ], [ -103.3084690014432, 48.059237372306939 ], [ -103.413992275722933, 48.035621242826153 ], [ -103.496235318205322, 48.053785508494457 ], [ -103.555198127091842, 48.113678494267162 ], [ -103.631317512193391, 48.114970404560552 ], [ -103.772316657088027, 48.027301337586721 ] ], [ [ -106.405644293948967, 48.020325018584799 ], [ -106.51940996000161, 47.88599213343025 ], [ -106.599870164876165, 47.821939195037885 ], [ -106.879336310921985, 47.707010809901021 ], [ -107.040463426246106, 47.693884995995802 ], [ -107.26158688013038, 47.705667222764191 ], [ -107.384628465830986, 47.693936672839243 ], [ -107.409588182448601, 47.658641669377573 ], [ -107.473227708791683, 47.644844061903996 ], [ -107.575469529595068, 47.652543850418397 ], [ -107.688692593288522, 47.608308824093001 ], [ -107.812819383707563, 47.512087306983688 ], [ -107.887698533560467, 47.502010403457405 ], [ -107.940201789181174, 47.581230373982635 ], [ -108.020403611637335, 47.597973538148324 ], [ -108.196336025687003, 47.60159088840885 ] ] ] } },
{ "type": "Feature", "properties": { "scalerank": 4, "featurecla": "Lake Centerline", "name": "Rio Grande", "name_en": "Grande", "min_zoom": 4.0 }, "geometry": { "type": "MultiLineString", "coordinates": [ [ [ -99.456507737941706, 27.056617539867602 ], [ -99.443536953667433, 27.036670437490727 ], [ -99.302460293507693, 26.884715888127801 ], [ -99.22993242024495, 26.76193268484559 ], [ -99.172080654498586, 26.564141140501306 ] ], [ [ -101.038969285703956, 29.460398464817331 ], [ -101.303526781135986, 29.634082953265704 ] ], [ [ -107.293445400484813, 32.910368760509925 ], [ -107.280810512994719, 33.114283962235106 ] ], [ [ -107.18141089519662, 33.173195095177562 ], [ -107.169990403634188, 33.355742092123876 ] ] ] } },
{ "type": "Feature", "properties": { "scalerank": 4, "featurecla": "Lake Centerline", "name": "Saskatchewan", "name_en": "Saskatchewan", "min_zoom": 4.0 }, "geometry": { "type": "MultiLineString", "coordinates": [ [ [ -99.229622361882434, 53.185100205809931 ], [ -98.415847744477787, 53.354056301756998 ], [ -98.082457241308589, 53.436376857705852 ], [ -97.913604499048347, 53.518645738610019 ] ], [ [ -100.322501390127002, 53.592543036531993 ], [ -100.163157111511453, 53.50324616158116 ], [ -100.065540330421868, 53.405060939710665 ], [ -99.976450161945365, 53.268170070592362 ], [ -99.852323371526325, 53.212307848028843 ], [ -99.693134121642345, 53.237474270221469 ], [ -99.542729864991259, 53.227371527374146 ], [ -99.330288052451635, 53.159417019679779 ] ], [ [ -103.421226976243929, 53.652048448677021 ], [ -103.579666917294389, 53.629000759077826 ], [ -103.697101610450943, 53.586186835154365 ], [ -103.890914069328801, 53.480766913662194 ] ], [ [ -102.437100999811264, 53.981589056689643 ], [ -102.380618659623394, 53.96637034771345 ] ] ] } },
{ "type": "Feature", "properties": { "scalerank": 4, "featurecla": "Lake Centerline", "name": "Snake", "name_en": "Snake", "min_zoom": 4.0 }, "geometry": { "type": "MultiLineString", "coordinates": [ [ [ -113.316281908283429, 42.653624172817388 ], [ -113.472215542213462, 42.675018215118598 ] ], [ [ -112.863673876148425, 42.813045965798722 ], [ -112.639527350306935, 43.023472398532419 ] ], [ [ -111.047867398161884, 43.206510321893916 ], [ -111.093394334780669, 43.233717963213508 ], [ -111.185946824786129, 43.338285223983974 ] ] ] } },
{ "type": "Feature", "properties": { "scalerank": 5, "featurecla": "Lake Centerline", "name": "Tennessee", "name_en": "Tennessee", "min_zoom": 4.7 }, "geometry": { "type": "MultiLineString", "coordinates": [ [ [ -86.898514574288129, 34.574763292392106 ], [ -87.24180111383032, 34.754080511806251 ], [ -87.399595099734029, 34.818624375714421 ], [ -87.48630815319865, 34.828184516202498 ], [ -87.572401089038976, 34.818081773355232 ], [ -87.700455288081059, 34.773381659036374 ] ], [ [ -87.975399746301207, 35.945248114708761 ], [ -88.003640916395113, 35.961526190881045 ], [ -87.991651984051771, 36.011290595384708 ], [ -87.948812221706646, 36.09996735271119 ], [ -87.959405890969038, 36.215774237890798 ], [ -88.02348466688386, 36.358711249124894 ], [ -88.055885789597482, 36.483561509955791 ], [ -88.056712612796787, 36.590325018584792 ], [ -88.113660040978061, 36.738171291272124 ], [ -88.283287929594223, 37.021513169996865 ] ] ] } },
{ "type": "Feature", "properties": { "scalerank": 3, "featurecla": "River", "name": "Allegheny", "name_en": "Allegheny", "min_zoom": 3.0 }, "geometry": { "type": "LineString", "coordinates": [ [ -77.860048183576794, 41.831865546058168 ], [ -77.998928595877942, 41.781119289623575 ], [ -78.083057827856408, 41.770732326835457 ], [ -78.196590949013057, 41.790266018062312 ], [ -78.330071173445845, 41.877754217882909 ], [ -78.36681311683185, 41.942246405847015 ], [ -78.351232672649701, 42.012836411870978 ], [ -78.419833136390082, 42.059241848532508 ], [ -78.572588670530706, 42.081436875611359 ], [ -78.67361609540643, 42.109600531339481 ], [ -78.722967088760072, 42.143732814817611 ], [ -78.796606004263651, 42.12750641548871 ], [ -78.894532843715751, 42.060947170875295 ], [ -78.954632534164091, 41.984776108930362 ], [ -78.976853400563925, 41.89899323145255 ], [ -79.058812222206257, 41.848789577377147 ], [ -79.200508999090971, 41.834165147603528 ], [ -79.307892625344323, 41.789180813343933 ], [ -79.380963100966312, 41.713836574598304 ], [ -79.417033250783845, 41.649912828314427 ], [ -79.415508795594405, 41.571157944883282 ], [ -79.45243160703302, 41.505890611462576 ], [ -79.513254767893159, 41.480104071645655 ], [ -79.610303107302514, 41.472120063190403 ], [ -79.699238247047447, 41.447134508151066 ], [ -79.78000851118378, 41.405224920893431 ], [ -79.810239223561268, 41.373547268591608 ], [ -79.789982062821878, 41.352204901335199 ], [ -79.797836880067905, 41.327606919923483 ], [ -79.833855353941374, 41.299856675345325 ], [ -79.816414557785549, 41.264199937577132 ], [ -79.745566169343192, 41.220688381663535 ], [ -79.681513230950827, 41.15469757783103 ], [ -79.624255744407037, 41.066330877967687 ], [ -79.603843553137438, 41.012122300903513 ], [ -79.620199144574826, 40.992123521683254 ], [ -79.587462124177648, 40.965923570716257 ], [ -79.522763231537851, 40.938535061344055 ], [ -79.514960090235945, 40.905617173793587 ], [ -79.542555304283837, 40.823761704938761 ], [ -79.698256395116516, 40.636796372954279 ], [ -79.829798753209843, 40.519413357540486 ], [ -79.946174079170362, 40.45608388955992 ], [ -79.990874192589899, 40.447712307477047 ] ] } },
{ "type": "Feature", "properties": { "scalerank": 4, "featurecla": "River", "name": "Arkansas", "name_en": "Arkansas", "min_zoom": 4.0 }, "geometry": { "type": "LineString", "coordinates": [ [ -91.077148403476031, 33.796697089599036 ], [ -91.122158576157346, 33.824499010121258 ], [ -91.149650438317053, 33.863902289359203 ], [ -91.167013719207716, 33.921934923158233 ], [ -91.21664893250221, 33.954516913025145 ], [ -91.298581915722821, 33.961648260758693 ], [ -91.322947354037126, 33.974128119517161 ], [ -91.330414598554853, 33.990922959626914 ], [ -91.34266191241727, 34.003816229535403 ], [ -91.386509366014366, 34.005418199090684 ], [ -91.418677944731314, 34.026243801510304 ], [ -91.439141811945035, 34.066293036794264 ], [ -91.487510952468426, 34.090994370993485 ], [ -91.563733690357481, 34.100296129063167 ], [ -91.682460292908161, 34.15310944304639 ], [ -91.843639085974985, 34.249485988887329 ], [ -91.920688646164081, 34.271138413606934 ], [ -91.938646206257374, 34.266849269778049 ], [ -91.973011033732178, 34.274859117554286 ], [ -92.016574266489158, 34.315941880713297 ], [ -92.108971726863672, 34.447510077228344 ], [ -92.155144619528528, 34.566365871887513 ], [ -92.155144619528528, 34.67250926379154 ], [ -92.225243700036685, 34.75635427492989 ], [ -92.365467698575401, 34.817900906201885 ], [ -92.446832241914422, 34.87699290629763 ], [ -92.469363165777452, 34.933630276116389 ], [ -92.506415168425235, 34.972439277051024 ], [ -92.558091599947318, 34.99341990820227 ], [ -92.576643439243298, 35.03463186257045 ], [ -92.562174038201249, 35.096075141054939 ], [ -92.594523484970807, 35.118812771392356 ], [ -92.713301764364871, 35.094860745127335 ], [ -92.831149868671446, 35.161419989740807 ], [ -92.930368618416992, 35.183950913603837 ], [ -93.050257941850475, 35.184674384015636 ], [ -93.192833217878672, 35.244464016101517 ], [ -93.358146125143548, 35.363319810760686 ], [ -93.521366136438019, 35.414996243182145 ], [ -93.682493252661459, 35.39944163652234 ], [ -93.796568976177298, 35.420732326935365 ], [ -93.863644985627559, 35.478816636678516 ], [ -93.957515225247391, 35.494216213707375 ], [ -94.078231370980973, 35.466853542756837 ], [ -94.139442104569412, 35.434064846415595 ], [ -94.141095750968077, 35.39582428626187 ], [ -94.162076382119324, 35.373319199921184 ], [ -94.202358161400014, 35.366549587393592 ], [ -94.267522142033215, 35.385333970686247 ], [ -94.357620001761632, 35.429620672955764 ], [ -94.429656948609249, 35.415125433491994 ], [ -94.483607144154348, 35.341822414772651 ], [ -94.529263271982359, 35.313658759044529 ], [ -94.566573656149274, 35.330711981572733 ], [ -94.601920335555008, 35.325130927450402 ], [ -94.63530331109888, 35.29691559487884 ], [ -94.666024949891494, 35.299706121940005 ], [ -94.694033575988726, 35.333450832689834 ], [ -94.79159868023487, 35.375308743104085 ], [ -94.95866858578654, 35.425228176339317 ], [ -95.074268765391196, 35.488299261901489 ], [ -95.138373378828362, 35.564521999790486 ], [ -95.190075649671485, 35.603486029456747 ], [ -95.229349738599524, 35.605191351799476 ], [ -95.244645961941558, 35.636920680944741 ], [ -95.23601599833961, 35.698674017791745 ], [ -95.25126054573758, 35.746500555955947 ], [ -95.290431280978794, 35.78045197228073 ], [ -95.388254767643389, 35.794792182113554 ], [ -95.544679327988547, 35.789572862297803 ], [ -95.629738735953879, 35.81616038689242 ], [ -95.643381313796567, 35.874554754997973 ], [ -95.721464402759921, 35.924939276226667 ], [ -95.864039679687437, 35.967313951477706 ], [ -95.958245816091505, 36.029041449903048 ], [ -96.004082811072863, 36.110147609924297 ], [ -96.084413825637512, 36.151617946710928 ], [ -96.19923885798687, 36.153478298684604 ], [ -96.259777798006951, 36.173916327476604 ], [ -96.266030646597017, 36.212957872407912 ], [ -96.31564002146979, 36.256081854693889 ], [ -96.408657599468597, 36.30331411365546 ], [ -96.477025519212305, 36.321943467317226 ], [ -96.520769619122575, 36.311969916578448 ], [ -96.541724412751421, 36.331942857377044 ], [ -96.539864061677065, 36.381862290612276 ], [ -96.577975429722244, 36.414935207793633 ], [ -96.656084357107375, 36.431264959910038 ], [ -96.710913051795842, 36.472580267965043 ], [ -96.742435676265416, 36.538906968581784 ], [ -96.766981980833691, 36.542240098901516 ], [ -96.806488613758461, 36.531801459269957 ], [ -96.865477261066701, 36.493612575959673 ], [ -96.920719366905246, 36.468937079282853 ], [ -96.959683397470769, 36.471934312818348 ], [ -96.985728318806821, 36.486455389804462 ], [ -96.998957485499545, 36.512500312039833 ], [ -96.978881191913445, 36.54169749564295 ], [ -96.943560350030111, 36.566502183528996 ], [ -96.940098029400474, 36.578646145503285 ], [ -96.957461310291194, 36.590790106578197 ], [ -97.000481940688985, 36.594769192044623 ], [ -97.040557013495345, 36.619057115093824 ], [ -97.052959357888028, 36.664480698925161 ], [ -96.993324754533774, 36.706390286182796 ], [ -96.861704881175285, 36.74481171348981 ], [ -96.835970018201749, 36.766050727059451 ], [ -96.837701178966199, 36.78168284808504 ], [ -96.877001105416639, 36.797444159420479 ], [ -96.913407152018408, 36.866096300004301 ], [ -96.932191535311063, 36.981076361984549 ], [ -96.985805834071925, 37.05841014211444 ], [ -97.074275885823454, 37.098045966248378 ], [ -97.134608120268524, 37.189332383482736 ], [ -97.166854214250577, 37.332191881250367 ], [ -97.236669073918563, 37.499184271536933 ], [ -97.344052700171915, 37.690232041775346 ], [ -97.694780646709432, 37.925385647129986 ], [ -98.288852911732477, 38.204645087600738 ], [ -98.633121304104861, 38.34598012927961 ], [ -98.727585822028004, 38.349339098021005 ], [ -98.853624640364842, 38.30820465711929 ], [ -99.011237759115261, 38.222525132428984 ], [ -99.217891811957543, 38.054783433308842 ], [ -99.473560960469911, 37.804876206971414 ], [ -99.697785000677186, 37.696872463093769 ], [ -99.986966315942709, 37.747722073215186 ], [ -100.776065436670535, 37.934997463562127 ], [ -101.127387661511307, 37.970990099013932 ], [ -101.303940192286007, 37.918150946608932 ], [ -101.626607835882908, 37.949776922966691 ], [ -102.095390591402634, 38.065868028087095 ], [ -102.558876512740824, 38.118087062867687 ], [ -103.017065598998158, 38.106459865730244 ], [ -103.319941168949754, 38.080983385175159 ], [ -103.46747738327457, 38.041786810612848 ], [ -103.593877936817307, 38.04762624805295 ], [ -103.699142829577909, 38.098553371640833 ], [ -103.832597215588976, 38.136483873432041 ], [ -104.075063035830397, 38.173975124752246 ], [ -104.237223680828151, 38.238028062245348 ], [ -104.410598110914066, 38.259835516595842 ], [ -104.64923987531995, 38.260739854160988 ], [ -104.825844082038714, 38.297921047118678 ], [ -104.940359056025557, 38.371482449155735 ], [ -105.092778693381945, 38.42520009980484 ], [ -105.283077155686158, 38.459099840185502 ], [ -105.470197516402209, 38.450624905315181 ], [ -105.65411393890713, 38.399723619249698 ], [ -105.832242601714654, 38.425096747017335 ], [ -106.004557664604476, 38.52674428951741 ], [ -106.089358690151414, 38.610615139077481 ], [ -106.086568163090192, 38.676760972540876 ], [ -106.135350714763661, 38.801817938946783 ], [ -106.285806647358868, 39.077718410676141 ], [ -106.380762091697136, 39.222360745152343 ] ] } },
{ "type": "Feature", "properties": { "scalerank": 5, "featurecla": "River", "name": "Athabasca", "name_en": "Athabasca", "min_zoom": 4.7 }, "geometry": { "type": "MultiLineString", "coordinates": [ [ [ -115.0, 54.290623269790764 ], [ -114.858745897605047, 54.331360988818631 ], [ -114.68904049372378, 54.340404364469919 ], [ -114.535768195645687, 54.390375474548591 ], [ -114.398929002471448, 54.481325995898032 ], [ -114.332188890704685, 54.565093492670599 ], [ -114.335599535390202, 54.641755479232017 ], [ -114.265293748407714, 54.803580227445593 ], [ -114.150813698515108, 55.0 ] ], [ [ -113.457479288119274, 55.0 ], [ -113.412555101336807, 54.901171169214138 ], [ -113.440046963496513, 54.821951198688907 ], [ -113.410462206265777, 54.770817369526014 ], [ -113.323749152801099, 54.747769680826138 ], [ -113.258533495324514, 54.772936103018822 ], [ -113.214815232936644, 54.84631663700327 ], [ -113.077407599880814, 54.9089484729937 ], [ -112.846413947145891, 54.960909125355897 ], [ -112.734809627480459, 55.0 ] ] ] } },
{ "type": "Feature", "properties": { "scalerank": 5, "featurecla": "River", "name": "Colorado", "name_en": "Colorado", "min_zoom": 4.7 }, "geometry": { "type": "MultiLineString", "coordinates": [ [ [ -114.720950690921597, 32.724488634143199 ], [ -114.788000861050875, 32.564808457844094 ], [ -114.839315559165698, 32.504321193768135 ], [ -114.897296516121287, 32.489825954304422 ], [ -114.959075690490693, 32.419830227483089 ], [ -115.0, 32.341465900925058 ] ], [ [ -115.0, 31.936574646003219 ], [ -114.981089850416254, 31.917664496419434 ], [ -114.933599209036231, 31.900740465100455 ] ], [ [ -114.163517015597733, 34.25336172156625 ], [ -114.329320848378416, 34.142024848268193 ], [ -114.418281826545012, 34.051151842183799 ], [ -114.509051479841901, 33.903925686221498 ], [ -114.495098843636697, 33.784656480412309 ], [ -114.499258796256413, 33.685876980238504 ], [ -114.521557176122769, 33.607613023222484 ], [ -114.555999518862677, 33.535627753218307 ], [ -114.602611660199898, 33.469895330904876 ], [ -114.651161668775956, 33.4306212428761 ], [ -114.701701219635538, 33.417805487333453 ], [ -114.719426235732158, 33.330859889872045 ], [ -114.704388393909198, 33.169784450492045 ], [ -114.648086920874675, 33.071754259151817 ], [ -114.550547655050195, 33.036795152474383 ], [ -114.490861375751876, 32.983620103285205 ], [ -114.469002244557885, 32.912306626849386 ], [ -114.477528856271647, 32.842000840766218 ], [ -114.516467048415507, 32.772754421879142 ], [ -114.582173631407954, 32.734720567300371 ], [ -114.720899014078213, 32.724488634143199 ] ], [ [ -114.590984463062512, 35.352777818341679 ], [ -114.610518155188686, 34.99760569924365 ], [ -114.610931566338706, 34.907404486727728 ], [ -114.557472297208733, 34.794568996661894 ], [ -114.397998827383958, 34.589697780528184 ], [ -114.378878547307067, 34.540631008014657 ] ], [ [ -114.741362881291877, 36.013512681664963 ], [ -114.732319505640646, 35.983669542015775 ], [ -114.68710262738432, 35.917342841399091 ], [ -114.683691982698804, 35.813602402928609 ], [ -114.677077399802101, 35.729809068633642 ], [ -114.650128140001641, 35.683506984759617 ], [ -114.645167202604284, 35.630538642044769 ] ], [ [ -112.876386278004304, 36.280421454586531 ], [ -113.206288622122202, 36.124203599816326 ], [ -113.295585497072977, 36.047696641986477 ], [ -113.324834357519535, 35.994702459950645 ], [ -113.323129035176805, 35.835358181335039 ], [ -113.355555996312148, 35.764044704899277 ], [ -113.422011888138115, 35.762416896922332 ], [ -113.579237434160234, 35.801329250644471 ], [ -113.635693935926383, 35.830836493509423 ] ], [ [ -111.473448656130529, 36.932138780680248 ], [ -111.590831671544379, 36.849534002991902 ], [ -111.682764044824751, 36.747705593338537 ], [ -111.788390672791309, 36.59913585023935 ], [ -111.851952684768548, 36.487954006572181 ], [ -111.873553432644769, 36.414160061437713 ], [ -111.864820116255316, 36.320005601877085 ], [ -111.825752732902288, 36.205593980677691 ], [ -111.834434374246939, 36.125857245315672 ], [ -111.890761684803863, 36.080795396690235 ], [ -111.995018887211813, 36.072837225757439 ], [ -112.147154303728087, 36.101982733416492 ], [ -112.256165737958383, 36.151437079557638 ], [ -112.322104864947505, 36.221148586438176 ], [ -112.37659766285185, 36.246108303055792 ], [ -112.419695807615369, 36.226264553466422 ], [ -112.459305793327644, 36.228745022165072 ], [ -112.495375943145234, 36.253601385995239 ], [ -112.499199998980714, 36.288121243100932 ], [ -112.470777960834198, 36.332356268527008 ], [ -112.467418992992123, 36.365945949645891 ], [ -112.489174770499233, 36.388786932770756 ], [ -112.532582973625324, 36.40064667390493 ], [ -112.597695278314404, 36.401525173048356 ], [ -112.693038296280292, 36.371578680611663 ], [ -112.881373053823324, 36.280421454586531 ] ], [ [ -105.861362270951986, 40.164680488014142 ], [ -105.985230678952632, 40.127421779791348 ], [ -106.125790575174847, 40.092695217110645 ], [ -106.284643927375328, 40.090989894767858 ], [ -106.401122606123351, 40.062102769527257 ], [ -106.482099575834695, 40.018513699247876 ], [ -106.594805874691303, 39.922653917344462 ], [ -106.638369106549021, 39.894076849567 ], [ -106.676196255552725, 39.889891058525563 ], [ -106.726322394362967, 39.920250963011597 ], [ -106.793140021394834, 39.924436754053033 ], [ -106.876649135749005, 39.902474270071536 ], [ -106.969408332228738, 39.828111884156158 ], [ -107.071365933091329, 39.701375433829242 ], [ -107.132034064320578, 39.643730373657888 ], [ -107.23538692916344, 39.602389228080483 ], [ -107.540794643757749, 39.578902289808866 ], [ -107.733728603492239, 39.579186509749661 ], [ -107.846719123188961, 39.556758937774816 ], [ -107.944077521860095, 39.511697089149379 ], [ -108.10608313722696, 39.41017873785853 ], [ -108.24232805029925, 39.31455149995179 ], [ -108.314029100362632, 39.178306585980238 ], [ -108.433556688590272, 39.099422512239187 ], [ -108.557864346162603, 39.08986237265043 ], [ -108.801105312759944, 39.183965155367673 ], [ -108.866863572595776, 39.200501613958352 ], [ -108.952026333348556, 39.198382880465601 ], [ -109.050624966369071, 39.141022040235043 ], [ -109.195577359207732, 39.032889106047435 ], [ -109.26472042530736, 38.935143133748682 ], [ -109.306319953303159, 38.811843166528945 ], [ -109.362853970334413, 38.734173488715612 ], [ -109.434270799557737, 38.702211615573674 ], [ -109.498737149100123, 38.65120697672063 ], [ -109.556278856484028, 38.581185411477634 ], [ -109.595656297300252, 38.553771063683712 ], [ -109.614156460652111, 38.561419175354729 ], [ -109.634516975078327, 38.546174627956759 ], [ -109.648469611283474, 38.485351467096564 ], [ -109.67038041842153, 38.452846991595436 ], [ -109.700146043704933, 38.448661200554 ], [ -109.722987026829799, 38.414296373079196 ], [ -109.738903367796127, 38.349752509171026 ], [ -109.784533658101793, 38.279369208722073 ], [ -109.897446662533412, 38.165164293097689 ], [ -110.130920783067666, 37.961765855310034 ], [ -110.248458828112405, 37.894948228278167 ], [ -110.367573005190025, 37.897919623391942 ] ], [ [ -105.845575121194827, 40.404097398776003 ], [ -105.816403775114111, 40.215297553239566 ], [ -105.820641242099612, 40.184911811231132 ] ] ] } },
{ "type": "Feature", "properties": { "scalerank": 5, "featurecla": "River", "name": "Holston", "name_en": "Holston", "min_zoom": 4.7 }, "geometry": { "type": "LineString", "coordinates": [ [ -81.419624192702315, 37.009136664025903 ], [ -81.694956224550083, 36.932293809411817 ], [ -81.875462002369488, 36.852531236527398 ], [ -82.135704515550913, 36.762278347168035 ], [ -82.589087694041837, 36.610013739442593 ], [ -82.665413784718339, 36.522473863677931 ], [ -82.935888231056992, 36.40124095310756 ], [ -83.025521002792004, 36.369847520746532 ], [ -83.193443569964757, 36.323674628081676 ], [ -83.386532559330135, 36.25649526584391 ], [ -83.453686082246861, 36.19983205850275 ], [ -83.747156541341269, 36.076170356077114 ], [ -83.899705369906883, 35.978321030990855 ], [ -83.974351976662376, 35.914603990281989 ], [ -83.969494391153205, 35.870136419959863 ] ] } },
{ "type": "Feature", "properties": { "scalerank": 4, "featurecla": "River", "name": "La Grande", "name_en": "La Grande", "min_zoom": 4.0 }, "geometry": { "type": "MultiLineString", "coordinates": [ [ [ -70.479981858575854, 53.40645620369088 ], [ -70.420063036180125, 53.408264878821171 ], [ -70.387403530148731, 53.434878241837453 ], [ -70.36197872553771, 53.48686473262137 ], [ -70.473108893260758, 53.491567287600276 ], [ -70.844610765374455, 53.427540188528951 ] ], [ [ -71.116816372477558, 53.590786038245142 ], [ -71.277271694233264, 53.664037381020364 ], [ -71.452144741086897, 53.677860826016342 ], [ -71.816334398313813, 53.64602814408363 ] ], [ [ -72.036062588217817, 53.598227444341148 ], [ -72.094456956323427, 53.602413235382585 ], [ -72.102079230472043, 53.616004136381832 ], [ -72.078411424147873, 53.640395413117858 ], [ -72.081925421620895, 53.654658107685577 ], [ -72.112672898835172, 53.658843898727014 ], [ -72.279510260390168, 53.620990912200909 ], [ -72.34950598811082, 53.630111803117302 ], [ -72.388573371463906, 53.674966946167672 ], [ -72.502623257457344, 53.691193345496572 ], [ -72.69175899887864, 53.678739325159768 ], [ -72.7268472967653, 53.70385407140833 ], [ -72.852317674321171, 53.76496145310864 ], [ -73.142945929510972, 53.86629893634688 ], [ -73.327895880790209, 53.915934149641373 ], [ -73.407219204102944, 53.913944607357791 ], [ -73.535945197612762, 53.877073472762618 ], [ -73.714099697942686, 53.805398261120899 ], [ -73.962146572306438, 53.748140774577166 ], [ -74.439068365912306, 53.683906969031455 ] ], [ [ -77.419661627781863, 53.797801825394004 ], [ -77.62561804863401, 53.820074367737959 ], [ -77.825502488948644, 53.806483465839335 ], [ -78.088018765253764, 53.764496365115235 ], [ -78.389834968009325, 53.761938381151424 ], [ -78.901483324295953, 53.817335516620858 ], [ -78.923730028218188, 53.823433335580035 ], [ -78.945692511300308, 53.831598212087897 ] ] ] } },
{ "type": "Feature", "properties": { "scalerank": 1, "featurecla": "River", "name": "Madison", "name_en": "Madison", "min_zoom": 2.0 }, "geometry": { "type": "MultiLineString", "coordinates": [ [ [ -110.743699917017523, 44.726727606393979 ], [ -110.858731655841211, 44.668204047079143 ], [ -110.932577277819064, 44.652985338102951 ], [ -111.003632371836432, 44.661615301704842 ], [ -111.053991055542724, 44.689262193495495 ], [ -111.09075883645113, 44.747088120820194 ], [ -111.099673020893192, 44.756519070099046 ] ], [ [ -111.309246792005808, 44.868476060122134 ], [ -111.329219733703724, 44.867235825772809 ], [ -111.406450161945372, 44.842844549936103 ], [ -111.476781785550941, 44.852353013580739 ], [ -111.553340420224174, 44.891575425665394 ], [ -111.625584072646802, 44.98790029556227 ], [ -111.693512742818768, 45.141275946427811 ], [ -111.718575812223946, 45.263439032985048 ], [ -111.700721604918101, 45.354492906222674 ], [ -111.645634528710502, 45.457742418278031 ], [ -111.553262905858389, 45.573239244195804 ], [ -111.492698127416588, 45.721808987294992 ], [ -111.463966030907557, 45.903503322620281 ], [ -111.429627041854474, 46.024581203559762 ], [ -111.389732835302084, 46.084990953269937 ], [ -111.406295132314483, 46.176509914501025 ], [ -111.515849168903969, 46.360374661061826 ] ] ] } },
{ "type": "Feature", "properties": { "scalerank": 1, "featurecla": "River", "name": "Mississippi", "name_en": "Mississippi", "min_zoom": 2.0 }, "geometry": { "type": "MultiLineString", "coordinates": [ [ [ -89.37614112031639, 28.981332099296992 ], [ -89.257130296925652, 29.15491323495786 ], [ -89.01574968140261, 29.202868964331287 ] ], [ [ -89.260954352761132, 29.155145778954591 ], [ -89.288601243652408, 29.177521674086051 ] ], [ [ -89.288601243652408, 29.177521674086051 ], [ -89.180778367827372, 29.33570323361738 ] ], [ [ -89.288601243652408, 29.177521674086051 ], [ -89.433062710075944, 29.294387925562376 ], [ -89.519052294028086, 29.347304592333103 ], [ -89.615583869499915, 29.386992092411163 ], [ -89.665968390728608, 29.415594997711025 ], [ -89.66968909377664, 29.443500271020753 ], [ -89.713639899261921, 29.485642401375799 ], [ -89.758004116796542, 29.505537827808553 ], [ -89.869315151672879, 29.608193060661279 ], [ -89.972874722090694, 29.688808295166723 ], [ -90.006981167147103, 29.75389476143414 ], [ -90.01158037023788, 29.810893866458798 ], [ -89.986724005508393, 29.859779771819092 ], [ -89.958095262686186, 29.875644435942036 ], [ -89.931946987663309, 29.877659816647281 ], [ -89.922696906437068, 29.888279323432073 ], [ -89.922541876806122, 29.902929592526732 ], [ -89.932515428444219, 29.91385915767404 ], [ -90.041449347409412, 29.932023423342343 ], [ -90.249602017019413, 29.942772121336361 ], [ -90.390420294760759, 29.976000067249345 ], [ -90.463955858376153, 30.031655585137173 ], [ -90.581829800205071, 30.047520250159494 ], [ -90.744093797990331, 30.023490708629367 ], [ -90.849229498642387, 30.040337225582562 ], [ -90.87824581599159, 30.075218817894154 ], [ -90.897211066437535, 30.098059801019076 ], [ -90.944159105458311, 30.126714382263003 ], [ -90.990047777283053, 30.126378485478767 ], [ -91.021131151281566, 30.147100735110882 ], [ -91.037719285816365, 30.181284694533076 ], [ -91.074461229202313, 30.203583075298752 ], [ -91.109885423873152, 30.208828233536224 ], [ -91.133475714932274, 30.227199204779538 ], [ -91.129522467887568, 30.248179836830047 ], [ -91.147893439130883, 30.267816880844407 ], [ -91.179390225178736, 30.284895941794332 ], [ -91.191198289469469, 30.307194322560008 ], [ -91.187245042424706, 30.328174953711198 ], [ -91.195125698991774, 30.351791083191983 ], [ -91.225614793787656, 30.368430894570167 ], [ -91.235278286163918, 30.402485663682512 ], [ -91.217915005273255, 30.479457709505766 ], [ -91.226441616987017, 30.504856675695066 ], [ -91.25806759334472, 30.534079698619223 ], [ -91.257034064570405, 30.565214748561857 ], [ -91.27602515343807, 30.614565741915499 ], [ -91.338321092644264, 30.706188055934092 ], [ -91.387672085098586, 30.743808498463466 ], [ -91.42265703019774, 30.753342800529879 ], [ -91.529084642042562, 30.755978298859475 ], [ -91.557067430617394, 30.780033677911945 ], [ -91.546602952564172, 30.814734402170984 ], [ -91.523271043923501, 30.853775946203029 ], [ -91.526371629347182, 30.871035875205507 ], [ -91.545595262211521, 30.908346259372422 ], [ -91.618355679470994, 30.938111883756505 ], [ -91.646286790303066, 30.952426256066929 ], [ -91.6596968250484, 30.972011623237847 ], [ -91.65721635634975, 30.995989487924589 ], [ -91.652617153258973, 31.029553330621752 ], [ -91.611043463684837, 31.064900010926806 ], [ -91.596367357067834, 31.109910183608122 ], [ -91.630809698908422, 31.217603868223989 ], [ -91.618252325784169, 31.276954250738129 ], [ -91.558695237695019, 31.287909654307157 ], [ -91.528955450833337, 31.345192979272611 ], [ -91.529007127676778, 31.448752549690482 ], [ -91.505726894980171, 31.518696600567694 ], [ -91.45908891432191, 31.554973455960294 ], [ -91.414698859264888, 31.639981187082185 ], [ -91.372530890488179, 31.773719793933367 ], [ -91.286489630591916, 31.883971462513045 ], [ -91.15652340363215, 31.970684515977666 ], [ -91.092547980504833, 32.045847886670686 ], [ -91.088698086247632, 32.10413890198879 ], [ -91.074590420411539, 32.131320705785981 ], [ -91.048157925447867, 32.145919298037199 ], [ -91.004594692690887, 32.185580959693596 ], [ -90.947724778875397, 32.240073757597884 ], [ -90.937647874449794, 32.277332464921358 ], [ -90.94043840241028, 32.303093166316614 ], [ -90.944701707817501, 32.330714219685547 ], [ -90.990021938861332, 32.381047064970119 ], [ -91.059268357748465, 32.423757636106075 ], [ -91.103813442436376, 32.490497748772157 ], [ -91.1008162098002, 32.541373195516599 ], [ -91.116112434041554, 32.586228339466345 ], [ -91.149650438317053, 32.625011501979259 ], [ -91.142415737796, 32.661029974953408 ], [ -91.094356655635124, 32.694257920866391 ], [ -91.092082892511428, 32.72585805880243 ], [ -91.135594448425024, 32.755778713716722 ], [ -91.136059536418429, 32.808850409219076 ], [ -91.093374803704194, 32.885021470264689 ], [ -91.096087816399574, 32.937679755516342 ], [ -91.144172736082851, 32.966876939119516 ], [ -91.152854377427559, 33.040567531466479 ], [ -91.106784837550151, 33.217921047918082 ], [ -91.117300991547495, 33.240813706987012 ], [ -91.163344693003125, 33.294453843270276 ], [ -91.168460659132052, 33.359462795171908 ], [ -91.141020473815786, 33.438501898543848 ], [ -91.154327154874238, 33.500203558547469 ], [ -91.192955288655583, 33.522527777734808 ], [ -91.202722133819407, 33.546970730414955 ], [ -91.214581874953524, 33.583402614539068 ], [ -91.172723965438593, 33.616682237295493 ], [ -91.170372687949168, 33.64745555293149 ], [ -91.207476365641696, 33.675670884603676 ], [ -91.184118618579362, 33.715668443044251 ], [ -91.100299444963355, 33.767448228253159 ], [ -91.077148403476031, 33.796697089599036 ], [ -91.052705450795884, 33.827599595544939 ], [ -91.03818437380977, 33.901393540679408 ], [ -91.050069953365607, 33.945163479011399 ], [ -91.070172085373429, 33.974205633882946 ], [ -91.06035356336622, 33.989295152549289 ], [ -91.043145311207127, 34.002860216026193 ], [ -90.943099738262276, 34.029680283718164 ], [ -90.914729376959144, 34.048619696641765 ], [ -90.908786587630857, 34.071564032554136 ], [ -90.94025753435767, 34.128563137578794 ], [ -90.909716762718404, 34.188766180814639 ], [ -90.817215949556385, 34.25222484000443 ], [ -90.768123338621137, 34.308112900989613 ], [ -90.762335578024476, 34.35643036556894 ], [ -90.718100551699081, 34.391699530608889 ], [ -90.63541826054427, 34.41386872016534 ], [ -90.584000210541262, 34.503708197475362 ], [ -90.563846401690057, 34.661166286594892 ], [ -90.539248420278341, 34.728164780780048 ], [ -90.4972096427108, 34.738086656474081 ], [ -90.474756232314235, 34.760049139556202 ], [ -90.467573208636622, 34.805266017812528 ], [ -90.415948452159284, 34.851619777630674 ], [ -90.319933641524301, 34.899162095854081 ], [ -90.282106492520597, 34.945309150097273 ], [ -90.293423631295525, 34.970062161139879 ], [ -90.293759528079704, 35.004478664558746 ], [ -90.255958218397041, 35.046388250917119 ], [ -90.142270066710182, 35.114291083566684 ], [ -90.09291907425586, 35.203587958517517 ], [ -90.107879401712978, 35.314201361403775 ], [ -90.066021491298727, 35.4141177431394 ], [ -89.967345343912427, 35.503311265302727 ], [ -89.926520962272548, 35.591652126744293 ], [ -89.943496670434968, 35.679140326564891 ], [ -89.89455908913061, 35.750505479844094 ], [ -89.779656541516147, 35.805747585682582 ], [ -89.763585170918873, 35.828045966448258 ], [ -89.768106858744488, 35.845254217708032 ], [ -89.769941372296444, 35.864296983419081 ], [ -89.768933681943849, 35.872100124721044 ], [ -89.763585170918873, 35.888765773621628 ], [ -89.738212043151236, 35.898739325259726 ], [ -89.703769701310648, 35.906904201767532 ], [ -89.688912726640979, 35.92096019165956 ], [ -89.689171109059373, 35.943594468310096 ], [ -89.709324917011259, 35.983049424391481 ], [ -89.697697719873815, 36.030307521774773 ], [ -89.641887173254418, 36.104514878958526 ], [ -89.634135708795895, 36.167921861304933 ], [ -89.674546678386434, 36.220580145657266 ], [ -89.654082811172771, 36.247968655029467 ], [ -89.627986212993278, 36.255255031494585 ], [ -89.594629075871126, 36.259440822535964 ], [ -89.583544481092872, 36.272230739656948 ], [ -89.583544481092872, 36.287656155107527 ], [ -89.611708136820994, 36.321969305738946 ], [ -89.604085862672378, 36.351915798175582 ], [ -89.555277472577245, 36.372922268647812 ], [ -89.540601365960242, 36.426665757718581 ], [ -89.560031704399591, 36.513094591242464 ], [ -89.555484178152255, 36.54076732055546 ], [ -89.549644741611473, 36.553066311261318 ], [ -89.535588751719501, 36.555288397541574 ], [ -89.519517381122228, 36.554823309548169 ], [ -89.496831427628251, 36.528830064156182 ], [ -89.485385097644098, 36.498134263785289 ], [ -89.471484137383015, 36.488884182559048 ], [ -89.451821254946935, 36.497514146160995 ], [ -89.397457648251816, 36.587792873942021 ], [ -89.35131059400868, 36.611202297847797 ], [ -89.330536668432444, 36.615904852826759 ], [ -89.280126308782087, 36.600040187804495 ], [ -89.256122606573001, 36.594407456838724 ], [ -89.203050910171328, 36.625516669258957 ], [ -89.156335415147282, 36.715717881774879 ], [ -89.12951534745531, 36.811060899740767 ], [ -89.122487352509268, 36.911597398201422 ], [ -89.15432003444198, 36.992109279919362 ], [ -89.224910041365263, 37.052674058361163 ], [ -89.272400682745285, 37.079985053367579 ], [ -89.281469895918917, 37.077788804609725 ], [ -89.291675991553745, 37.070657456876177 ], [ -89.295810105751741, 37.051640529586848 ], [ -89.29325212268725, 37.03817881889745 ], [ -89.285888230957028, 37.022701727502749 ], [ -89.2900223460544, 37.012779852708093 ], [ -89.300822719992482, 37.012056383195556 ], [ -89.35187903478959, 37.035517483045453 ], [ -89.413942429999111, 37.102412624443105 ], [ -89.486909552833538, 37.212741807388568 ], [ -89.502929246587428, 37.300514228049224 ], [ -89.461975673738323, 37.365678208682425 ], [ -89.461975673738323, 37.434123643691237 ], [ -89.502929246587428, 37.505798855332955 ], [ -89.523418952222812, 37.575949611785234 ], [ -89.523418952222812, 37.644524238003214 ], [ -89.623283658014373, 37.747256985221725 ], [ -89.822961391854733, 37.884096177496644 ], [ -89.969825812611134, 37.968535467837626 ], [ -90.063876919384313, 38.000523179401284 ], [ -90.173585984705369, 38.069046128775881 ], [ -90.299004686317176, 38.174000963173967 ], [ -90.365770636505658, 38.254254462473511 ], [ -90.373987189856905, 38.309754950730451 ], [ -90.31660051120457, 38.457807928992793 ], [ -90.150745001580503, 38.780527248533758 ], [ -90.132193163183899, 38.818638617478257 ], [ -90.126767137793138, 38.832617092105181 ], [ -90.134208543889144, 38.84667308199721 ], [ -90.149918179280519, 38.859902248689878 ], [ -90.220068935732741, 38.897677720850197 ], [ -90.354350144943226, 38.930208034773045 ], [ -90.477960171424741, 38.948113918922274 ], [ -90.577075568382725, 38.909614976350156 ], [ -90.663530239428951, 38.987491359738499 ], [ -90.737220831775915, 39.181794745031539 ], [ -90.919380255993985, 39.386898505161923 ], [ -91.209905158396282, 39.602802639230447 ], [ -91.37873206223486, 39.749408677568454 ], [ -91.425860968408927, 39.826819972963449 ], [ -91.466814541258032, 39.942859402139732 ], [ -91.50164445672624, 40.097526964198096 ], [ -91.499784104752621, 40.226020412811863 ], [ -91.441958177427921, 40.379447740520845 ], [ -91.390772671421587, 40.397121079774081 ], [ -91.380540737365095, 40.447557277846158 ], [ -91.394183316107103, 40.536647447221981 ], [ -91.339044562156801, 40.603981838191316 ], [ -91.21512447821209, 40.649560451653599 ], [ -91.10213395851531, 40.749786892651002 ], [ -91.000124681708655, 40.904686997806778 ], [ -90.954003465887183, 41.015584621533094 ], [ -90.963821987894391, 41.082531439774186 ], [ -91.00133907763626, 41.145964260542257 ], [ -91.066503058269461, 41.205908922259027 ], [ -91.08210934087333, 41.28032298411847 ], [ -91.048106248604427, 41.369103095131777 ], [ -90.938758917589951, 41.425585435319647 ], [ -90.754067348729109, 41.449821682424783 ], [ -90.586739061658307, 41.494728502318594 ], [ -90.4366707017914, 41.5603575709452 ], [ -90.347528856471513, 41.632032782586919 ], [ -90.319236009534166, 41.709650783556867 ], [ -90.276008673561421, 41.770008856423658 ], [ -90.2177693350867, 41.813107001187234 ], [ -90.176609056662585, 41.883645331267076 ], [ -90.15245032392329, 41.981520493875735 ], [ -90.149427252865394, 42.053712470354299 ], [ -90.167514004167913, 42.100298774169119 ], [ -90.23322058805968, 42.154016424818224 ], [ -90.346572842062983, 42.214839585678362 ], [ -90.410496589246179, 42.272071234699752 ], [ -90.425043504653956, 42.325659695038951 ], [ -90.484729783952332, 42.38325307836692 ], [ -90.589632941507034, 42.444799709638914 ], [ -90.657329067682269, 42.52050568269118 ], [ -90.687869839321593, 42.610319322478801 ], [ -90.788742235465747, 42.676930243935658 ], [ -90.959946255215471, 42.720338447061749 ], [ -91.069577806170798, 42.788551337174511 ], [ -91.11758521238761, 42.881646430438479 ], [ -91.148151821549277, 42.986213691208945 ], [ -91.16132931229788, 43.10233063385175 ], [ -91.147583380768367, 43.199585679735378 ], [ -91.106965704703498, 43.278030503904688 ], [ -91.11719763875999, 43.331153876250426 ], [ -91.178356696404364, 43.358929958350927 ], [ -91.218690151629175, 43.395284329008632 ], [ -91.238275519699414, 43.440242824846564 ], [ -91.278428107770935, 43.797430324649838 ], [ -91.31992428297923, 43.936284898529323 ], [ -91.382685309279566, 43.990803534855274 ], [ -91.514847784997244, 44.054210517201682 ], [ -91.716437547654664, 44.12645416962431 ], [ -91.840977749223725, 44.194150295799545 ], [ -91.912291225659487, 44.288873196141139 ], [ -92.055124885005398, 44.399822495811577 ], [ -92.148581712575947, 44.445246079642914 ], [ -92.240307380281365, 44.462144273439549 ], [ -92.313093635063183, 44.497801012107061 ], [ -92.366940476921457, 44.552267971589686 ], [ -92.44158708367695, 44.586581122221048 ], [ -92.537033454430343, 44.600792140844703 ], [ -92.64353858064095, 44.645337225532558 ], [ -92.819884405840639, 44.757785142870091 ], [ -92.962563035555604, 44.79018626558377 ], [ -93.030207485786775, 44.838141994957141 ], [ -93.070411749802361, 44.912401028085014 ], [ -93.118755052803408, 44.937464097490135 ], [ -93.175237392991278, 44.913227851284375 ], [ -93.232494879535011, 44.963043931732102 ], [ -93.290527513334041, 45.086912339732748 ], [ -93.348999396704755, 45.166649075094767 ], [ -93.40785885280377, 45.202357489706458 ], [ -93.935862799628467, 45.388651028122524 ], [ -94.062986823583003, 45.439190578982107 ], [ -94.133292609666171, 45.496344712738335 ], [ -94.189206509073074, 45.577037461609621 ], [ -94.211995815354555, 45.632124538716539 ], [ -94.201712205353942, 45.661631781581491 ], [ -94.237782355171532, 45.713824977940419 ], [ -94.320154588863147, 45.788729967114364 ], [ -94.37053911009184, 45.852808743029129 ], [ -94.38883256696937, 45.906061306584093 ], [ -94.386403775114104, 45.972077948838319 ], [ -94.363149379939898, 46.050832831370144 ], [ -94.365784878269494, 46.124885158923007 ], [ -94.394232753938411, 46.194286607441029 ], [ -94.333461269921656, 46.284461981535287 ], [ -94.183444586898133, 46.39551463489255 ], [ -94.091383022408536, 46.481736761942045 ], [ -94.057224901408063, 46.543180040426591 ], [ -93.959478929109252, 46.568785712190902 ], [ -93.798093431366738, 46.55855377903373 ], [ -93.691795009831822, 46.586019802771716 ], [ -93.640609503825488, 46.651183783404917 ], [ -93.572034878506827, 46.697563381644784 ], [ -93.486045294554685, 46.725210272536117 ], [ -93.403673061762333, 46.807427476596843 ], [ -93.32481482644306, 46.944318345715146 ], [ -93.309156866995806, 47.02317658103442 ], [ -93.356595832431708, 47.044053860297481 ], [ -93.401864386632099, 47.089735826547212 ], [ -93.444936692973954, 47.160119126996165 ], [ -93.508550380895315, 47.211278794580778 ], [ -93.592757127239622, 47.243163153356875 ], [ -93.676111212862168, 47.248899238009471 ], [ -93.758690152128793, 47.228435370795751 ], [ -93.798248460997627, 47.242232978269385 ], [ -93.794837816312111, 47.290317897952661 ], [ -93.82894426136852, 47.311660264309808 ], [ -93.900567796166797, 47.306234238919046 ], [ -93.975834520546641, 47.335844834571503 ], [ -94.09412187352558, 47.432789822092673 ] ], [ [ -95.025822109602643, 47.156114203108018 ], [ -94.968099535065448, 47.317499701749909 ], [ -94.877071499350166, 47.451419175754438 ], [ -94.79428585450853, 47.48206330018121 ], [ -94.637060309385731, 47.439998684191949 ] ], [ [ -94.50774003757266, 47.456535142782684 ], [ -94.326484951819054, 47.405633856717145 ] ] ] } },
{ "type": "Feature", "properties": { "scalerank": 1, "featurecla": "River", "name": "Missouri", "name_en": "Missouri", "min_zoom": 2.0 }, "geometry": { "type": "MultiLineString", "coordinates": [ [ [ -98.559663255754629, 43.059878445134188 ], [ -98.143280402168784, 42.852268377883377 ], [ -97.96494503468557, 42.805862942121109 ], [ -97.88091915549461, 42.849581203609716 ], [ -97.698139614551508, 42.874644273014837 ], [ -97.416658087800499, 42.881000474392408 ], [ -97.23878780831069, 42.860536607178744 ], [ -97.164477098339376, 42.813200995429668 ], [ -97.019731411075725, 42.760180975871378 ], [ -96.804524908997337, 42.701424872559869 ], [ -96.675540533968444, 42.637604478164178 ], [ -96.632778286888367, 42.568668117639561 ], [ -96.557950812979584, 42.524794826520065 ], [ -96.451006436297973, 42.505984605705066 ], [ -96.383749559694365, 42.417772935472669 ], [ -96.35610266790377, 42.26013397919985 ], [ -96.295331183887015, 42.132906602457808 ], [ -96.201383429901341, 42.036116644567528 ], [ -96.154202846883834, 41.965294094546891 ], [ -96.15376359731215, 41.920438951496465 ], [ -96.131232672549743, 41.872431545279653 ], [ -96.086635911917767, 41.821375230482545 ], [ -96.068807543033643, 41.734326280233688 ], [ -96.077773403419769, 41.611284695432403 ], [ -96.058627285820535, 41.545784817115646 ], [ -96.011395026858963, 41.537878323026234 ], [ -95.990956997167643, 41.520489203713851 ], [ -95.997364875388655, 41.493643296700839 ], [ -95.981577724732176, 41.473799547111469 ], [ -95.943569709474502, 41.460932115624701 ], [ -95.932976040212054, 41.425456244110421 ], [ -95.949719204377743, 41.367423611210768 ], [ -95.936024949691614, 41.330991726187278 ], [ -95.891944952997164, 41.316160589939329 ], [ -95.883625047757732, 41.287557684639467 ], [ -95.911168585861503, 41.245183010287747 ], [ -95.906905280454282, 41.211955064374763 ], [ -95.870886806580813, 41.187822170956451 ], [ -95.846598883531613, 41.080335191016331 ], [ -95.834015672884959, 40.889494127252249 ], [ -95.838149787082955, 40.777743841904851 ], [ -95.859001227924296, 40.745110175194498 ], [ -95.826109178795548, 40.67617381466988 ], [ -95.739551154062497, 40.570857245065838 ], [ -95.684696621851572, 40.466367499560533 ], [ -95.661571417886591, 40.362756252299278 ], [ -95.607104458404024, 40.295473538173326 ], [ -95.521218228138707, 40.264571031328103 ], [ -95.463650682333082, 40.198063462658752 ], [ -95.434298469099019, 40.095976670586936 ], [ -95.362468227826412, 40.01032298431835 ], [ -95.116204190171231, 39.872088528063159 ], [ -95.055536058042605, 39.87079661687045 ], [ -94.984015876031833, 39.891157131296609 ], [ -94.929936489277509, 39.861494859700088 ], [ -94.893297899578386, 39.781809801181453 ], [ -94.898594733759921, 39.741140448273143 ], [ -94.945826992721493, 39.739486802773797 ], [ -95.004763963186292, 39.69155691182209 ], [ -95.075353970109575, 39.597376613839685 ], [ -95.057939012375471, 39.508958238032335 ], [ -94.9525190908833, 39.426379299664973 ], [ -94.882290819165917, 39.343128566829932 ], [ -94.847202521279314, 39.259154364482413 ], [ -94.777852749604676, 39.193990383849211 ], [ -94.622384202768728, 39.124408067278523 ], [ -94.504122687312133, 39.124408067278523 ], [ -94.421182013738928, 39.151098944660646 ], [ -94.334158901911735, 39.204429022581394 ], [ -94.239255133517588, 39.207219550541879 ], [ -94.136470710354956, 39.159496365165182 ], [ -94.02823442248058, 39.15363109020268 ], [ -93.914546271693041, 39.189597886333445 ], [ -93.772952846696455, 39.210991929533975 ], [ -93.603505825233583, 39.217813218905007 ], [ -93.512813687201856, 39.237450262919367 ], [ -93.500850592380914, 39.26985138563299 ], [ -93.469379645654101, 39.270729885675735 ], [ -93.418400845222777, 39.240085761248963 ], [ -93.342979092111364, 39.270109768051384 ], [ -93.243140224741524, 39.360853582926552 ], [ -93.108419765959411, 39.359044907796317 ], [ -92.938817714865593, 39.264683742660623 ], [ -92.876625129346223, 39.19200084066631 ], [ -92.921790330759109, 39.141022040235043 ], [ -92.932590704697247, 39.087123521533329 ], [ -92.909026252059846, 39.03033112208368 ], [ -92.816112026848543, 38.99327912033516 ], [ -92.653951381850732, 38.976019192232002 ], [ -92.50284949410883, 38.890262152276534 ], [ -92.292913987790257, 38.658880926813367 ], [ -92.123647834379994, 38.58609467203155 ], [ -91.97848873596638, 38.597851060378161 ], [ -91.80098019078315, 38.669888007225779 ], [ -91.61905331056181, 38.706268215405885 ], [ -91.432708096201623, 38.7069400089743 ], [ -91.237552049287615, 38.666580715327825 ], [ -91.033585171618313, 38.585190334466404 ], [ -90.871734584983074, 38.578808295566432 ], [ -90.752051968023864, 38.647512112094375 ], [ -90.660946417942796, 38.681463528419158 ], [ -90.598417934739871, 38.680636705219797 ], [ -90.512738410049565, 38.731718858438626 ], [ -90.403830329506093, 38.834709988075531 ], [ -90.316393805629616, 38.859514675062258 ], [ -90.256423306390445, 38.844967759654423 ], [ -90.133123338271389, 38.819026191105877 ] ], [ [ -100.394124925824656, 44.435530910423211 ], [ -100.372498338627395, 44.414860337634536 ], [ -100.344541388474283, 44.373984280050536 ], [ -100.225401373874263, 44.328767401794209 ], [ -100.019444953022116, 44.285669257030634 ], [ -99.922448289556883, 44.244534817028239 ], [ -99.934437221900225, 44.205364081787025 ], [ -99.921337246416726, 44.171154283043791 ], [ -99.883174201528163, 44.141802069809728 ], [ -99.804264289365449, 44.122475084157884 ], [ -99.684685025193744, 44.11312165014408 ], [ -99.646987067399209, 44.132086900590025 ], [ -99.691170416881221, 44.179267482708212 ], [ -99.684245774722683, 44.204588934531728 ], [ -99.626213141822973, 44.207999579217244 ], [ -99.587481655254123, 44.178182277989777 ], [ -99.568102993658215, 44.115085354005942 ], [ -99.509889492705895, 44.060308336160858 ], [ -99.364420335929708, 43.990596828381001 ] ], [ [ -111.69875790105624, 46.662681789333192 ], [ -111.75813412109278, 46.670691637109428 ], [ -111.813686286193104, 46.711076768278303 ], [ -111.885206468203933, 46.786472682967997 ], [ -111.913344285510334, 46.837012233827579 ], [ -111.898151414955805, 46.862721259278771 ], [ -111.919080370162931, 46.916051337199519 ], [ -111.97613115113171, 46.997079982854984 ], [ -111.989308640980937, 47.057076321415138 ], [ -111.958716193397549, 47.096117865447184 ], [ -111.61607560900211, 47.341503403958995 ], [ -111.453889126481954, 47.415090643518454 ], [ -111.347745734577927, 47.411679999732257 ], [ -111.292968715833524, 47.43948192025448 ], [ -111.289506395203944, 47.498496405984383 ], [ -111.23736487478908, 47.541129461855235 ], [ -111.13659583233175, 47.567381089665616 ], [ -111.03678280338363, 47.632338365623127 ], [ -110.93789995042232, 47.736052964772568 ], [ -110.856406215874131, 47.784163723776885 ], [ -110.792327439959365, 47.776773993624943 ], [ -110.617196011586657, 47.843488267869304 ], [ -110.331011928957309, 47.98430654561065 ], [ -110.166680874522683, 48.0434760609715 ], [ -110.124202847383458, 48.02094513620915 ], [ -110.089424607859314, 47.968028469438366 ], [ -110.062346157748948, 47.884777736603326 ], [ -109.994701707517777, 47.816048081653719 ], [ -109.886465420542663, 47.761891181432929 ], [ -109.609428067251486, 47.754604804068492 ], [ -109.163641323588195, 47.794240627303168 ], [ -108.934611375614452, 47.795248317655762 ], [ -108.922338223330314, 47.757679551969773 ], [ -108.873529832335862, 47.718276271832508 ], [ -108.788160366907391, 47.677038479042608 ], [ -108.60677608904524, 47.642725328411245 ], [ -108.190625780355447, 47.60177175556214 ] ], [ [ -101.399670782980195, 47.506196193599521 ], [ -101.422615118892566, 47.484388739248971 ], [ -101.407318895550532, 47.431187852537391 ], [ -101.361533576513295, 47.33928131767874 ], [ -101.247612880829763, 47.282178859866519 ], [ -101.065530971876797, 47.259777126313395 ], [ -100.978766242468055, 47.231019192281963 ], [ -100.987344530125938, 47.195879218451239 ], [ -100.966725633281328, 47.147923489077812 ], [ -100.916857875990161, 47.087203681005121 ], [ -100.901561652648127, 47.034467882287004 ], [ -100.920785285512466, 46.989767767968146 ], [ -100.892079027425154, 46.904010728912056 ], [ -100.77712480386657, 46.713763943451283 ] ], [ [ -106.405825161102257, 48.02073843063414 ], [ -106.366706102704427, 48.057867946748388 ], [ -106.220978563509846, 48.057712918016819 ], [ -105.955671760143559, 48.032649847712378 ], [ -105.729225633656029, 48.04213247293535 ], [ -105.541717699312358, 48.086109116842294 ], [ -105.340231289442443, 48.099777533106703 ], [ -105.124766404945603, 48.083086045784455 ], [ -104.977798631401697, 48.095204169337023 ], [ -104.899250454444882, 48.136183579708472 ], [ -104.749517992261474, 48.149981187182107 ], [ -104.528549567108826, 48.136648667701934 ], [ -104.277402106422016, 48.093292141419226 ], [ -103.996075609301897, 48.019859930591394 ], [ -103.834638434715941, 47.994176744461242 ], [ -103.772316657088027, 48.027301337586721 ] ] ] } },
{ "type": "Feature", "properties": { "scalerank": 3, "featurecla": "River", "name": "Niagara", "name_en": "Niagara", "min_zoom": 3.0 }, "geometry": { "type": "LineString", "coordinates": [ [ -79.059225633356277, 43.278056342326408 ], [ -79.066046922727253, 43.106103013743166 ] ] } },
{ "type": "Feature", "properties": { "scalerank": 4, "featurecla": "River", "name": "North Saskatchewan", "name_en": "North Saskatchewan", "min_zoom": 4.0 }, "geometry": { "type": "MultiLineString", "coordinates": [ [ [ -115.0, 52.35457526867787 ], [ -114.974940355512956, 52.363212388740806 ], [ -114.984371303892544, 52.462844550535635 ], [ -115.0, 52.501567386359199 ] ], [ [ -115.0, 53.099945513071077 ], [ -114.974320237888605, 53.131175848686496 ], [ -114.840555793515023, 53.275714830375193 ], [ -114.729451463314319, 53.320621649369684 ], [ -114.596436326874937, 53.314032904894702 ], [ -114.482593146456509, 53.337933254316283 ], [ -114.388025275745861, 53.392296861011403 ], [ -114.261883104621575, 53.395655829752798 ], [ -114.104269985871099, 53.348087673107671 ], [ -113.94665686712068, 53.332817288187357 ], [ -113.789069586791982, 53.349870510715562 ], [ -113.690600144980692, 53.389196275587722 ], [ -113.651274380108532, 53.450768744382117 ], [ -113.569238044100416, 53.499680487264754 ], [ -113.444516974478745, 53.536009019500682 ], [ -113.305817430230206, 53.6284839951403 ], [ -113.153061896988902, 53.777157091026993 ], [ -113.024232550691636, 53.876453355138267 ], [ -112.919329393136934, 53.92642446521694 ], [ -112.855870734846519, 53.975103665002166 ], [ -112.833908250865079, 54.022594306382189 ], [ -112.731847297214983, 54.03184438760843 ], [ -112.549636197052791, 54.00298309989023 ], [ -112.410006476817443, 54.006109523735574 ], [ -112.312906460564648, 54.041301174409739 ], [ -112.192939622765323, 54.021896674392053 ], [ -112.050105964318789, 53.947947699626695 ], [ -111.919778002153066, 53.907820949976895 ], [ -111.801955736268155, 53.901568101386829 ], [ -111.737437710781705, 53.869683742610675 ], [ -111.726275600738347, 53.812167873648491 ], [ -111.577628343273375, 53.773927313494767 ], [ -111.291547614330909, 53.754962063048822 ], [ -111.094272833924094, 53.772015285577027 ], [ -110.985804002952364, 53.824983629191195 ], [ -110.858266567847807, 53.850770169008172 ], [ -110.7116605295098, 53.849374905027901 ], [ -110.562522345629702, 53.801419175654473 ], [ -110.410903693050955, 53.706902980887889 ], [ -110.301737230089088, 53.668352362371706 ], [ -110.234997118322326, 53.685767320105811 ], [ -110.123324347340713, 53.660781765066474 ], [ -109.966641405476423, 53.593447374097082 ], [ -109.826236538885155, 53.56412099838542 ], [ -109.702006395678609, 53.572802639730071 ], [ -109.61255449109683, 53.54872142225588 ], [ -109.557777472352427, 53.491877345962791 ], [ -109.534523078077541, 53.451673081947206 ], [ -109.542765468951188, 53.428211982097366 ], [ -109.481916470568649, 53.408678289971135 ], [ -109.35200191955289, 53.393149522632427 ], [ -109.236453416791733, 53.359689032722713 ], [ -109.135219286340941, 53.308322658663826 ], [ -109.022177090700154, 53.215821845501807 ], [ -108.897326829869257, 53.082238267382195 ], [ -108.70966386589464, 52.970875555662417 ], [ -108.459239874720424, 52.881837063130035 ], [ -108.343432990440135, 52.818533433571133 ], [ -108.362346564941959, 52.781068020672649 ], [ -108.360796271330798, 52.755281480855729 ], [ -108.327800869414546, 52.734249172861098 ] ], [ [ -108.334002041161227, 52.734249172861098 ], [ -108.103111742113185, 52.611362616791382 ], [ -107.985496181803285, 52.566869208047592 ], [ -107.904209153729425, 52.559841214000869 ], [ -107.746673550244111, 52.50222199135186 ], [ -107.512889370448079, 52.394063218742588 ], [ -107.357498338877178, 52.337942613760674 ], [ -107.280552130576325, 52.333911851450864 ], [ -107.180351528899905, 52.3434203150955 ], [ -107.056870693627559, 52.366468003795376 ], [ -106.961631029348496, 52.441450507335105 ], [ -106.894632534264019, 52.568367824815311 ], [ -106.691492478894759, 52.76411815003263 ], [ -106.352288377606499, 53.028753159830501 ], [ -106.150078498224104, 53.171018378395502 ], [ -106.084940355113247, 53.191017157615761 ], [ -106.03357398195368, 53.185332749806605 ], [ -105.996031053790091, 53.153965155867297 ], [ -105.879500699097946, 53.16251760510346 ], [ -105.683957078556318, 53.210938422470292 ], [ -105.455908983412826, 53.236440741447097 ], [ -105.065080125647228, 53.240393988491803 ] ] ] } },
{ "type": "Feature", "properties": { "scalerank": 3, "featurecla": "River", "name": "Ohio", "name_en": "Ohio", "min_zoom": 3.0 }, "geometry": { "type": "MultiLineString", "coordinates": [ [ [ -85.186035122722672, 38.693659166337511 ], [ -85.211124030549513, 38.704123643491414 ], [ -85.246625739586193, 38.727042140982064 ], [ -85.306751268456253, 38.737196559773452 ], [ -85.405427415842553, 38.729961859252455 ], [ -85.444779019136377, 38.683091335496783 ], [ -85.424831915860182, 38.596584987607173 ], [ -85.458679979397516, 38.53020661104631 ], [ -85.546323207949627, 38.484007879959734 ], [ -85.608903367995993, 38.423029690367969 ], [ -85.646420457737918, 38.34729787889404 ], [ -85.706287604189527, 38.301357530225914 ], [ -85.788453131406868, 38.285208645262799 ], [ -85.854934861654499, 38.215032050388857 ], [ -85.905681118089092, 38.090905259969816 ], [ -85.96115576882363, 38.014010728512346 ], [ -86.021332973637811, 37.984348456016505 ], [ -86.103446824910975, 37.991867377377616 ], [ -86.207523159266373, 38.036567490797097 ], [ -86.267622850614032, 38.082585353831064 ], [ -86.28374589715537, 38.129869289636076 ], [ -86.314596727157209, 38.163769029117475 ], [ -86.342657030097826, 38.178729356574593 ], [ -86.36144141339048, 38.178987738992987 ], [ -86.362526618108916, 38.172114772778571 ], [ -86.354956020803684, 38.158859768563502 ], [ -86.365136278016791, 38.14459707309652 ], [ -86.429628465081578, 38.139687811643228 ], [ -86.457378709659679, 38.120154120416373 ], [ -86.448335334008448, 38.08597016009486 ], [ -86.462546352632046, 38.061759752310763 ], [ -86.499960089586409, 38.047497056843724 ], [ -86.51985551601922, 38.014837551711707 ], [ -86.5221809559863, 37.963729560071215 ], [ -86.548639289371692, 37.917065741890553 ], [ -86.599230516175339, 37.874794420326282 ], [ -86.673127814097313, 37.8890312773716 ], [ -86.770331184036877, 37.959776313026452 ], [ -86.869084845788962, 37.976131903564578 ], [ -86.969440477096327, 37.938046373041743 ], [ -87.044267951005111, 37.886447454986126 ], [ -87.093567267515368, 37.821283474352924 ], [ -87.141032070473614, 37.805237942177314 ], [ -87.209399990217321, 37.854847317050087 ], [ -87.372387458414437, 37.923473619212189 ], [ -87.457291835849503, 37.938098049885127 ], [ -87.518450893493878, 37.921561591294449 ], [ -87.561445685469948, 37.929054674233896 ], [ -87.576173468930392, 37.947761542261446 ], [ -87.587387254917871, 37.955693874772578 ], [ -87.599402024783558, 37.94646963106868 ], [ -87.600797288763829, 37.88673167582624 ], [ -87.615395881015047, 37.8489303652442 ], [ -87.64324947748139, 37.833039862699536 ], [ -87.664566006316079, 37.845545558980405 ], [ -87.679422980086429, 37.886369940620341 ], [ -87.714459601129647, 37.899599107313009 ], [ -87.769650031024071, 37.885233059058464 ], [ -87.825253872068515, 37.891434230805146 ], [ -87.874423997369547, 37.915747992276067 ], [ -87.892123175943766, 37.912983303636622 ], [ -87.905998297783185, 37.901821193593264 ], [ -87.902070889160143, 37.855105699468481 ], [ -87.912483690369982, 37.817691962514118 ], [ -87.938115200556012, 37.793817450614881 ], [ -87.974547085579502, 37.78802969001822 ], [ -88.021779344541073, 37.800432033511584 ], [ -88.041984829336343, 37.788856513217581 ], [ -88.073249071387522, 37.770924790646632 ], [ -88.128956265219415, 37.699507961423308 ], [ -88.140376756781848, 37.620649726104034 ], [ -88.107510545175501, 37.534350083789377 ], [ -88.190502895592147, 37.464561062543055 ], [ -88.389327968710745, 37.411256822144651 ], [ -88.494670376736451, 37.364282945601531 ], [ -88.50660763223641, 37.32358775517082 ], [ -88.492784186341112, 37.2615501974837 ], [ -88.453277554315662, 37.178144435917034 ], [ -88.446249559369619, 37.120421861379839 ], [ -88.471674363980696, 37.088382472972796 ], [ -88.613810391336472, 37.110086574535842 ], [ -88.872605963694241, 37.185534166068976 ], [ -89.046212937776829, 37.182976183004484 ], [ -89.134605475162516, 37.102464301286545 ], [ -89.165068732435998, 37.041563626060565 ], [ -89.15432003444198, 36.992109279919362 ] ], [ [ -79.990874192589899, 40.447712307477047 ], [ -80.148978237755443, 40.521583766977301 ], [ -80.222668830102407, 40.584473985386182 ], [ -80.264681769248227, 40.661006781637695 ], [ -80.344005093460282, 40.686199042252042 ], [ -80.519084845888869, 40.646950791745667 ], [ -80.637527228498755, 40.603258368678837 ], [ -80.65905046290851, 40.562976589398147 ], [ -80.623187018665931, 40.511558539395139 ], [ -80.604092577010761, 40.445206000356677 ], [ -80.601818813887121, 40.363893133861097 ], [ -80.668274705713088, 40.185247708015368 ], [ -80.803511929332046, 39.90914052981168 ], [ -80.872189907438212, 39.735507717307371 ], [ -80.874308640931019, 39.664297593659057 ], [ -80.963295457519337, 39.571124986029361 ], [ -81.1391245187815, 39.455989895317487 ], [ -81.262502000366965, 39.386536769956024 ], [ -81.333350389708698, 39.362817287687733 ], [ -81.392416551382723, 39.364832668392978 ], [ -81.439648810344295, 39.392557074549416 ], [ -81.492720506745968, 39.373617662525135 ], [ -81.551631639688367, 39.30804026984265 ], [ -81.606460334376891, 39.274140530361251 ], [ -81.657206590811484, 39.27197012002506 ], [ -81.700588955515855, 39.229466254464114 ], [ -81.736659105333388, 39.146628933678414 ], [ -81.770662197602292, 39.098828233036556 ], [ -81.802598232322509, 39.086064154337294 ], [ -81.80494951071131, 39.044051215191473 ], [ -81.777690192548334, 38.972789414699776 ], [ -81.780118984403543, 38.946977037360455 ], [ -81.795027635017277, 38.945943508586083 ], [ -81.809342007327757, 38.950025946840015 ], [ -81.843758510746625, 38.93431631144864 ], [ -81.88243832047209, 38.894215399321297 ], [ -81.896675177517409, 38.893543605752882 ], [ -81.907372199567305, 38.900235703914632 ], [ -81.918534308711344, 38.952351385907775 ], [ -81.949798549863146, 38.989325873290454 ], [ -82.001087409556249, 39.011107489219285 ], [ -82.072271694782842, 38.962945054270904 ], [ -82.163325568020525, 38.844916083710359 ], [ -82.20352983293543, 38.7682282578279 ], [ -82.187639329491446, 38.715208238269611 ], [ -82.180068732186214, 38.637590237299662 ], [ -82.202496304161059, 38.605835069732734 ], [ -82.252312384608842, 38.594078681386065 ], [ -82.290863003125082, 38.552014065396861 ], [ -82.318148159709779, 38.479667060186728 ], [ -82.387058681812675, 38.433985093936997 ], [ -82.497542894389028, 38.414968166647611 ], [ -82.621282111180449, 38.450676581259245 ], [ -82.758224657142193, 38.541162014615338 ], [ -82.844627651344979, 38.627668361605629 ], [ -82.880439419643437, 38.710247300872311 ], [ -83.000070359759263, 38.713993842342006 ], [ -83.203468797546918, 38.638907986014772 ], [ -83.356973639621742, 38.627409980086554 ], [ -83.460584885983678, 38.679499823657977 ], [ -83.538383755006237, 38.699860338084193 ], [ -83.616311815238021, 38.682781277134268 ], [ -83.689873216375815, 38.649527492799621 ], [ -83.752272508369515, 38.669371242388991 ], [ -83.828081834209229, 38.731227932023501 ], [ -83.94838456879279, 38.774222723999571 ], [ -84.113232388064205, 38.798381455839547 ], [ -84.227282274057643, 38.865199082871413 ], [ -84.290430873985599, 38.974701442617516 ], [ -84.358023647373386, 39.049916490153976 ], [ -84.430060594221004, 39.090895901424744 ], [ -84.508867153596213, 39.102833156924703 ], [ -84.59454667828652, 39.085779934396498 ], [ -84.660537482119082, 39.09446157484183 ], [ -84.706942918780612, 39.128903916682475 ], [ -84.765905727667189, 39.125002346481153 ], [ -84.837425910577281, 39.082679348073498 ], [ -84.860602790486382, 39.039710394519147 ], [ -84.83548804423782, 38.996043809873981 ], [ -84.83659908737792, 38.960567938359702 ], [ -84.863884243063353, 38.933231105830941 ], [ -84.85416907384365, 38.912896429826446 ], [ -84.807453579718867, 38.899538071924553 ], [ -84.78962520993548, 38.868377183560199 ], [ -84.800735643135397, 38.819387925412457 ], [ -84.901246304073652, 38.76957184496473 ], [ -85.093896043867289, 38.713554592770265 ], [ -85.135521410284809, 38.697250678176317 ], [ -85.169886237759613, 38.690377712861221 ], [ -85.186112637088513, 38.693659166337511 ] ] ] } },
{ "type": "Feature", "properties": { "scalerank": 4, "featurecla": "River", "name": "Rio Grande", "name_en": "Grande", "min_zoom": 4.0 }, "geometry": { "type": "MultiLineString", "coordinates": [ [ [ -99.172080654498586, 26.564141140501306 ], [ -99.10776933458709, 26.446913153819025 ], [ -99.015268520525751, 26.398957424445655 ], [ -98.87321000843508, 26.381232408349035 ], [ -98.765232102979155, 26.340408026709099 ], [ -98.691412319422966, 26.276458442003559 ], [ -98.598291388636653, 26.237856146643878 ], [ -98.48586931062016, 26.224575304007146 ], [ -98.378123949160909, 26.182355658386996 ], [ -98.275029466736441, 26.111197211582123 ], [ -98.082793138092825, 26.064430039714637 ], [ -97.801414964129265, 26.042054144583176 ], [ -97.587241990825191, 25.984202378836756 ], [ -97.440274217281285, 25.890823065632048 ], [ -97.375627000585553, 25.871806138342663 ], [ -97.358160366907384, 25.870514228049217 ], [ -97.349737107981127, 25.884776923516256 ], [ -97.338652513202874, 25.911183580058207 ], [ -97.281782599387441, 25.941620998910025 ], [ -97.14623531740591, 25.961464748499395 ] ], [ [ -101.03863338891972, 29.460295112029826 ], [ -101.016335008154044, 29.400660508675571 ], [ -100.924144253354598, 29.31469676404447 ], [ -100.75459387910422, 29.182508449905072 ], [ -100.658630744413301, 29.068536078277418 ], [ -100.636306525225905, 28.97280548758323 ], [ -100.549696824548789, 28.821341864635372 ], [ -100.398904995169346, 28.614222723799742 ], [ -100.331725633830899, 28.502549953717448 ], [ -100.348158738734753, 28.486426907176053 ], [ -100.336273159178916, 28.428135890958629 ], [ -100.296043056741667, 28.327676906863815 ], [ -100.221267259676267, 28.242617498898483 ], [ -100.111945767083455, 28.172957668861386 ], [ -100.001409878562981, 28.047849025612095 ], [ -99.889633755693239, 27.867291571848625 ], [ -99.754267340865056, 27.72993561473686 ], [ -99.595310634977807, 27.635884507963738 ], [ -99.505316128036839, 27.548344631299756 ], [ -99.484257982519864, 27.467393500010076 ], [ -99.485834113653368, 27.398043728335438 ], [ -99.510070359859185, 27.340321152898923 ], [ -99.499812588280292, 27.285518296632119 ], [ -99.455138312383156, 27.233712673001492 ], [ -99.440255500191142, 27.170124823501851 ], [ -99.457722133869368, 27.081706447694444 ], [ -99.456533576363427, 27.056669216711043 ] ], [ [ -106.566357998123067, 31.819530951392323 ], [ -106.436030035957344, 31.764469712707125 ], [ -106.346965705003242, 31.67899689359183 ], [ -106.255705126190605, 31.54466400843728 ], [ -106.148063117518802, 31.450922960026617 ], [ -106.024091355831388, 31.397773749259159 ], [ -105.81270890958848, 31.241039130551485 ], [ -105.51399329315592, 30.98077077894834 ], [ -105.275816616743441, 30.807267157653257 ], [ -105.098153042828642, 30.720554104188636 ], [ -104.978832160176012, 30.645933335854807 ], [ -104.917853970584247, 30.583353176707817 ], [ -104.835895148941916, 30.447650865095397 ], [ -104.681330939671113, 30.13436249483334 ], [ -104.681330939671113, 29.990521145134778 ], [ -104.622213101153648, 29.854276231163169 ], [ -104.503977424118773, 29.677672024444405 ], [ -104.400624559275968, 29.573750718820691 ], [ -104.312206183468561, 29.542434800825447 ], [ -104.215519579265163, 29.479906317622522 ], [ -104.110616421710461, 29.386113593267794 ], [ -103.98974524634599, 29.323171698914848 ], [ -103.852906053171807, 29.291080633664365 ], [ -103.663977017325465, 29.206899725741778 ], [ -103.422932298586659, 29.070680650191889 ], [ -103.257696906586943, 29.001124172042978 ], [ -103.168296678848606, 28.998178616250186 ], [ -103.090006883410922, 29.041871039317073 ], [ -103.022827521173156, 29.13220144304222 ], [ -102.956810878918873, 29.190363267151099 ], [ -102.892008633491628, 29.21638235096475 ], [ -102.865679491315461, 29.258033555803991 ], [ -102.877823452390373, 29.315316880769501 ], [ -102.834001838114318, 29.443965359014157 ], [ -102.734188809166199, 29.643953152116353 ], [ -102.614945441778673, 29.752344468722299 ], [ -102.476245897530134, 29.769087632887988 ], [ -102.385657111386536, 29.806656399473297 ], [ -102.343075731459805, 29.864973253213122 ], [ -102.268920051119437, 29.871174424959804 ], [ -102.163086717577926, 29.825259914713342 ], [ -101.990900844997952, 29.79570099500495 ], [ -101.752336595857173, 29.782471828312282 ], [ -101.611595832481669, 29.786967678615554 ], [ -101.568704393293103, 29.809240220959509 ], [ -101.546380174105707, 29.808077500975912 ], [ -101.544623175818856, 29.783531195508317 ], [ -101.509302333935523, 29.773118394298535 ], [ -101.440391811832626, 29.77683909734651 ], [ -101.380343797328351, 29.742551785136811 ], [ -101.303526781135986, 29.634082953265704 ] ], [ [ -107.293445400484813, 32.910342922088262 ], [ -107.24039954340418, 32.742859605386514 ], [ -107.171644050032853, 32.674414171277022 ], [ -107.069505581117653, 32.64914439539757 ], [ -106.975351121556969, 32.5838512235552 ], [ -106.889154832929137, 32.478534653951158 ], [ -106.846418423371517, 32.399314683425928 ], [ -106.847090216939932, 32.346294663867695 ], [ -106.777172003585065, 32.194727688132332 ], [ -106.566280483757282, 31.819530951392323 ] ], [ [ -107.18141089519662, 33.173195095177562 ], [ -107.279802822642125, 33.115782579002882 ] ], [ [ -107.426563890611021, 37.775963243309093 ], [ -107.066947598053162, 37.743949693323714 ], [ -106.924346483603301, 37.80885529243784 ], [ -106.813913946971013, 37.792215481059657 ], [ -106.688133511052683, 37.715631008864023 ], [ -106.54155331113634, 37.677700507072814 ], [ -106.374199184744555, 37.678423977484613 ], [ -106.195967170048846, 37.647288926642716 ], [ -106.006831427728173, 37.584295355446329 ], [ -105.8785963615328, 37.52494497293219 ], [ -105.811236131242424, 37.469237779100297 ], [ -105.763461269921606, 37.4060375023289 ], [ -105.73524593824942, 37.335318305095768 ], [ -105.73160274956723, 37.239536037558139 ], [ -105.752480027930915, 37.118716539037109 ], [ -105.742919888342158, 36.979732773948399 ], [ -105.702818976214758, 36.822584744090705 ], [ -105.694809129337841, 36.650683091451583 ], [ -105.718942023655416, 36.46402781872888 ], [ -105.760696580382842, 36.338919175479589 ], [ -105.849864265023768, 36.2435503199913 ], [ -106.006262986947263, 36.133272813889278 ], [ -106.072615525985725, 36.048032538770713 ], [ -106.101037564132241, 35.951087551249543 ], [ -106.166098191977937, 35.855227769346129 ], [ -106.267694057634628, 35.760375677795366 ], [ -106.343193326011146, 35.648315334984773 ], [ -106.392492641622084, 35.519072577537486 ], [ -106.487318895650503, 35.375722154254049 ], [ -106.627594571032603, 35.218315741078641 ], [ -106.692422654881568, 35.089383042893189 ], [ -106.681777309675056, 34.988949897220039 ], [ -106.716271328359085, 34.780874741975822 ], [ -106.795853034090214, 34.465183417380842 ], [ -106.849854905579377, 34.294651190300272 ], [ -106.87827694372595, 34.269278062532635 ], [ -106.886364305867971, 34.147063300031334 ], [ -106.874168667050299, 33.927903550908184 ], [ -106.928015509807892, 33.74884471301317 ], [ -107.047904832342113, 33.609835110402059 ], [ -107.123404100718631, 33.494234930797461 ], [ -107.169938727690123, 33.356000474542327 ] ] ] } },
{ "type": "Feature", "properties": { "scalerank": 4, "featurecla": "River", "name": "Saskatchewan", "name_en": "Saskatchewan", "min_zoom": 4.0 }, "geometry": { "type": "MultiLineString", "coordinates": [ [ [ -99.330288052451635, 53.159417019679779 ], [ -99.229829067457445, 53.184893500234921 ] ], [ [ -105.065080125647228, 53.240393988491803 ], [ -104.900594041581712, 53.16383535381857 ], [ -104.818738572726943, 53.156678168562678 ], [ -104.764685024394339, 53.193420111948683 ], [ -104.57100175672565, 53.233340156023417 ], [ -104.237688767922293, 53.276489976731114 ], [ -104.026642218463564, 53.343927720487955 ], [ -103.893601243602461, 53.481542060018114 ] ], [ [ -103.420632697041299, 53.652849432555342 ], [ -103.128557501927162, 53.752223211931721 ], [ -103.044686652367091, 53.808602200231405 ], [ -103.071661749689952, 53.855007635993672 ], [ -103.049570075398606, 53.921825263025539 ], [ -102.978437466116134, 54.009003404483565 ], [ -102.899527553953419, 54.058819484931348 ], [ -102.812866177332182, 54.071221828424711 ], [ -102.685742153377646, 54.053496812328092 ], [ -102.434362148694163, 53.981821600686374 ] ], [ [ -102.38054114435829, 53.96631867087001 ], [ -102.188408169401441, 53.903893541353909 ], [ -102.040251838351651, 53.883636379715199 ], [ -101.872045051238103, 53.884669908489514 ], [ -101.732001918953358, 53.904255275660489 ], [ -101.620096604874391, 53.942340807082644 ], [ -101.548137173291877, 53.981098131173894 ], [ -101.516046108940714, 54.020578924777624 ], [ -101.46049394384039, 53.994430650654067 ], [ -101.381480678890171, 53.902704982948649 ], [ -101.265441250613208, 53.862449042089679 ], [ -101.112453172475909, 53.873766180864607 ], [ -101.042793341539436, 53.858624986254142 ], [ -101.056435920281444, 53.817025458258342 ], [ -101.026437751001367, 53.760904853276429 ], [ -100.952772997076124, 53.690211493565641 ], [ -100.782085741263927, 53.659825751557264 ], [ -100.514350145143055, 53.669799303195362 ], [ -100.366193814093208, 53.653779608542152 ], [ -100.323379889270427, 53.590786038245142 ] ] ] } },
{ "type": "Feature", "properties": { "scalerank": 4, "featurecla": "River", "name": "Snake", "name_en": "Snake", "min_zoom": 4.0 }, "geometry": { "type": "MultiLineString", "coordinates": [ [ [ -113.473920864556248, 42.674759833599467 ], [ -113.623782517948825, 42.577918198865859 ], [ -113.78519385501238, 42.537662258906153 ], [ -114.008048468761785, 42.52166840267472 ], [ -114.284362352540484, 42.553940335078437 ], [ -114.614057990184051, 42.634503892740497 ], [ -114.813218960086886, 42.706695868319741 ], [ -114.881741909461539, 42.770567938659497 ], [ -114.913471239506066, 42.8253449574039 ], [ -114.908406948421884, 42.871026922754311 ], [ -114.961271939248547, 42.900172431312683 ], [ -115.0, 42.904613970991996 ] ], [ [ -112.864397345660961, 42.811909084236902 ], [ -113.022294684352175, 42.685947781165225 ], [ -113.135259365627178, 42.646389472296335 ], [ -113.316281908283429, 42.653624172817388 ] ], [ [ -111.188117235122263, 43.338879503186604 ], [ -111.348262498515453, 43.447968451782685 ], [ -111.409369880215763, 43.509954331727101 ], [ -111.424795294767023, 43.561269028942604 ], [ -111.586490851771373, 43.634701239770436 ], [ -111.894430711907773, 43.73035431609884 ], [ -112.043413866156982, 43.707978420967379 ], [ -112.033388638574763, 43.567573554376111 ], [ -112.071861741825899, 43.446030585443225 ], [ -112.158833177708971, 43.343297838224714 ], [ -112.311562873427818, 43.224855454715509 ], [ -112.639294806310204, 43.023575751319925 ] ], [ [ -110.630580207010894, 43.837066148783776 ], [ -110.727370164901174, 43.619560045160028 ], [ -110.780493537246912, 43.535275783550617 ], [ -110.822248094873657, 43.511607978125767 ], [ -110.837027554278166, 43.478199164160173 ], [ -110.824831916359813, 43.434920152243308 ], [ -110.791707323234334, 43.401666367908604 ], [ -110.73765377490173, 43.378360296790333 ], [ -110.725251431408424, 43.335649725654378 ], [ -110.754396939067476, 43.273534654500736 ], [ -110.83710506864395, 43.225604763549029 ], [ -110.982548387897737, 43.189560452153216 ], [ -111.047867398161884, 43.206510321893916 ] ] ] } },
{ "type": "Feature", "properties": { "scalerank": 3, "featurecla": "River", "name": "St. Clair", "name_en": "St. Clair", "min_zoom": 3.0 }, "geometry": { "type": "LineString", "coordinates": [ [ -82.417237718246042, 43.017374579573243 ], [ -82.488344489106851, 42.739510403082704 ], [ -82.545317755709846, 42.624685370733346 ], [ -82.645130784657965, 42.558048610854769 ] ] } },
{ "type": "Feature", "properties": { "scalerank": 2, "featurecla": "River", "name": "Saint Lawrence", "name_en": "Saint Lawrence", "min_zoom": 2.1 }, "geometry": { "type": "LineString", "coordinates": [ [ -74.708871019581863, 45.003868313372038 ], [ -74.762459479021686, 44.999062404706251 ], [ -74.856639777004091, 45.003919989316103 ], [ -74.99614030603027, 44.970123602622209 ], [ -75.17938493496672, 44.899378566967357 ], [ -75.401257696785251, 44.772280381434484 ], [ -75.791957363341623, 44.497051703273542 ] ] } },
{ "type": "Feature", "properties": { "scalerank": 5, "featurecla": "River", "name": "Tennessee", "name_en": "Tennessee", "min_zoom": 4.7 }, "geometry": { "type": "MultiLineString", "coordinates": [ [ [ -87.700455288081059, 34.773381659036374 ], [ -87.814040086980413, 34.763149725879202 ], [ -87.9648577538822, 34.843842474750488 ], [ -88.084437018953224, 34.932880968182189 ], [ -88.190787116432261, 35.012049261863979 ], [ -88.30620642798425, 35.125789089494958 ], [ -88.31116736538155, 35.185061957643256 ], [ -88.281815152147544, 35.238650417982456 ], [ -88.218201463326807, 35.286554470512442 ], [ -88.187738206952645, 35.328851630498377 ], [ -88.190477058069746, 35.365541897040941 ], [ -88.139291551164092, 35.390604966446119 ], [ -88.034181688034437, 35.404092515557181 ], [ -87.993719041600457, 35.418406886968285 ], [ -88.017903611862153, 35.433651435265574 ], [ -88.015268113532557, 35.464398912479851 ], [ -87.985786709089325, 35.510752672298054 ], [ -87.987337002700485, 35.579404811982556 ], [ -88.019944830989118, 35.670407009276119 ], [ -88.010307176135257, 35.766525173597927 ], [ -87.958424038138787, 35.867733466526317 ], [ -87.943179490740874, 35.925094305857556 ], [ -87.975399746301207, 35.945248114708761 ] ], [ [ -83.969494391153205, 35.870136419959863 ], [ -84.228780890825419, 35.766783556016321 ], [ -84.343580084753057, 35.735803534805314 ], [ -84.400320807359321, 35.742779852907915 ], [ -84.45695817717808, 35.77549103488343 ], [ -84.541759202724961, 35.863289293066487 ], [ -84.59821570539043, 35.802724514624686 ], [ -84.629996711379079, 35.789236965513624 ], [ -84.655938279927625, 35.802672837781301 ], [ -84.701206835027392, 35.749420274226338 ], [ -84.765828213301347, 35.629479274848734 ], [ -84.819520026428052, 35.566175645289832 ], [ -84.862230597564007, 35.559483547128025 ], [ -84.889670782880273, 35.528219305976222 ], [ -84.901866420798626, 35.472305406569319 ], [ -84.924423183982697, 35.449774481806969 ], [ -84.957315233111501, 35.460626532588435 ], [ -85.013022426943394, 35.391431789645424 ], [ -85.091544766377808, 35.242138577033757 ], [ -85.182314419674697, 35.132455349235045 ], [ -85.285357225255723, 35.062304592782766 ], [ -85.346800502840892, 35.049747219658514 ], [ -85.366644253329582, 35.09478322986223 ], [ -85.392430793146559, 35.096462713783239 ], [ -85.424056769504261, 35.05486318578744 ], [ -85.460178595265916, 35.049592190027624 ], [ -85.500692918543336, 35.080701402447801 ], [ -85.55893225791732, 35.080443020029406 ], [ -85.634948289332044, 35.048868719615768 ], [ -85.680113491644306, 35.009749661217938 ], [ -85.694479539898794, 34.963137518981341 ], [ -85.839380255894071, 34.802682196326373 ], [ -86.114738125264239, 34.52838369415224 ], [ -86.294132859943488, 34.403068345327938 ], [ -86.377538621510155, 34.426632798864603 ], [ -86.461564500701115, 34.477947496080105 ], [ -86.546158820672986, 34.556934922608662 ], [ -86.665996466363822, 34.59101553014267 ], [ -86.898514574288129, 34.574763292392106 ] ], [ [ -88.283287929594223, 37.021513169996865 ], [ -88.471674363980696, 37.088382472972796 ] ] ] } },
{ "type": "Feature", "properties": { "scalerank": 5, "featurecla": "River", "name": null, "name_en": null, "min_zoom": 4.7 }, "geometry": { "type": "LineString", "coordinates": [ [ -72.991327276932225, 46.177440090487835 ], [ -73.078557095233691, 46.160128485541236 ], [ -73.146304897353104, 46.123541571786177 ], [ -73.177181565776607, 46.070624905015393 ], [ -73.163952399083939, 46.044166571630058 ] ] } }
]
}
