{
"type": "FeatureCollection",
"name": "quapaw-1824-water-labels",
"crs": { "type": "name", "properties": { "name": "urn:ogc:def:crs:OGC:1.3:CRS84" } },
"features": [
{ "type": "Feature", "properties": { "stream_name": "Ables Creek", "priority": 0, "total_km": 16.455049078497762, "rank": 14 }, "geometry": { "type": "Point", "coordinates": [ -91.719729402504981, 33.819877659930668 ] } },
{ "type": "Feature", "properties": { "stream_name": "Arkansas River", "priority": 1, "total_km": 170.49027001206207, "rank": 2 }, "geometry": { "type": "Point", "coordinates": [ -91.739958088443117, 34.171566647427589 ] } },
{ "type": "Feature", "properties": { "stream_name": "Bayou Bartholomew", "priority": 1, "total_km": 229.96710136318009, "rank": 1 }, "geometry": { "type": "Point", "coordinates": [ -91.888218657201733, 34.08553825362808 ] } },
{ "type": "Feature", "properties": { "stream_name": "Bayou Imbeau", "priority": 1, "total_km": 10.234527807756013, "rank": 26 }, "geometry": { "type": "Point", "coordinates": [ -91.979227611795508, 34.196288402208822 ] } },
{ "type": "Feature", "properties": { "stream_name": "Bayou Meto", "priority": 1, "total_km": 6.2605716811123875, "rank": 33 }, "geometry": { "type": "Point", "coordinates": [ -91.440599926643273, 34.087556402445855 ] } },
{ "type": "Feature", "properties": { "stream_name": "Big Creek", "priority": 0, "total_km": 80.521483931034794, "rank": 4 }, "geometry": { "type": "Point", "coordinates": [ -92.150790902011735, 34.006320988916713 ] } },
{ "type": "Feature", "properties": { "stream_name": "Black Bayou", "priority": 0, "total_km": 6.5431228337700196, "rank": 32 }, "geometry": { "type": "Point", "coordinates": [ -91.950323338480416, 34.302822468112446 ] } },
{ "type": "Feature", "properties": { "stream_name": "Canal No. 43", "priority": 0, "total_km": 21.266079496635392, "rank": 11 }, "geometry": { "type": "Point", "coordinates": [ -91.470684104527379, 34.000960836705431 ] } },
{ "type": "Feature", "properties": { "stream_name": "Cane Creek", "priority": 0, "total_km": 13.928167939754104, "rank": 19 }, "geometry": { "type": "Point", "coordinates": [ -91.833088208021309, 33.95582882448565 ] } },
{ "type": "Feature", "properties": { "stream_name": "Choctaw Bayou", "priority": 0, "total_km": 57.972570562602797, "rank": 8 }, "geometry": { "type": "Point", "coordinates": [ -91.643316939871454, 33.949098107234015 ] } },
{ "type": "Feature", "properties": { "stream_name": "Clear Creek", "priority": 0, "total_km": 9.6376787223828622, "rank": 29 }, "geometry": { "type": "Point", "coordinates": [ -92.232516097598278, 34.530493263616137 ] } },
{ "type": "Feature", "properties": { "stream_name": "Cousart Bayou", "priority": 1, "total_km": 27.260153628647025, "rank": 9 }, "geometry": { "type": "Point", "coordinates": [ -91.858162669250063, 34.133021699864472 ] } },
{ "type": "Feature", "properties": { "stream_name": "Cross Bayou", "priority": 0, "total_km": 4.6885200913948735, "rank": 36 }, "geometry": { "type": "Point", "coordinates": [ -91.67361015690399, 33.939092501015004 ] } },
{ "type": "Feature", "properties": { "stream_name": "Cypress Creek", "priority": 0, "total_km": 78.943670862296941, "rank": 6 }, "geometry": { "type": "Point", "coordinates": [ -91.670059348824296, 34.126287678568396 ] } },
{ "type": "Feature", "properties": { "stream_name": "Deep Bayou", "priority": 0, "total_km": 63.445819151565992, "rank": 7 }, "geometry": { "type": "Point", "coordinates": [ -91.732626253243183, 34.041533724841564 ] } },
{ "type": "Feature", "properties": { "stream_name": "Derrieusseaux Creek", "priority": 1, "total_km": 79.759617313282291, "rank": 5 }, "geometry": { "type": "Point", "coordinates": [ -92.259612945678214, 34.188932140649356 ] } },
{ "type": "Feature", "properties": { "stream_name": "Fish Creek", "priority": 0, "total_km": 16.572473335638087, "rank": 13 }, "geometry": { "type": "Point", "coordinates": [ -92.239321593226435, 34.624050134109225 ] } },
{ "type": "Feature", "properties": { "stream_name": "Flat Creek", "priority": 0, "total_km": 12.405782633414496, "rank": 22 }, "geometry": { "type": "Point", "coordinates": [ -91.938745087256137, 34.024259902583353 ] } },
{ "type": "Feature", "properties": { "stream_name": "Fourche Creek", "priority": 0, "total_km": 10.209042854733875, "rank": 27 }, "geometry": { "type": "Point", "coordinates": [ -92.216961988689306, 34.717976680340783 ] } },
{ "type": "Feature", "properties": { "stream_name": "Harding Creek", "priority": 0, "total_km": 8.2262704424027771, "rank": 31 }, "geometry": { "type": "Point", "coordinates": [ -92.029210649358646, 34.212107715853968 ] } },
{ "type": "Feature", "properties": { "stream_name": "Hudgens Creek", "priority": 0, "total_km": 101.43007007885426, "rank": 3 }, "geometry": { "type": "Point", "coordinates": [ -91.98159242826857, 33.877780315118464 ] } },
{ "type": "Feature", "properties": { "stream_name": "Jacks Bayou", "priority": 0, "total_km": 14.281656014169423, "rank": 18 }, "geometry": { "type": "Point", "coordinates": [ -91.770069251146808, 34.113516940971166 ] } },
{ "type": "Feature", "properties": { "stream_name": "Johnson Creek", "priority": 0, "total_km": 14.897914435282864, "rank": 17 }, "geometry": { "type": "Point", "coordinates": [ -92.221144595054568, 34.205891864468924 ] } },
{ "type": "Feature", "properties": { "stream_name": "Lake Langhofer", "priority": 0, "total_km": 10.729472605045734, "rank": 23 }, "geometry": { "type": "Point", "coordinates": [ -91.986945251470587, 34.270366129585653 ] } },
{ "type": "Feature", "properties": { "stream_name": "Little Bayou Meto", "priority": 0, "total_km": 6.1888833875417584, "rank": 35 }, "geometry": { "type": "Point", "coordinates": [ -91.582240560622921, 34.124602467217862 ] } },
{ "type": "Feature", "properties": { "stream_name": "Lorance Creek", "priority": 0, "total_km": 9.019197791971262, "rank": 30 }, "geometry": { "type": "Point", "coordinates": [ -92.223259206240854, 34.579551990648838 ] } },
{ "type": "Feature", "properties": { "stream_name": "Main Street Ditch", "priority": 0, "total_km": 6.2209585846939586, "rank": 34 }, "geometry": { "type": "Point", "coordinates": [ -92.00869080847491, 34.187164236682364 ] } },
{ "type": "Feature", "properties": { "stream_name": "Melton's Creek", "priority": 0, "total_km": 10.11199163826757, "rank": 28 }, "geometry": { "type": "Point", "coordinates": [ -91.865777024172147, 34.047947735795766 ] } },
{ "type": "Feature", "properties": { "stream_name": "Nevins Creek", "priority": 0, "total_km": 15.336192106314181, "rank": 16 }, "geometry": { "type": "Point", "coordinates": [ -92.090489191414775, 34.190683787699918 ] } },
{ "type": "Feature", "properties": { "stream_name": "Pennington Bayou", "priority": 0, "total_km": 13.823046288886204, "rank": 20 }, "geometry": { "type": "Point", "coordinates": [ -92.173120596961382, 34.51091303853562 ] } },
{ "type": "Feature", "properties": { "stream_name": "Plum Bayou", "priority": 1, "total_km": 13.602169946098531, "rank": 21 }, "geometry": { "type": "Point", "coordinates": [ -91.870867214081471, 34.263897622399689 ] } },
{ "type": "Feature", "properties": { "stream_name": "Simpson Creek", "priority": 0, "total_km": 15.508190354829999, "rank": 15 }, "geometry": { "type": "Point", "coordinates": [ -92.229325124797469, 34.384643731790554 ] } },
{ "type": "Feature", "properties": { "stream_name": "Tar Camp Creek", "priority": 0, "total_km": 17.50191596260267, "rank": 12 }, "geometry": { "type": "Point", "coordinates": [ -92.147448817547215, 34.445487072442404 ] } },
{ "type": "Feature", "properties": { "stream_name": "Unnamed Trib", "priority": 0, "total_km": 10.499783008201534, "rank": 25 }, "geometry": { "type": "Point", "coordinates": [ -92.056000403294476, 34.311889123707878 ] } },
{ "type": "Feature", "properties": { "stream_name": "Walker Branch", "priority": 0, "total_km": 10.617632688966573, "rank": 24 }, "geometry": { "type": "Point", "coordinates": [ -91.923708983105186, 34.049464769353335 ] } },
{ "type": "Feature", "properties": { "stream_name": "Waterloo Ditch", "priority": 0, "total_km": 3.1028259944756247, "rank": 37 }, "geometry": { "type": "Point", "coordinates": [ -92.004514569422639, 34.328349901655123 ] } },
{ "type": "Feature", "properties": { "stream_name": "Wells Bayou", "priority": 0, "total_km": 25.817751295143676, "rank": 10 }, "geometry": { "type": "Point", "coordinates": [ -91.623233408956395, 33.923446684023993 ] } }
]
}
