{
  "type": "FeatureCollection",
  "features": [
    {
      "type": "Feature",
      "geometry": {
        "type": "Point",
        "coordinates": [
          -92.0077,
          34.2036
        ]
      },
      "properties": {
        "label": "Vaugine Township",
        "family": "Vaugine",
        "kind": "Place-name survival",
        "note": "The Vaugine family name survives in Vaugine Township.",
        "source_place_name": "Vaugine Township"
      }
    },
    {
      "type": "Feature",
      "geometry": {
        "type": "Point",
        "coordinates": [
          -91.6443165,
          34.3265031
        ]
      },
      "properties": {
        "label": "Vallier",
        "family": "Vallière",
        "kind": "Place-name survival",
        "note": "The Vallière family name survives in the place-name Vallier.",
        "source_place_name": "Vallier"
      }
    },
    {
      "type": "Feature",
      "geometry": {
        "type": "Point",
        "coordinates": [
          -92.00685853,
          34.22326903
        ]
      },
      "properties": {
        "label": "St. Joseph’s Cemetery",
        "family": "Saracen",
        "kind": "Grave marker",
        "note": "Saracen was reinterred at St. Joseph’s Catholic Cemetery in Pine Bluff; his present marker dates from the early twentieth century.",
        "source_place_name": "St. Joseph's Parish"
      }
    },
    {
      "type": "Feature",
      "geometry": {
        "type": "Point",
        "coordinates": [
          -92.00532524,
          34.22944392
        ]
      },
      "properties": {
        "label": "Joseph Bonne’s cabin site",
        "family": "Bonne",
        "kind": "Historic site",
        "note": "Project location for the site of Joseph Bonne’s cabin in Pine Bluff.",
        "source_place_name": "Pine Bluffs / Joseph Bonne's Cabin"
      }
    },
    {
      "type": "Feature",
      "geometry": {
        "type": "Point",
        "coordinates": [
          -91.94254448,
          34.32470703
        ]
      },
      "properties": {
        "label": "St. Mary’s",
        "family": "Coussot / Vallière / Vaugine",
        "kind": "Grave markers",
        "note": "Surviving grave markers include Coosotte, Vallier, and Vaugine.",
        "source_place_name": "Old St. Mary's"
      }
    },
    {
      "type": "Feature",
      "geometry": {
        "type": "Point",
        "coordinates": [
          -91.776389,
          34.226389
        ]
      },
      "properties": {
        "label": "New Gascony / St. Peter’s Cemetery",
        "family": "Vaugine",
        "kind": "Cemetery context",
        "note": "St. Peter’s Cemetery is the principal surviving remnant of New Gascony; members of the Vaugine family are buried there.",
        "source_place_name": "New Gascony"
      }
    },
    {
      "type": "Feature",
      "geometry": {
        "type": "Point",
        "coordinates": [
          -92.00428007,
          34.23114168
        ]
      },
      "properties": {
        "label": "Lake Saracen",
        "family": "Saracen",
        "kind": "Modern commemoration",
        "note": "Lake Pine Bluff was renamed Lake Saracen in 2007.",
        "source_place_name": "Lake Saracen"
      }
    }
  ]
}